{"pageProps":{"city":{"slug":"braine-lalleud","name":"Braine-l'Alleud","center":{"lat":50.683627,"lon":4.3749516},"bbox":[4.25,50.6,4.5,50.78]},"items":[{"osm_id":1774859786,"type":"node","lat":50.6856732,"lon":4.3754323,"tags":{"addr:city":"Braine l'Alleud","addr:housenumber":"13","addr:postcode":"1420","addr:street":"Place de la Gare","amenity":"pharmacy","branch":"Pl. de la Gare","brand":"Lloydspharma","contact:email":"Pharmacie.Gare@lloydspharma.be","dispensing":"yes","healthcare":"pharmacy","name":"Lloydspharma","opening_hours":"Mo-Fr 08:30-13:00, 13:30-19:00; Sa 08:30-12:30; Su off","phone":"+32 2 384 22 77","website":"https://www.lloydspharma.be/"},"timestamp":"2022-02-22T17:03:36Z","user":{"name":"leonlapin","id":683726}},{"osm_id":1913068900,"type":"node","lat":50.6423888,"lon":4.3643918,"tags":{"amenity":"pharmacy","dispensing":"yes","healthcare":"pharmacy","name":"Pharmacie Jonkheere","phone":"+3223842306","wheelchair":"yes"},"timestamp":"2022-07-14T12:04:19Z","user":{"name":"leonlapin","id":683726}},{"osm_id":2498823895,"type":"node","lat":50.6644234,"lon":4.3467357,"tags":{"addr:city":"Ophain-Bois-Seigneur-Isaac","addr:housenumber":"39","addr:postcode":"1421","addr:street":"Rue des Combattants","amenity":"pharmacy","name":"Williame","phone":"+32 2 384 29 57"},"timestamp":"2021-09-21T11:51:08Z","user":{"name":"EIzquierdo","id":6591875}},{"osm_id":98162017,"type":"way","lat":50.6999622,"lon":4.3614505,"tags":{"addr:housenumber":"577","addr:street":"Chaussée d'Alsemberg","amenity":"pharmacy","building":"yes","dispensing":"yes","email":"braine@pharmacieservais.be","name":"Pharmacie Servais","opening_hours":"Mo-Fr 08:30-19:00; Sa 9:00-18:00","phone":"+32 2 386 45 00","wheelchair":"yes"},"timestamp":"2022-05-09T09:58:59Z","user":{"name":"joost schouppe import","id":4212780}},{"osm_id":170148466,"type":"way","lat":50.6840891,"lon":4.371368,"tags":{"addr:city":"Braine-l'Alleud","addr:housenumber":"2","addr:postcode":"1420","addr:street":"Avenue Léon Jourez","amenity":"pharmacy","building":"yes","building:levels":"3","dispensing":"yes","healthcare":"pharmacy","name":"Pharmacie centrale","roof:levels":"1"},"timestamp":"2020-05-24T18:18:55Z","user":{"name":"Sun937","id":9641966}},{"osm_id":221604355,"type":"way","lat":50.6893813,"lon":4.3686602,"tags":{"addr:city":"Braine-l'Alleud","addr:housenumber":"156B","addr:postcode":"1420","addr:street":"Chaussée d'Alsemberg","amenity":"pharmacy","building":"yes","dispensing":"yes","healthcare":"pharmacy","name":"Pharmacie de L'Estrée"},"timestamp":"2020-12-25T13:46:44Z","user":{"name":"eMerzh","id":15399}},{"osm_id":337063488,"type":"way","lat":50.6783784,"lon":4.3794245,"tags":{"addr:city":"Braine-l'Alleud","addr:housenumber":"134,136","addr:postcode":"1420","addr:street":"Avenue Alphonse Allard","amenity":"pharmacy","building":"yes","contact:facebook":"https://www.facebook.com/pg/Pharmacie-de-lAlliance-498780557140064","dispensing":"yes","healthcare":"pharmacy","name":"Pharmacie de l'Alliance","opening_hours":"Mo-Fr 08:00-19:00; Sa 08:30-18:00; Su off","phone":"+32 2 384 36 44","wheelchair":"yes"},"timestamp":"2020-05-10T17:25:10Z","user":{"name":"Sun937","id":9641966}},{"osm_id":397960497,"type":"way","lat":50.6825159,"lon":4.3999946,"tags":{"addr:city":"Braine l'Alleud","addr:housenumber":"86","addr:postcode":"1420","addr:street":"Chaussée de Nivelles","amenity":"pharmacy","building":"yes","healthcare":"pharmacy","name":"Pharmacie Servais","opening_hours":"Mo-Fr 09:00-19:00; Sa 09:00-18:00","phone":"+32 2 384 24 57","source:geometry:date":"2017-08-02","source:geometry:ref":"Picc/3154889"},"timestamp":"2022-05-18T20:30:59Z","user":{"name":"eMerzh","id":15399}},{"osm_id":437028322,"type":"way","lat":50.6829776,"lon":4.3699524,"tags":{"addr:city":"Braine-l'Alleud","addr:housenumber":"4","addr:postcode":"1420","addr:street":"Rue du Môle","amenity":"pharmacy","building":"yes","building:levels":"3","dispensing":"yes","email":"braine.lalleud@pharmacie-familia.be","healthcare":"pharmacy","name":"Pharmacie Familia","opening_hours":"Mo-Fr 08:30-12:30,13:30-18:30; Sa 08:30-12:00","phone":"+32 2 384 25 20"},"timestamp":"2022-09-29T22:38:50Z","user":{"name":"PtitGNU","id":71064}},{"osm_id":477506519,"type":"way","lat":50.6853224,"lon":4.3772446,"tags":{"addr:city":"Braine-l'Alleud","addr:housenumber":"2","addr:postcode":"1420","addr:street":"Avenue Napoléon","amenity":"pharmacy","building":"yes","contact:email":"pharmacie.genonceaux@gmail.com","dispensing":"yes","healthcare":"pharmacy","name":"Pharmacie Genonceaux","opening_hours":"Mo-Fr 08:30-12:30, 13:30-18:45; Sa 08:30-12:30; Su off","phone":"+32 2 384 32 80","website":"https://www.pharmaciemeurisse.be"},"timestamp":"2020-04-26T14:51:18Z","user":{"name":"Sun937","id":9641966}},{"osm_id":762370190,"type":"way","lat":50.685766,"lon":4.3786638,"tags":{"addr:city":"Braine-l'Alleud","addr:housenumber":"37","addr:postcode":"1420","addr:street":"Chaussée Reine Astrid","amenity":"pharmacy","building":"yes","contact:facebook":"https://www.facebook.com/pg/pharmacievalleebailly","dispensing":"yes","healthcare":"pharmacy","name":"Pharmacie Vallée Bailly","opening_hours":"Mo-Fr 08:30-12:30, 13:30-19:00; Sa 08:30-12:30; Su off","phone":"+32 2 384 20 62","website":"https://www.pharmacie-vallee-bailly.be/"},"timestamp":"2020-04-28T20:54:19Z","user":{"name":"Sun937","id":9641966}}],"history":[{"date":"2022-09-14T22:00:00.000Z","count":11},{"date":"2022-09-15T22:00:00.000Z","count":11},{"date":"2022-09-16T22:00:00.000Z","count":11},{"date":"2022-09-17T22:00:00.000Z","count":11},{"date":"2022-09-18T22:00:00.000Z","count":11},{"date":"2022-09-19T22:00:00.000Z","count":11},{"date":"2022-09-20T22:00:00.000Z","count":11},{"date":"2022-09-21T22:00:00.000Z","count":11},{"date":"2022-09-22T22:00:00.000Z","count":11},{"date":"2022-09-23T22:00:00.000Z","count":11},{"date":"2022-09-24T22:00:00.000Z","count":11},{"date":"2022-09-25T22:00:00.000Z","count":11},{"date":"2022-09-26T22:00:00.000Z","count":11},{"date":"2022-09-27T22:00:00.000Z","count":11},{"date":"2022-09-28T22:00:00.000Z","count":11},{"date":"2022-09-29T22:00:00.000Z","count":11},{"date":"2022-09-30T22:00:00.000Z","count":11},{"date":"2022-10-01T22:00:00.000Z","count":11},{"date":"2022-10-02T22:00:00.000Z","count":11},{"date":"2022-10-03T22:00:00.000Z","count":11},{"date":"2022-10-04T22:00:00.000Z","count":11},{"date":"2022-10-05T22:00:00.000Z","count":11},{"date":"2022-10-06T22:00:00.000Z","count":11},{"date":"2022-10-07T22:00:00.000Z","count":11},{"date":"2022-10-08T22:00:00.000Z","count":11},{"date":"2022-10-09T22:00:00.000Z","count":11},{"date":"2022-10-10T22:00:00.000Z","count":11},{"date":"2022-10-11T22:00:00.000Z","count":11},{"date":"2022-10-12T22:00:00.000Z","count":11},{"date":"2022-10-13T22:00:00.000Z","count":11},{"date":"2022-10-14T22:00:00.000Z","count":11}],"contributors":[{"count":"1","username":"PtitGNU"},{"count":"1","username":"EIzquierdo"},{"count":"4","username":"Sun937"},{"count":"1","username":"joost schouppe import"},{"count":"2","username":"eMerzh"},{"count":"2","username":"leonlapin"}],"listDefinition":{"slug":"pharmacy","name":"Pharmacies","query":"nwr[\"amenity\"=\"pharmacy\"](area.b);","props":{"withOpening":true},"tags":"\"amenity\"=\"pharmacy\""}},"__N_SSG":true}