{"pageProps":{"city":{"slug":"braine-lalleud","name":"Braine-l'Alleud","center":{"lat":50.683627,"lon":4.3749516},"bbox":[4.25,50.6,4.5,50.78]},"items":[{"osm_id":1765529083,"type":"node","lat":50.6652411,"lon":4.3473608,"tags":{"contact:phone":"+32 2 387 12 32","name":"Boucherie Vincent Plasman","opening_hours":"Tu-Fr 08:30-19:00, Sa 08:00-18:00, Su 08:30-13:00","shop":"butcher"},"timestamp":"2025-02-05T22:59:49Z","user":{"name":"bxl-forever_repair","id":20124809}},{"osm_id":2306534873,"type":"node","lat":50.6857481,"lon":4.370112,"tags":{"name":"Boucherie Carrez Marchandt","phone":"+32 2 384 21 01","shop":"butcher"},"timestamp":"2024-04-22T10:15:23Z","user":{"name":"cEvLGWiQ","id":5432507}},{"osm_id":4100816289,"type":"node","lat":50.6846279,"lon":4.3723065,"tags":{"addr:city":"Braine-l'Alleud","addr:housenumber":"35","addr:postcode":"1420","addr:street":"Avenue Léon Jourez","name":"Boucherie Côte & Côte","opening_hours":"Tu-Sa 09:30-19:00; Su 09:30-16:00","phone":"+32 2 384 21 32","shop":"butcher"},"timestamp":"2022-02-22T15:23:09Z","user":{"name":"leonlapin","id":683726}},{"osm_id":9885971462,"type":"node","lat":50.6431974,"lon":4.3651095,"tags":{"addr:city":"Braine-l'Alleud","addr:housenumber":"151","addr:postcode":"1428","addr:street":"Grand'Route","contact:facebook":"https://www.facebook.com/lessaveursaunaturel/","name":"Les saveurs au naturel - Boucherie Vanden Bossche","opening_hours":"Tu-We 08:30-12:30,14:00-18:00; Fr 08:30-12:30,14:00-18:00; Sa 08:30-16:00","phone":"+32 2 387 48 61","shop":"butcher"},"timestamp":"2025-01-07T10:07:23Z","user":{"name":"M!dgard","id":763799}},{"osm_id":221606984,"type":"way","lat":50.6869854,"lon":4.3687731,"tags":{"addr:housenumber":"111","addr:street":"Chaussée d'Alsemberg","building":"house","name":"Boucherie Potvin","shop":"butcher","source:geometry:date":"2016-08-16","source:geometry:ref":"Picc/1337460"},"timestamp":"2023-11-06T20:00:24Z","user":{"name":"eMerzh","id":15399}},{"osm_id":762370192,"type":"way","lat":50.6857458,"lon":4.3785002,"tags":{"addr:city":"Braine-l'Alleud","addr:housenumber":"33","addr:postcode":"1420","addr:street":"Chaussée Reine Astrid","building":"house","level":"2","name":"L'Ardennaise","phone":"+32 2 384 23 46","shop":"butcher","source:geometry:date":"2016-08-16","source:geometry:ref":"Picc/3264792"},"timestamp":"2023-11-07T20:55:00Z","user":{"name":"eMerzh","id":15399}},{"osm_id":791075749,"type":"way","lat":50.6803579,"lon":4.3778213,"tags":{"addr:city":"Braine-l'Alleud","addr:housenumber":"66","addr:postcode":"1420","addr:street":"Avenue Alphonse Allard","building":"house","contact:facebook":"https://www.facebook.com/votreboucherie","delivery":"yes","level":"2","name":"Chez Bernard","opening_hours":"Su-Mo off; Tu-Fr 09:00-18:30; Sa 08:00-13:00","phone":"+32 2 384 79 22","shop":"butcher","source:geometry:date":"2016-08-16","source:geometry:ref":"Picc/2127601","website":"https://chezbernard.be"},"timestamp":"2024-04-27T12:03:03Z","user":{"name":"googlenaut","id":519916}}],"history":[{"date":"2025-09-24T22:00:00.000Z","count":7},{"date":"2025-09-25T22:00:00.000Z","count":7},{"date":"2025-09-26T22:00:00.000Z","count":7},{"date":"2025-09-27T22:00:00.000Z","count":7},{"date":"2025-09-28T22:00:00.000Z","count":7},{"date":"2025-09-29T22:00:00.000Z","count":7},{"date":"2025-09-30T22:00:00.000Z","count":7},{"date":"2025-10-01T22:00:00.000Z","count":7},{"date":"2025-10-02T22:00:00.000Z","count":7},{"date":"2025-10-03T22:00:00.000Z","count":7},{"date":"2025-10-04T22:00:00.000Z","count":7},{"date":"2025-10-05T22:00:00.000Z","count":7},{"date":"2025-10-06T22:00:00.000Z","count":7},{"date":"2025-10-07T22:00:00.000Z","count":7},{"date":"2025-10-08T22:00:00.000Z","count":7},{"date":"2025-10-09T22:00:00.000Z","count":7},{"date":"2025-10-10T22:00:00.000Z","count":7},{"date":"2025-10-11T22:00:00.000Z","count":7},{"date":"2025-10-12T22:00:00.000Z","count":7},{"date":"2025-10-13T22:00:00.000Z","count":7},{"date":"2025-10-14T22:00:00.000Z","count":7},{"date":"2025-10-15T22:00:00.000Z","count":7},{"date":"2025-10-16T22:00:00.000Z","count":7},{"date":"2025-10-17T22:00:00.000Z","count":7},{"date":"2025-10-18T22:00:00.000Z","count":7},{"date":"2025-10-19T22:00:00.000Z","count":7},{"date":"2025-10-20T22:00:00.000Z","count":7},{"date":"2025-10-21T22:00:00.000Z","count":7},{"date":"2025-10-22T22:00:00.000Z","count":7},{"date":"2025-10-23T22:00:00.000Z","count":7},{"date":"2025-10-24T22:00:00.000Z","count":7}],"contributors":[{"count":"1","username":"M!dgard"},{"count":"2","username":"eMerzh"},{"count":"1","username":"leonlapin"},{"count":"1","username":"googlenaut"},{"count":"1","username":"cEvLGWiQ"},{"count":"1","username":"bxl-forever_repair"}],"listDefinition":{"slug":"shop-butcher","name":"Boucher","query":"nwr[\"shop\"=\"butcher\"](area.b);","props":{"withOpening":true},"tags":"\"shop\"=\"butcher\""}},"__N_SSG":true}