{"pageProps":{"city":{"slug":"braine-lalleud","name":"Braine-l'Alleud","center":{"lat":50.683627,"lon":4.3749516},"bbox":[4.25,50.6,4.5,50.78]},"items":[{"osm_id":1765529083,"type":"node","lat":50.6652468,"lon":4.3473501,"tags":{"addr:city":"Ophain-Bois-Seigneur-Isaac","addr:housenumber":"5","addr:postcode":"1421","addr:street":"Rue des Combattants","name":"Boucherie Vincent Plasman","opening_hours":"Tu-Fr 08:30-19:00, Sa 08:00-18:00, Su 08:30-13:00","phone":"+32 2 387 12 32","shop":"butcher"},"timestamp":"2023-10-18T06:20:30Z","user":{"name":"eMerzh","id":15399}},{"osm_id":2306534873,"type":"node","lat":50.6857481,"lon":4.370112,"tags":{"name":"Boucherie Carrez Marchandt","shop":"butcher"},"timestamp":"2013-05-16T16:08:20Z","user":{"name":"leonlapin","id":683726}},{"osm_id":4100816289,"type":"node","lat":50.6846279,"lon":4.3723065,"tags":{"addr:city":"Braine-l'Alleud","addr:housenumber":"35","addr:postcode":"1420","addr:street":"Avenue Léon Jourez","name":"Boucherie Côte & Côte","opening_hours":"Tu-Sa 09:30-19:00; Su 09:30-16:00","phone":"+32 2 384 21 32","shop":"butcher"},"timestamp":"2022-02-22T15:23:09Z","user":{"name":"leonlapin","id":683726}},{"osm_id":9885971462,"type":"node","lat":50.6431974,"lon":4.3651095,"tags":{"addr:city":"Braine-l'Alleud","addr:housenumber":"151","addr:postcode":"1428","addr:street":"Grand'Route","name":"Les saveurs au naturel","phone":"+32 2 387 48 61","shop":"butcher"},"timestamp":"2023-02-28T10:09:48Z","user":{"name":"cEvLGWiQ","id":5432507}},{"osm_id":221606984,"type":"way","lat":50.6869854,"lon":4.3687731,"tags":{"addr:housenumber":"111","addr:street":"Chaussée d'Alsemberg","building":"house","name":"Boucherie Potvin","shop":"butcher","source:geometry:date":"2016-08-16","source:geometry:ref":"Picc/1337460"},"timestamp":"2023-11-06T20:00:24Z","user":{"name":"eMerzh","id":15399}},{"osm_id":762370192,"type":"way","lat":50.6857458,"lon":4.3785002,"tags":{"addr:city":"Braine-l'Alleud","addr:housenumber":"33","addr:postcode":"1420","addr:street":"Chaussée Reine Astrid","building":"house","level":"2","name":"L'Ardennaise","phone":"+32 2 384 23 46","shop":"butcher","source:geometry:date":"2016-08-16","source:geometry:ref":"Picc/3264792"},"timestamp":"2023-11-07T20:55:00Z","user":{"name":"eMerzh","id":15399}},{"osm_id":791075749,"type":"way","lat":50.6803577,"lon":4.3778213,"tags":{"addr:city":"Braine-l'Alleud","addr:housenumber":"66","addr:postcode":"1420","addr:street":"Avenue Alphonse Allard","building":"house","contact:facebook":"https://www.facebook.com/votreboucherie","delivery":"yes","level":"2","name":"Chez Bernard","opening_hours":"Su-Mo off; Tu-Fr 09:00-18:30; Sa 08:00-13:00","phone":"+32 2 384 79 22","shop":"butcher","source:geometry:date":"2016-08-16","source:geometry:ref":"Picc/2127601","website":"https://chezbernard.be"},"timestamp":"2023-11-13T20:50:00Z","user":{"name":"eMerzh","id":15399}}],"history":[{"date":"2023-11-19T23:00:00.000Z","count":7},{"date":"2023-11-20T23:00:00.000Z","count":7},{"date":"2023-11-21T23:00:00.000Z","count":7},{"date":"2023-11-22T23:00:00.000Z","count":7},{"date":"2023-11-23T23:00:00.000Z","count":7},{"date":"2023-11-24T23:00:00.000Z","count":7},{"date":"2023-11-25T23:00:00.000Z","count":7},{"date":"2023-11-26T23:00:00.000Z","count":7},{"date":"2023-11-27T23:00:00.000Z","count":7},{"date":"2023-11-28T23:00:00.000Z","count":7},{"date":"2023-11-29T23:00:00.000Z","count":7},{"date":"2023-11-30T23:00:00.000Z","count":7},{"date":"2023-12-01T23:00:00.000Z","count":7},{"date":"2023-12-02T23:00:00.000Z","count":7},{"date":"2023-12-03T23:00:00.000Z","count":7},{"date":"2023-12-04T23:00:00.000Z","count":7},{"date":"2023-12-05T23:00:00.000Z","count":7},{"date":"2023-12-06T23:00:00.000Z","count":7},{"date":"2023-12-07T23:00:00.000Z","count":7},{"date":"2023-12-08T23:00:00.000Z","count":7},{"date":"2023-12-09T23:00:00.000Z","count":7},{"date":"2023-12-10T23:00:00.000Z","count":7},{"date":"2023-12-11T23:00:00.000Z","count":7},{"date":"2023-12-12T23:00:00.000Z","count":7},{"date":"2023-12-13T23:00:00.000Z","count":7},{"date":"2023-12-14T23:00:00.000Z","count":7},{"date":"2023-12-15T23:00:00.000Z","count":7},{"date":"2023-12-16T23:00:00.000Z","count":7},{"date":"2023-12-17T23:00:00.000Z","count":7},{"date":"2023-12-18T23:00:00.000Z","count":7},{"date":"2023-12-19T23:00:00.000Z","count":7}],"contributors":[{"count":"1","username":"cEvLGWiQ"},{"count":"2","username":"leonlapin"},{"count":"4","username":"eMerzh"}],"listDefinition":{"slug":"shop-butcher","name":"Boucher","query":"nwr[\"shop\"=\"butcher\"](area.b);","props":{"withOpening":true},"tags":"\"shop\"=\"butcher\""}},"__N_SSG":true}