{"pageProps":{"city":{"slug":"braine-lalleud","name":"Braine-l'Alleud","center":{"lat":50.683627,"lon":4.3749516},"bbox":[4.25,50.6,4.5,50.78]},"items":[{"lat":50.6971129,"lon":4.3636184,"tags":{"name":"Bio-Planet","shop":"supermarket","brand":"Bio-Planet","level":"-1","phone":"+32 2 384 47 71","branch":"Braine l'Alleud","organic":"only","website":"https://www.bioplanet.be/fr/magasins/bioplanet-braine-lalleud","wheelchair":"yes","addr:street":"Chaussée d'Alsemberg","opening_hours":"Mo-Th,Sa 09:00-19:30; Fr 09:00-20:00","brand:wikidata":"Q122415968","addr:housenumber":"437"},"type":"node","user":{"id":19397909,"name":"ValidDistress"},"osm_id":306291158,"timestamp":"2024-11-01T14:08:07Z"},{"lat":50.6839634,"lon":4.3750821,"tags":{"name":"Bioshop","shop":"convenience","brand":"Bioshop","phone":"+32 2 654 26 89","branch":"Braine-l'Alleud","organic":"only","website":"https://www.bioshop.be","operator":"Bioshop","addr:city":"Braine-l'Alleud","zero_waste":"only","addr:street":"Rue des Croix de Feu","payment:cash":"yes","payment:visa":"yes","addr:postcode":"1420","bulk_purchase":"yes","contact:email":"brainelalleud@bioshop.be","opening_hours":"Mo 13:00-19:00; Tu-Sa 10:00-19:00; Su 10:00-13:00, PH off","payment:pluxee":"yes","payment:edenred":"yes","payment:monizze":"yes","addr:housenumber":"12","payment:bancontact":"yes","payment:mastercard":"yes"},"type":"node","user":{"id":15399,"name":"eMerzh"},"osm_id":6883686884,"timestamp":"2024-09-20T15:06:16Z"},{"lat":50.6856643,"lon":4.4019353,"tags":{"name":"Färm","shop":"supermarket","brand":"Färm","branch":"Mont-Saint-Jean","organic":"only","website":"https://stores.farm.coop/fr/farm-mont-saint-jean","operator":"Färm","addr:city":"Braine-l'Alleud","addr:street":"Avenue Victor Hugo","payment:cash":"yes","addr:postcode":"1420","contact:email":"contact.montsaintjean@farmstore.be","contact:phone":"+32 2 880 18 15","opening_hours":"Mo-Sa 07:30-19:00; Su 07:30-18:30","payment:maestro":"yes","addr:housenumber":"7","contact:facebook":"https://www.facebook.com/farm.montsaintjean","payment:debit_cards":"yes"},"type":"node","user":{"id":22278927,"name":"tansu_bla"},"osm_id":8572800884,"timestamp":"2025-11-21T13:42:39Z"},{"lat":50.6963625,"lon":4.3620827,"tags":{"name":"Le Relais Bio","shop":"convenience","phone":"+32 2 384 17 73","organic":"only","website":"https://www.lerelaisbio.be/","addr:city":"Braine-l'Alleud","addr:street":"Avenue de l'Artisanat","addr:postcode":"1420","addr:housenumber":"9"},"type":"node","user":{"id":5432507,"name":"cEvLGWiQ"},"osm_id":9880448056,"timestamp":"2023-02-28T10:09:32Z"},{"lat":50.6865728,"lon":4.3854642,"tags":{"name":"Marché Saint-Jean","shop":"convenience","phone":"+32 473 58 10 83","organic":"only","website":"https://marchesaintjean.be/","building":"commercial","addr:city":"Braine-l'Alleud","addr:street":"Chaussée de Mont-Saint-Jean","payment:cash":"yes","addr:postcode":"1420","opening_hours":"We,Th,Fr 10:00-18:30; Sa 10:00-18:30; Su 10:00-14:00","addr:housenumber":"37","contact:facebook":"https://www.facebook.com/March%C3%A9-Saint-Jean-1767064056907440/","payment:debit_cards":"yes","source:geometry:ref":"Picc/2474258","source:geometry:date":"2020-12-17"},"type":"way","user":{"id":15399,"name":"eMerzh"},"osm_id":1020128446,"timestamp":"2023-11-07T07:03:23Z"}],"history":[{"date":"2025-10-31T23:00:00.000Z","count":5},{"date":"2025-11-01T23:00:00.000Z","count":5},{"date":"2025-11-02T23:00:00.000Z","count":5},{"date":"2025-11-03T23:00:00.000Z","count":5},{"date":"2025-11-04T23:00:00.000Z","count":5},{"date":"2025-11-05T23:00:00.000Z","count":5},{"date":"2025-11-06T23:00:00.000Z","count":5},{"date":"2025-11-07T23:00:00.000Z","count":5},{"date":"2025-11-08T23:00:00.000Z","count":5},{"date":"2025-11-09T23:00:00.000Z","count":5},{"date":"2025-11-10T23:00:00.000Z","count":5},{"date":"2025-11-11T23:00:00.000Z","count":5},{"date":"2025-11-12T23:00:00.000Z","count":5},{"date":"2025-11-13T23:00:00.000Z","count":5},{"date":"2025-11-14T23:00:00.000Z","count":5},{"date":"2025-11-15T23:00:00.000Z","count":5},{"date":"2025-11-16T23:00:00.000Z","count":5},{"date":"2025-11-17T23:00:00.000Z","count":5},{"date":"2025-11-18T23:00:00.000Z","count":5},{"date":"2025-11-19T23:00:00.000Z","count":5},{"date":"2025-11-20T23:00:00.000Z","count":5},{"date":"2025-11-21T23:00:00.000Z","count":5},{"date":"2025-11-22T23:00:00.000Z","count":5},{"date":"2025-11-23T23:00:00.000Z","count":5},{"date":"2025-11-24T23:00:00.000Z","count":5},{"date":"2025-11-25T23:00:00.000Z","count":5},{"date":"2025-11-26T23:00:00.000Z","count":5},{"date":"2025-11-27T23:00:00.000Z","count":5},{"date":"2025-11-28T23:00:00.000Z","count":5},{"date":"2025-11-29T23:00:00.000Z","count":5},{"date":"2025-11-30T23:00:00.000Z","count":5}],"contributors":[{"count":"1","username":"ValidDistress"},{"count":"2","username":"eMerzh"},{"count":"1","username":"cEvLGWiQ"},{"count":"1","username":"tansu_bla"}],"listDefinition":{"slug":"shop-bio","name":"Magasin Bio","query":"nwr[\"shop\"][\"organic\"=\"only\"](area.b);","props":{"withOpening":true},"tags":"\"shop\"=* avec \"organic\"=\"only\""}},"__N_SSG":true}