{"pageProps":{"city":{"slug":"braine-lalleud","name":"Braine-l'Alleud","center":{"lat":50.683627,"lon":4.3749516},"bbox":[4.25,50.6,4.5,50.78]},"items":[{"osm_id":1762549554,"type":"node","lat":50.6853513,"lon":4.3750463,"tags":{"addr:city":"Braine-l'Alleud","addr:housenumber":"7","addr:postcode":"1420","addr:street":"Place de la Gare","amenity":"bank","atm":"yes","brand":"Belfius","brand:wikidata":"Q1956014","brand:wikipedia":"en:Belfius","contact:fax":"+32 2 386 42 99","contact:phone":"+32 2 386 42 80","contact:website":"https://www.belfius.be","internet_access":"wlan","name":"Belfius"},"timestamp":"2022-02-22T17:03:36Z","user":{"name":"leonlapin","id":683726}},{"osm_id":1774886763,"type":"node","lat":50.6850259,"lon":4.3737642,"tags":{"addr:city":"Braine-l'Alleud","addr:housenumber":"63","addr:postcode":"1420","addr:street":"Avenue Léon Jourez","amenity":"bank","atm":"yes","branch":"Braine-l'Alleud","brand":"ING","brand:wikidata":"Q645708","brand:wikipedia":"en:ING Group","contact:email":"braine-l.alleud@ing.be","contact:phone":"+32 2 389 15 70","contact:website":"https://www.ing.be","name":"ING"},"timestamp":"2022-02-22T16:44:17Z","user":{"name":"leonlapin","id":683726}},{"osm_id":2376950163,"type":"node","lat":50.6409049,"lon":4.362992,"tags":{"addr:city":"Lillois-Witterzee","addr:country":"BE","addr:housenumber":"261","addr:postcode":"1428","addr:street":"Grand'Route","amenity":"bank","atm":"yes","name":"Agence de Lillois","operator":"BNP Paribas Fortis","wheelchair":"limited"},"timestamp":"2013-12-05T18:08:53Z","user":{"name":"wheelmap_visitor","id":290680}},{"osm_id":3442983022,"type":"node","lat":50.6861779,"lon":4.3750336,"tags":{"addr:city":"Braine-l'Alleud","addr:housenumber":"92","addr:postcode":"1420","addr:street":"Avenue de la Belle Province","amenity":"bank","branch":"Braine-l'Alleud","brand":"CBC","brand:en":"KBC","brand:nl":"KBC","brand:wikidata":"Q2931011","brand:wikipedia":"fr:CBC Banque & Assurance","contact:phone":"+32 2 389 15 20","contact:website":"https://www.cbc.be/","name":"CBC"},"timestamp":"2022-06-20T12:07:08Z","user":{"name":"Aleks-Berlin","id":85218}},{"osm_id":3447126887,"type":"node","lat":50.6864365,"lon":4.3747132,"tags":{"addr:city":"Braine l'Alleud","addr:housenumber":"103-105","addr:postcode":"1420","addr:street":"Avenue de la Belle Province","amenity":"bank","atm":"yes","branch":"Braine-l'Alleud","brand":"Argenta","brand:wikidata":"Q932856","brand:wikipedia":"nl:Argenta Groep","contact:email":"braine@argenta.be","name":"Argenta","operator":"C. MANGIATORDI INVEST SPRL BVBA","phone":"+32 2 387 25 32","website":"https://www.argenta.be"},"timestamp":"2020-04-22T18:18:54Z","user":{"name":"Sun937","id":9641966}},{"osm_id":7552072852,"type":"node","lat":50.6844634,"lon":4.3724839,"tags":{"addr:city":"Braine-l'Alleud","addr:housenumber":"30","addr:postcode":"1420","addr:street":"Avenue Léon Jourez","amenity":"bank","atm":"no","branch":"Braine-l'Alleud","brand":"Beobank","brand:wikidata":"Q14911971","brand:wikipedia":"nl:Beobank","contact:email":"agentbraine@beobank.be","contact:fax":"+32 2 385 07 71","contact:phone":"+32 2 384 92 12","contact:website":"https://www.beobank.be","name":"Beobank","opening_hours":"Mo, We, Fr 09:00-13:00, 14:00-16:30; Tu-Th 09:00-13:00, 14:00-18:00; Sa \"by appointment\"; Su off","operator":"B Finance and Consulting SRL"},"timestamp":"2020-05-23T17:33:41Z","user":{"name":"Sun937","id":9641966}},{"osm_id":9527748667,"type":"node","lat":50.6851754,"lon":4.3743078,"tags":{"addr:city":"Braine-l'Alleud","addr:housenumber":"73","addr:postcode":"1420","addr:street":"Avenue Léon Jourez","amenity":"bank","atm":"yes","brand":"BNP Paribas Fortis","brand:wikidata":"Q796827","brand:wikipedia":"en:BNP Paribas Fortis","contact:email":"braine-lalleud@bnpparibasfortis.com","contact:fax":"+32 2 565 01 02","contact:phone":"+32 2 762 20 00","contact:website":"https://www.bnpparibasfortis.be","internet_access":"wlan","name":"BNP Paribas Fortis","wheelchair":"yes"},"timestamp":"2022-02-22T16:44:17Z","user":{"name":"leonlapin","id":683726}},{"osm_id":413104976,"type":"way","lat":50.6834335,"lon":4.3702788,"tags":{"addr:city":"Braine-l'Alleud","addr:housenumber":"20","addr:postcode":"1420","addr:street":"Rue du Môle","amenity":"bank","brand":"Fintro","brand:wikidata":"Q2457280","building":"yes","name":"Fintro"},"timestamp":"2022-08-31T20:47:17Z","user":{"name":"eMerzh","id":15399}},{"osm_id":750596543,"type":"way","lat":50.6835796,"lon":4.3702837,"tags":{"addr:city":"Braine-l'Alleud","addr:housenumber":"1-2","addr:postcode":"1420","addr:street":"Place du Môle","amenity":"bank","atm":"yes","brand":"Crelan","brand:wikidata":"Q389872","brand:wikipedia":"en:Crelan","building":"yes","name":"Crelan","opening_hours":"Mo,Tu,Th 09:00-12:30; We 09:00-12:30,13:30-16:00; Fr 09:00-12:30,13:30-17:00","operator":"Crelan","phone":"+32 2 387 00 21"},"timestamp":"2022-09-29T23:09:59Z","user":{"name":"PtitGNU","id":71064}}],"history":[{"date":"2022-12-01T23:00:00.000Z","count":9},{"date":"2022-12-02T23:00:00.000Z","count":9},{"date":"2022-12-03T23:00:00.000Z","count":9},{"date":"2022-12-04T23:00:00.000Z","count":9},{"date":"2022-12-05T23:00:00.000Z","count":9},{"date":"2022-12-06T23:00:00.000Z","count":9},{"date":"2022-12-07T23:00:00.000Z","count":9},{"date":"2022-12-08T23:00:00.000Z","count":9},{"date":"2022-12-09T23:00:00.000Z","count":9},{"date":"2022-12-10T23:00:00.000Z","count":9},{"date":"2022-12-11T23:00:00.000Z","count":9},{"date":"2022-12-12T23:00:00.000Z","count":9},{"date":"2022-12-13T23:00:00.000Z","count":9},{"date":"2022-12-14T23:00:00.000Z","count":9},{"date":"2022-12-15T23:00:00.000Z","count":9},{"date":"2022-12-16T23:00:00.000Z","count":9},{"date":"2022-12-17T23:00:00.000Z","count":9},{"date":"2022-12-18T23:00:00.000Z","count":9},{"date":"2022-12-19T23:00:00.000Z","count":9},{"date":"2022-12-20T23:00:00.000Z","count":9},{"date":"2022-12-21T23:00:00.000Z","count":9},{"date":"2022-12-22T23:00:00.000Z","count":9},{"date":"2022-12-23T23:00:00.000Z","count":9},{"date":"2022-12-24T23:00:00.000Z","count":9},{"date":"2022-12-25T23:00:00.000Z","count":9},{"date":"2022-12-26T23:00:00.000Z","count":9},{"date":"2022-12-27T23:00:00.000Z","count":9},{"date":"2022-12-28T23:00:00.000Z","count":9},{"date":"2022-12-29T23:00:00.000Z","count":9},{"date":"2022-12-30T23:00:00.000Z","count":9},{"date":"2022-12-31T23:00:00.000Z","count":9}],"contributors":[{"count":"1","username":"PtitGNU"},{"count":"1","username":"wheelmap_visitor"},{"count":"2","username":"Sun937"},{"count":"1","username":"Aleks-Berlin"},{"count":"1","username":"eMerzh"},{"count":"3","username":"leonlapin"}],"listDefinition":{"slug":"shop-bank","name":"Banque","query":"nwr[\"amenity\"=\"bank\"](area.b);","props":{"withOpening":true},"tags":"\"amenity\"=\"bank\""}},"__N_SSG":true}