{"pageProps":{"city":{"slug":"braine-lalleud","name":"Braine-l'Alleud","center":{"lat":50.683627,"lon":4.3749516},"bbox":[4.25,50.6,4.5,50.78]},"items":[{"lat":50.6880006,"lon":4.3900578,"tags":{"name":"Collège Cardinal Mercier","amenity":"school","education":"school"},"type":"way","user":{"id":14916119,"name":"HugoC01"},"osm_id":34717469,"timestamp":"2025-12-31T11:29:52Z"},{"lat":50.6890516,"lon":4.3804689,"tags":{"name":"Vallée Bailly","amenity":"school","religion":"christian","education":"school","addr:street":"Rue de la Vallée Bailly","description":"Vallée Bailly comprend l’École fondamentale libre Vallée Bailly (maternel & primaire) et l’Institut Vallée Bailly (secondaire).","isced:level":"0;1;2;3","denomination":"roman_catholic","contact:phone":"+32 2 389 49 50","contact:website":"https://www.valleebailly.be/","addr:housenumber":"102"},"type":"way","user":{"id":14916119,"name":"HugoC01"},"osm_id":40130459,"timestamp":"2025-12-31T11:29:52Z"},{"lat":50.6439592,"lon":4.3628324,"tags":{"name":"École Primaire Communale \"Prévert\"","amenity":"school","ref:fase":"559/1000","education":"school","addr:street":"Rue René Francq","addr:postcode":"1428","addr:housenumber":"7"},"type":"way","user":{"id":14916119,"name":"HugoC01"},"osm_id":104841671,"timestamp":"2025-12-31T11:29:52Z"},{"lat":50.6858063,"lon":4.3720275,"tags":{"name":"Institut Saint Jacques","amenity":"school","religion":"christian","education":"school","addr:street":"Rue Pierre Flamand","denomination":"catholic","contact:website":"http://new.institut-saint-jacques.be/","addr:housenumber":"14"},"type":"way","user":{"id":14916119,"name":"HugoC01"},"osm_id":164109478,"timestamp":"2025-12-31T11:29:52Z"},{"lat":50.6657761,"lon":4.3413509,"tags":{"name":"École communale Le Grand Frêne","amenity":"school","website":"https://ecole-grand-frene.braine-lalleud.be/fr/copy_accueil.html","addr:city":"Braine-l'Alleud","education":"school","addr:street":"Rue du Cimetière","addr:postcode":"1421","addr:housenumber":"51"},"type":"way","user":{"id":14916119,"name":"HugoC01"},"osm_id":164959055,"timestamp":"2025-12-31T11:29:52Z"},{"lat":50.6434005,"lon":4.3206074,"tags":{"name":"École Saint Jean-Baptiste","phone":"+32 67 21 90 09","amenity":"school","addr:city":"Bois-Seigneur-Isaac","education":"school","addr:street":"Rue Armand De Moor","addr:postcode":"1421","addr:housenumber":"19"},"type":"way","user":{"id":14916119,"name":"HugoC01"},"osm_id":166278337,"timestamp":"2025-12-31T11:29:52Z"},{"lat":50.6812532,"lon":4.3664352,"tags":{"name":"Académie de Musique de Braine-l'Alleud \"Yolande Uyttenhove\"","school":"music","amenity":"school","building":"school","education":"school","addr:street":"Rue du Château","contact:fax":"+32 2 854 07 29","description":"Musique - Arts de la Parole - Danse","contact:email":"academie.musique@braine-lalleud.be","contact:phone":"+32 2 854 07 20","building:levels":"2","contact:website":"https://academie-de-musique.braine-lalleud.be","addr:housenumber":"49","contact:facebook":"https://www.facebook.com/pg/Académie-de-Musique-de-Braine-lAlleud-558489904337942"},"type":"way","user":{"id":14916119,"name":"HugoC01"},"osm_id":438779165,"timestamp":"2025-12-31T11:30:02Z"},{"lat":50.6838808,"lon":4.3832453,"tags":{"name":"Athénée royal Riva-Bella","amenity":"school","barrier":"fence","education":"school","addr:street":"Boulevard de l'Europe","addr:housenumber":"35"},"type":"way","user":{"id":14916119,"name":"HugoC01"},"osm_id":450070766,"timestamp":"2025-12-31T11:30:02Z"},{"lat":50.7034661,"lon":4.3557864,"tags":{"name":"Institut Saint-Joseph","amenity":"school","religion":"christian","education":"school","addr:street":"Chemin de l'Ermite","denomination":"catholic","contact:website":"https://www.st-joseph.net/","addr:housenumber":"60"},"type":"way","user":{"id":14916119,"name":"HugoC01"},"osm_id":477477320,"timestamp":"2025-12-31T11:30:02Z"},{"lat":50.6456797,"lon":4.3626512,"tags":{"name":"École Saint-Léon","email":"info@st-leon.be","phone":"+32 2 387 08 07","school":"elementary","amenity":"school","website":"http://www.st-leon.be/","religion":"christian","addr:city":"Lillois-Witterzée","education":"school","school:FR":"maternelle","addr:street":"Rue René Francq","denomination":"catholic","addr:postcode":"1428","addr:housenumber":"21"},"type":"way","user":{"id":14916119,"name":"HugoC01"},"osm_id":585055022,"timestamp":"2025-12-31T11:30:02Z"},{"lat":50.694092,"lon":4.3686762,"tags":{"name":"La Petite École dans la Prairie","grades":"02","amenity":"school","religion":"christian","education":"school","school:FR":"maternelle","addr:street":"Chaussée d'Alsemberg","denomination":"catholic","contact:phone":"+32 2 384 32 57","contact:website":"https://sainte-bernadette.be/","addr:housenumber":"292"},"type":"way","user":{"id":1246002,"name":"Alexia Schoonjans"},"osm_id":651039561,"timestamp":"2025-12-15T20:58:41Z"},{"lat":50.679185,"lon":4.3718372,"tags":{"name":"Athénée Royal de Braine-l'Alleud - Internat","amenity":"school","education":"school","addr:street":"Rue Saint-Laurent","addr:housenumber":"2"},"type":"way","user":{"id":14916119,"name":"HugoC01"},"osm_id":725269062,"timestamp":"2025-12-31T11:30:02Z"},{"lat":50.6832233,"lon":4.3681365,"tags":{"name":"École fondamentale libre Institut Sainte-Famille","amenity":"school","religion":"christian","education":"school","addr:street":"Rue des Jambes","denomination":"catholic","addr:housenumber":"24"},"type":"way","user":{"id":14916119,"name":"HugoC01"},"osm_id":734248844,"timestamp":"2025-12-31T11:30:02Z"},{"lat":50.6754702,"lon":4.3843945,"tags":{"name":"École Sainte-Bernadette","amenity":"school","max_age":"12","min_age":"2,5","ref:fase":"560/1001","religion":"christian","education":"school","addr:street":"Avenue Alphonse Allard","isced:level":"0;1","contact:website":"http://sainte-bernadette.be","addr:housenumber":"203"},"type":"way","user":{"id":14916119,"name":"HugoC01"},"osm_id":935683142,"timestamp":"2025-12-31T11:30:12Z"},{"lat":50.6646604,"lon":4.3457054,"tags":{"name":"École Anne Marie","amenity":"school","website":"https://www.ecole-anne-marie.be/","addr:city":"Ophain-Bois-Seigneur-Isaac","education":"school","addr:street":"Rue du Cimetière","addr:postcode":"1421","addr:housenumber":"21"},"type":"way","user":{"id":14916119,"name":"HugoC01"},"osm_id":1020400089,"timestamp":"2025-12-31T11:30:12Z"},{"lat":50.6794196,"lon":4.368805,"tags":{"name":"École L'Esperluette","school":"kindergarten","amenity":"school","alt_name":"L'Esperluette - École maternelle","ref:fase":"2494/5018","religion":"none","education":"school","addr:street":"Rue au Gué","contact:email":"info@ecole-esperluette.be","school:gender":"mixed","contact:website":"https://ecole-esperluette.be","addr:housenumber":"31"},"type":"way","user":{"id":20124809,"name":"bxl-forever_repair"},"osm_id":1078127610,"timestamp":"2025-12-10T16:19:28Z"},{"lat":50.6831473,"lon":4.3857419,"tags":{"name":"École Les Papillons","amenity":"school","education":"school","addr:street":"Avenue de Guéménée","addr:housenumber":"59"},"type":"way","user":{"id":14916119,"name":"HugoC01"},"osm_id":1078129026,"timestamp":"2025-12-31T11:30:12Z"},{"lat":50.7032813,"lon":4.3770758,"tags":{"name":"École Le Soleil Levant","amenity":"school","education":"school","addr:street":"Rue du Soleil Levant","addr:housenumber":"7"},"type":"way","user":{"id":14916119,"name":"HugoC01"},"osm_id":1078130530,"timestamp":"2025-12-31T11:30:12Z"},{"lat":50.6814553,"lon":4.366872,"tags":{"name":"École des Arts de Braine-l'Alleud","school":"art","amenity":"school","building":"yes","education":"school","addr:street":"Rue du Château","contact:email":"ecoledesarts@braine-lalleud.be","contact:phone":"+32 2 854 07 00","building:levels":"2","contact:website":"https://ecole-des-arts.braine-lalleud.be","addr:housenumber":"47","source:geometry:ref":"Picc/1399130","source:geometry:date":"2016-11-23"},"type":"way","user":{"id":14916119,"name":"HugoC01"},"osm_id":1217581583,"timestamp":"2025-12-31T11:30:12Z"},{"lat":50.6637712,"lon":4.3449669,"tags":{"name":"La Ribambelle","amenity":"school","operator":"Commune de Braine-l'Alleud","education":"school"},"type":"way","user":{"id":14916119,"name":"HugoC01"},"osm_id":1271922398,"timestamp":"2025-12-31T11:30:12Z"},{"lat":50.6812103,"lon":4.3690209,"tags":{"name":"École l'Esperluette","fixme":"Not sure about the size and boundaries of the school grounds","grades":"1-6","school":"primary","amenity":"school","alt_name":"L'Esperluette - École Fondamentale","religion":"none","education":"school","addr:street":"Rue Bayard","contact:email":"info@ecole-esperluette.be","school:gender":"mixed","contact:website":"https://ecole-esperluette.be","addr:housenumber":"1-3","contact:facebook":"ecoleLesperluette"},"type":"way","user":{"id":616774,"name":"mueschel"},"osm_id":1453937245,"timestamp":"2025-11-29T10:58:45Z"}],"history":[{"date":"2025-12-28T23:00:00.000Z","count":null},{"date":"2025-12-29T23:00:00.000Z","count":21},{"date":"2025-12-30T23:00:00.000Z","count":21},{"date":"2025-12-31T23:00:00.000Z","count":21},{"date":"2026-01-01T23:00:00.000Z","count":21},{"date":"2026-01-02T23:00:00.000Z","count":21},{"date":"2026-01-03T23:00:00.000Z","count":null},{"date":"2026-01-04T23:00:00.000Z","count":21},{"date":"2026-01-05T23:00:00.000Z","count":21},{"date":"2026-01-06T23:00:00.000Z","count":21},{"date":"2026-01-07T23:00:00.000Z","count":21},{"date":"2026-01-08T23:00:00.000Z","count":21},{"date":"2026-01-09T23:00:00.000Z","count":21},{"date":"2026-01-10T23:00:00.000Z","count":21},{"date":"2026-01-11T23:00:00.000Z","count":21},{"date":"2026-01-12T23:00:00.000Z","count":21},{"date":"2026-01-13T23:00:00.000Z","count":21},{"date":"2026-01-14T23:00:00.000Z","count":21},{"date":"2026-01-15T23:00:00.000Z","count":21},{"date":"2026-01-16T23:00:00.000Z","count":21},{"date":"2026-01-17T23:00:00.000Z","count":21},{"date":"2026-01-18T23:00:00.000Z","count":21},{"date":"2026-01-19T23:00:00.000Z","count":21},{"date":"2026-01-20T23:00:00.000Z","count":21},{"date":"2026-01-21T23:00:00.000Z","count":21},{"date":"2026-01-22T23:00:00.000Z","count":21},{"date":"2026-01-23T23:00:00.000Z","count":21},{"date":"2026-01-24T23:00:00.000Z","count":21},{"date":"2026-01-25T23:00:00.000Z","count":21},{"date":"2026-01-26T23:00:00.000Z","count":21},{"date":"2026-01-27T23:00:00.000Z","count":21}],"contributors":[{"count":"1","username":"Alexia Schoonjans"},{"count":"1","username":"mueschel"},{"count":"1","username":"bxl-forever_repair"},{"count":"18","username":"HugoC01"}],"listDefinition":{"slug":"school","name":"Écoles","query":"nwr[\"amenity\"=\"school\"](area.b);","component":"School","tags":"\"amenity\"=\"school\""}},"__N_SSG":true}