{"pageProps":{"city":{"slug":"braine-lalleud","name":"Braine-l'Alleud","center":{"lat":50.683627,"lon":4.3749516},"bbox":[4.25,50.6,4.5,50.78]},"items":[{"lat":50.6693833,"lon":4.3522789,"tags":{"phone":"+32 2 385 16 94","amenity":"doctors","operator":"Dr GIL Ilana","addr:city":"Ophain-Bois-Seigneur-Isaac","healthcare":"doctor","addr:street":"Rue de la Bouvrée","addr:postcode":"1421","medical_system":"western","addr:housenumber":"1","health_facility:type":"office","healthcare:speciality":"general"},"type":"node","user":{"id":9641966,"name":"Sun937"},"osm_id":2564378889,"timestamp":"2020-10-14T13:44:56Z"},{"lat":50.6841772,"lon":4.3750842,"tags":{"email":"dr@florence-tassignon.be","phone":"+32 2 385 19 87","amenity":"doctors","website":"https://florence-tassignon.be","operator":"Dr TASSIGNON Tassignon","addr:city":"Braine-l'Alleud","healthcare":"doctor","addr:street":"Rue des Croix de Feu","addr:postcode":"1420","opening_hours":"Mo-Fr 08:30-13:00, 14:00-18:00, Sa-Su off","addr:housenumber":"10","health_facility:type":"office","healthcare:speciality":"general","medical_system:western":"yes"},"type":"node","user":{"id":15399,"name":"eMerzh"},"osm_id":7434986549,"timestamp":"2023-10-29T17:38:38Z"},{"lat":50.6844522,"lon":4.3805601,"tags":{"amenity":"doctors","operator":"Dr GOSSELIN Nathalie","addr:city":"Braine-l'Alleud","healthcare":"doctor","addr:street":"Avenue de Menden","addr:postcode":"1420","contact:email":"docteurngosselin@me.com","contact:phone":"+32 2 385 45 00","contact:website":"https://www.docteurgosselin.be","addr:housenumber":"24","healthcare:speciality":"paediatrics;dermatology"},"type":"node","user":{"id":9641966,"name":"Sun937"},"osm_id":7529486164,"timestamp":"2020-05-17T17:27:14Z"},{"lat":50.687609,"lon":4.3707261,"tags":{"name":"Cabinet Médical Croquet Flamme","phone":"+32 2 384 33 60","amenity":"doctors","operator":"C.M.C.F.","addr:city":"Braine-l'Alleud","healthcare":"doctor","short_name":"CMCF","addr:street":"Rue Pierre Flamand","description":"4 médecins généralistes: W. Liu, A. Croquet, M.-E. Flamme, Ch. Croquet.","addr:postcode":"1420","medical_system":"western","addr:housenumber":"87","healthcare:speciality":"general"},"type":"node","user":{"id":16019190,"name":"VLD528"},"osm_id":7597705119,"timestamp":"2025-02-03T10:36:34Z"},{"lat":50.6715173,"lon":4.3345703,"tags":{"name":"Luce Collart Médecin généraliste","phone":"+32 2 384 67 94","amenity":"doctors"},"type":"node","user":{"id":5432507,"name":"cEvLGWiQ"},"osm_id":11415185841,"timestamp":"2024-04-22T10:15:23Z"},{"lat":50.6661858,"lon":4.3479386,"tags":{"name":"Cabinet médical Izabel Ukaj","phone":"+32 460 94 15 18","amenity":"doctors"},"type":"node","user":{"id":5432507,"name":"cEvLGWiQ"},"osm_id":11811416263,"timestamp":"2024-04-22T10:15:23Z"},{"lat":50.6633092,"lon":4.345831,"tags":{"name":"Kevin Vanstiphout","amenity":"doctors","contact:phone":"+32 2 203 81 98","contact:website":"https://www.docteur-vanstiphout.be/"},"type":"node","user":{"id":20124809,"name":"bxl-forever_repair"},"osm_id":11811426275,"timestamp":"2025-02-05T22:59:49Z"},{"lat":50.6797857,"lon":4.3853587,"tags":{"name":"Dr. Wendy Stiernon & Dr. Caroline Mathieu","amenity":"doctors","operator":"Hydoc SRL","addr:city":"Braine-l'Alleud","healthcare":"doctor","addr:street":"Place Saint-Sébastien","description":"RDV via Progenda","addr:postcode":"1420","medical_system":"western","addr:housenumber":"64","healthcare:speciality":"general"},"type":"node","user":{"id":22278927,"name":"tansu_bla"},"osm_id":12409952837,"timestamp":"2025-11-11T15:24:19Z"},{"lat":50.6784492,"lon":4.3707104,"tags":{"name":"Poste Médical de Garde - Braine l'Alleud","phone":"+3225249889","amenity":"doctors","website":"https://medecindegardebwbe.odoo.com/","operator":"La Brabançonne asbl","addr:city":"Braine-l'Alleud","healthcare":"doctor","short_name":"PMG Braine-l'Alleud","addr:street":"Rue du Paradis","addr:postcode":"1420","opening_hours":"Fr 18:00-24:00; Sa 00:00-24:00; Su 00:00-24:00; Mo 00:00-08:00; PH 00:00-32:00","description:fr":"Le poste médical de garde est ouvert sur RDV, le week-end, du vendredi 18h au lundi 8h, ainsi que les jours fériés, de la veille à 18h au lendemain à 8h.   Pour tout renseignement ou prise de rendez-vous, appelez le 1733 (tarif normal) ou le +3225249889.","medical_system":"western","addr:housenumber":"7","healthcare:speciality":"general"},"type":"node","user":{"id":22278927,"name":"tansu_bla"},"osm_id":13287690998,"timestamp":"2025-11-09T14:29:08Z"},{"lat":50.6821824,"lon":4.3817489,"tags":{"name":"Pham Hông-An Grace","amenity":"doctors","healthcare":"doctor","opening_hours":"Mo-Th 08:40-12:00,13:20-15:20; Fr 08:40-12:00; Sa-Su off","contact:mobile":"+32 473 85 49 84","medical_system":"western","contact:website":"https://docteurphamgrace.wixsite.com/","website:booking":"https://agenda.medispring.be/ms-hongan-pham-c991d260-1d83-4dc6-805b-9e1e9229d77e/4b6702c697350775e73fd5793e03bbfa","healthcare:speciality":"general"},"type":"node","user":{"id":20124809,"name":"bxl-forever_repair"},"osm_id":13295210649,"timestamp":"2025-11-10T20:45:55Z"},{"lat":50.6737283,"lon":4.3775521,"tags":{"name":"Dr. Karin De Meulemeester","amenity":"doctors","addr:city":"Braine-l'Alleud","healthcare":"doctor","addr:street":"Clos Sainte-Rita","addr:postcode":"1420","addr:housenumber":"22","healthcare:speciality":"general"},"type":"node","user":{"id":22278927,"name":"tansu_bla"},"osm_id":13296898559,"timestamp":"2025-11-11T15:30:19Z"},{"lat":50.6807049,"lon":4.3703429,"tags":{"name":"Cabinet du Dr Florence Aubertin","phone":"+32 493 29 88 50","height":"4","amenity":"doctors","website":"https://docteur-aubertin.be/","building":"residential","operator":"Docteur Florence Aubertin","addr:city":"Braine-l'Alleud","healthcare":"doctor","addr:street":"Rue Longue","description":"Médecine Générale","addr:postcode":"1420","opening_hours":"Mo-Fr 08:00-12:30, 14:00-18:00","medical_system":"western","website:booking":"https://www.doctoranytime.be/d/medecin-generaliste/florence-aubertin","addr:housenumber":"27;29","source:geometry:ref":"Picc/2512195","source:geometry:date":"2016-08-16","healthcare:speciality":"general"},"type":"way","user":{"id":16019190,"name":"VLD528"},"osm_id":437015710,"timestamp":"2025-11-24T08:07:57Z"},{"lat":50.6857658,"lon":4.3769934,"tags":{"phone":"+32 4 349 96 87","amenity":"doctors","contact":"https://www.doctoranytime.be/d/medecin-generaliste/guy-matthys","building":"house","operator":"Dr MATTHYS Guy","addr:city":"Braine-l'Alleud","healthcare":"doctor","addr:street":"Chaussée Reine Astrid","addr:postcode":"1420","building:levels":"2","addr:housenumber":"1","source:geometry:ref":"Picc/44808","health_facility:type":"office","source:geometry:date":"2022-09-12","healthcare:speciality":"general","medical_system:western":"yes"},"type":"way","user":{"id":15399,"name":"eMerzh"},"osm_id":762225931,"timestamp":"2023-11-07T20:55:00Z"},{"lat":50.681962,"lon":4.3764581,"tags":{"amenity":"doctors","building":"house","operator":"Dr FRANCOTTE","addr:city":"Braine-l'Alleud","healthcare":"doctor","roof:shape":"gabled","addr:street":"Avenue Alphonse Allard","addr:postcode":"1420","roof:material":"slate","building:levels":"2","addr:housenumber":"13","roof:orientation":"across","source:geometry:ref":"Picc/2416001","health_facility:type":"office","source:geometry:date":"2016-08-16","healthcare:speciality":"radiology","medical_system:western":"yes"},"type":"way","user":{"id":15399,"name":"eMerzh"},"osm_id":764638137,"timestamp":"2023-12-10T12:41:12Z"}],"history":[{"date":"2025-10-29T23:00:00.000Z","count":11},{"date":"2025-10-30T23:00:00.000Z","count":10},{"date":"2025-10-31T23:00:00.000Z","count":10},{"date":"2025-11-01T23:00:00.000Z","count":10},{"date":"2025-11-02T23:00:00.000Z","count":10},{"date":"2025-11-03T23:00:00.000Z","count":10},{"date":"2025-11-04T23:00:00.000Z","count":10},{"date":"2025-11-05T23:00:00.000Z","count":10},{"date":"2025-11-06T23:00:00.000Z","count":10},{"date":"2025-11-07T23:00:00.000Z","count":11},{"date":"2025-11-08T23:00:00.000Z","count":11},{"date":"2025-11-09T23:00:00.000Z","count":13},{"date":"2025-11-10T23:00:00.000Z","count":13},{"date":"2025-11-11T23:00:00.000Z","count":14},{"date":"2025-11-12T23:00:00.000Z","count":14},{"date":"2025-11-13T23:00:00.000Z","count":14},{"date":"2025-11-14T23:00:00.000Z","count":14},{"date":"2025-11-15T23:00:00.000Z","count":14},{"date":"2025-11-16T23:00:00.000Z","count":14},{"date":"2025-11-17T23:00:00.000Z","count":14},{"date":"2025-11-18T23:00:00.000Z","count":14},{"date":"2025-11-19T23:00:00.000Z","count":14},{"date":"2025-11-20T23:00:00.000Z","count":14},{"date":"2025-11-21T23:00:00.000Z","count":14},{"date":"2025-11-22T23:00:00.000Z","count":14},{"date":"2025-11-23T23:00:00.000Z","count":14},{"date":"2025-11-24T23:00:00.000Z","count":14},{"date":"2025-11-25T23:00:00.000Z","count":14},{"date":"2025-11-26T23:00:00.000Z","count":14},{"date":"2025-11-27T23:00:00.000Z","count":14},{"date":"2025-11-28T23:00:00.000Z","count":14}],"contributors":[{"count":"3","username":"eMerzh"},{"count":"3","username":"tansu_bla"},{"count":"2","username":"cEvLGWiQ"},{"count":"2","username":"VLD528"},{"count":"2","username":"bxl-forever_repair"},{"count":"2","username":"Sun937"}],"listDefinition":{"slug":"doctor","name":"Docteurs","query":"nwr[\"amenity\"=\"doctors\"](area.b);","tags":"\"amenity\"=\"doctors\""}},"__N_SSG":true}