{"pageProps":{"city":{"slug":"braine-lalleud","name":"Braine-l'Alleud","center":{"lat":50.683627,"lon":4.3749516},"bbox":[4.25,50.6,4.5,50.78]},"items":[{"lat":50.6971129,"lon":4.3636184,"tags":{"name":"Bio-Planet","shop":"supermarket","brand":"Bio-Planet","level":"-1","phone":"+32 2 384 47 71","branch":"Braine l'Alleud","organic":"only","website":"https://www.bioplanet.be/fr/magasins/bioplanet-braine-lalleud","wheelchair":"yes","addr:street":"Chaussée d'Alsemberg","opening_hours":"Mo-Th,Sa 09:00-19:30; Fr 09:00-20:00","brand:wikidata":"Q122415968","addr:housenumber":"437"},"type":"node","user":{"id":19397909,"name":"ValidDistress"},"osm_id":306291158,"timestamp":"2024-11-01T14:08:07Z"},{"lat":50.6839634,"lon":4.3750821,"tags":{"name":"Bioshop","shop":"convenience","brand":"Bioshop","branch":"Braine-l'Alleud","organic":"only","operator":"Bioshop","zero_waste":"only","addr:street":"Rue des Croix de Feu","payment:cash":"yes","payment:visa":"yes","bulk_purchase":"yes","contact:email":"brainelalleud@bioshop.be","contact:phone":"+32 2 654 26 89","opening_hours":"Mo 13:00-19:00; Tu-Sa 10:00-19:00; Su 10:00-13:00, PH off","payment:pluxee":"yes","contact:website":"https://www.bioshop.be","payment:edenred":"yes","payment:monizze":"yes","addr:housenumber":"12","payment:bancontact":"yes","payment:mastercard":"yes"},"type":"node","user":{"id":20124809,"name":"bxl-forever_repair"},"osm_id":6883686884,"timestamp":"2025-12-10T16:19:28Z"},{"lat":50.6856643,"lon":4.4019353,"tags":{"name":"Färm","shop":"supermarket","brand":"Färm","branch":"Mont-Saint-Jean","organic":"only","operator":"Färm","addr:street":"Avenue Victor Hugo","payment:cash":"yes","contact:email":"contact.montsaintjean@farmstore.be","contact:phone":"+32 2 880 18 15","opening_hours":"Mo-Sa 07:30-19:00; Su 07:30-18:30","contact:website":"https://stores.farm.coop/fr/farm-mont-saint-jean","payment:maestro":"yes","addr:housenumber":"7","contact:facebook":"https://www.facebook.com/farm.montsaintjean","payment:debit_cards":"yes"},"type":"node","user":{"id":20124809,"name":"bxl-forever_repair"},"osm_id":8572800884,"timestamp":"2025-12-10T16:19:28Z"},{"lat":50.6963625,"lon":4.3620827,"tags":{"name":"Le Relais Bio","shop":"convenience","organic":"only","addr:street":"Avenue de l'Artisanat","contact:phone":"+32 2 384 17 73","contact:website":"https://www.lerelaisbio.be/","addr:housenumber":"9"},"type":"node","user":{"id":20124809,"name":"bxl-forever_repair"},"osm_id":9880448056,"timestamp":"2025-12-10T16:19:28Z"},{"lat":50.6865728,"lon":4.3854642,"tags":{"name":"Marché Saint-Jean","shop":"convenience","organic":"only","building":"commercial","addr:street":"Chaussée de Mont Saint-Jean","payment:cash":"yes","contact:email":"info@marchesaintjean.be","contact:phone":"+32 2 385 00 73","opening_hours":"Mo-Sa 10:00-18:30; Su 10:00-13:00","contact:website":"https://marchesaintjean.be/","addr:housenumber":"37","contact:facebook":"https://www.facebook.com/March%C3%A9-Saint-Jean-1767064056907440/","contact:instagram":"https://www.instagram.com/marche_saint_jean/","payment:debit_cards":"yes","source:geometry:ref":"Picc/2474258","source:geometry:date":"2020-12-17"},"type":"way","user":{"id":42033,"name":"Tbj"},"osm_id":1020128446,"timestamp":"2026-01-12T11:58:07Z"}],"history":[{"date":"2026-01-08T23:00:00.000Z","count":5},{"date":"2026-01-09T23:00:00.000Z","count":null},{"date":"2026-01-10T23:00:00.000Z","count":5},{"date":"2026-01-11T23:00:00.000Z","count":5},{"date":"2026-01-12T23:00:00.000Z","count":null},{"date":"2026-01-13T23:00:00.000Z","count":5},{"date":"2026-01-14T23:00:00.000Z","count":5},{"date":"2026-01-15T23:00:00.000Z","count":5},{"date":"2026-01-16T23:00:00.000Z","count":5},{"date":"2026-01-17T23:00:00.000Z","count":5},{"date":"2026-01-18T23:00:00.000Z","count":null},{"date":"2026-01-19T23:00:00.000Z","count":null},{"date":"2026-01-20T23:00:00.000Z","count":null},{"date":"2026-01-21T23:00:00.000Z","count":5},{"date":"2026-01-22T23:00:00.000Z","count":5},{"date":"2026-01-23T23:00:00.000Z","count":5},{"date":"2026-01-24T23:00:00.000Z","count":5},{"date":"2026-01-25T23:00:00.000Z","count":5},{"date":"2026-01-26T23:00:00.000Z","count":5},{"date":"2026-01-27T23:00:00.000Z","count":5},{"date":"2026-01-28T23:00:00.000Z","count":5},{"date":"2026-01-29T23:00:00.000Z","count":5},{"date":"2026-01-30T23:00:00.000Z","count":5},{"date":"2026-01-31T23:00:00.000Z","count":5},{"date":"2026-02-01T23:00:00.000Z","count":5},{"date":"2026-02-02T23:00:00.000Z","count":5},{"date":"2026-02-03T23:00:00.000Z","count":5},{"date":"2026-02-04T23:00:00.000Z","count":5},{"date":"2026-02-05T23:00:00.000Z","count":5},{"date":"2026-02-06T23:00:00.000Z","count":5},{"date":"2026-02-07T23:00:00.000Z","count":5}],"contributors":[{"count":"1","username":"ValidDistress"},{"count":"1","username":"Tbj"},{"count":"3","username":"bxl-forever_repair"}],"listDefinition":{"slug":"shop-bio","name":"Magasin Bio","query":"nwr[\"shop\"][\"organic\"=\"only\"](area.b);","props":{"withOpening":true},"tags":"\"shop\"=* avec \"organic\"=\"only\""}},"__N_SSG":true}