{"pageProps":{"city":{"slug":"braine-lalleud","name":"Braine-l'Alleud","center":{"lat":50.683627,"lon":4.3749516},"bbox":[4.25,50.6,4.5,50.78]},"items":[{"osm_id":1774859786,"type":"node","lat":50.6856732,"lon":4.3754323,"tags":{"addr:city":"Braine l'Alleud","addr:housenumber":"13","addr:postcode":"1420","addr:street":"Place de la Gare","amenity":"pharmacy","branch":"Pl. de la Gare","brand":"Lloydspharma","contact:email":"Pharmacie.Gare@lloydspharma.be","dispensing":"yes","healthcare":"pharmacy","name":"Lloydspharma","opening_hours":"Mo-Fr 08:30-13:00, 13:30-19:00; Sa 08:30-12:30; Su off","phone":"+32 2 384 22 77","website":"https://www.lloydspharma.be/"},"timestamp":"2022-02-22T17:03:36Z","user":{"name":"leonlapin","id":683726}},{"osm_id":1913068900,"type":"node","lat":50.6423888,"lon":4.3643918,"tags":{"addr:housenumber":"199","addr:postcode":"1428","addr:street":"Grand'Route","amenity":"pharmacy","dispensing":"yes","healthcare":"pharmacy","name":"Pharmacie Jonkheere","phone":"+32 2 384 23 06","wheelchair":"yes"},"timestamp":"2023-12-25T22:05:13Z","user":{"name":"eMerzh","id":15399}},{"osm_id":2498823895,"type":"node","lat":50.6644234,"lon":4.3467357,"tags":{"amenity":"pharmacy","contact:phone":"+32 2 384 29 57","healthcare":"pharmacy","name":"Williame"},"timestamp":"2025-02-05T22:59:49Z","user":{"name":"bxl-forever_repair","id":20124809}},{"osm_id":10329272332,"type":"node","lat":50.6888944,"lon":4.3685254,"tags":{"addr:city":"Braine-l'Alleud","addr:housenumber":"150","addr:postcode":"1420","addr:street":"Chaussée d'Alsemberg","amenity":"pharmacy","dispensing":"yes","healthcare":"pharmacy","name":"Pharmacie de L'Estrée","opening_hours":"Mo-Fr 08:30-12:00,13:30-18:30; Sa 08:30-12:00"},"timestamp":"2025-04-29T06:42:20Z","user":{"name":"Jakka","id":2403313}},{"osm_id":11359868389,"type":"node","lat":50.6783422,"lon":4.3795234,"tags":{"addr:city":"Braine-l'Alleud","addr:housenumber":"134,136","addr:postcode":"1420","addr:street":"Avenue Alphonse Allard","amenity":"pharmacy","contact:facebook":"https://www.facebook.com/pg/Pharmacie-de-lAlliance-498780557140064","dispensing":"yes","healthcare":"pharmacy","name":"Pharmacie de l'Alliance","opening_hours":"Mo-Fr 08:00-19:00; Sa 08:30-18:00; Su off","phone":"+32 2 384 36 44","wheelchair":"yes"},"timestamp":"2023-11-18T11:22:19Z","user":{"name":"eMerzh","id":15399}},{"osm_id":98162017,"type":"way","lat":50.6999145,"lon":4.361488,"tags":{"addr:housenumber":"577","addr:street":"Chaussée d'Alsemberg","amenity":"pharmacy","building":"yes","dispensing":"yes","email":"braine@pharmacieservais.be","name":"Pharmacie Servais","opening_hours":"Mo-Fr 08:30-19:00; Sa 9:00-18:00","phone":"+32 2 386 45 00","source:geometry:date":"2019-07-03","source:geometry:ref":"Picc/963262","wheelchair":"yes"},"timestamp":"2023-11-29T20:11:00Z","user":{"name":"eMerzh","id":15399}},{"osm_id":170148466,"type":"way","lat":50.6840892,"lon":4.3713681,"tags":{"addr:city":"Braine-l'Alleud","addr:housenumber":"2","addr:postcode":"1420","addr:street":"Avenue Léon Jourez","amenity":"pharmacy","building":"yes","building:levels":"3","dispensing":"yes","healthcare":"pharmacy","name":"Pharmacie centrale","roof:levels":"1","source:geometry:date":"2016-08-16","source:geometry:ref":"Picc/1347017"},"timestamp":"2023-11-05T16:40:28Z","user":{"name":"eMerzh","id":15399}},{"osm_id":397960497,"type":"way","lat":50.6825159,"lon":4.3999946,"tags":{"addr:city":"Braine l'Alleud","addr:housenumber":"86","addr:postcode":"1420","addr:street":"Chaussée de Nivelles","amenity":"pharmacy","building":"yes","healthcare":"pharmacy","name":"Pharmacie Servais","opening_hours":"Mo-Fr 09:00-19:00; Sa 09:00-18:00","phone":"+32 2 384 24 57","source:geometry:date":"2017-08-02","source:geometry:ref":"Picc/3154889"},"timestamp":"2022-05-18T20:30:59Z","user":{"name":"eMerzh","id":15399}},{"osm_id":413172224,"type":"way","lat":50.6790599,"lon":4.366268,"tags":{"addr:housenumber":"22","addr:street":"Place du Quartier Saint-Jacques","amenity":"pharmacy","building":"house","contact:phone":"+32 2 384 46 00","email":"info@pharmacieparvais.be","name":"Pharmacie Parvais","opening_hours":"Mo-Fr 08:30-18:30; Sa 08:30-12:30","payment:cards":"yes","payment:cash":"yes","payment:qr_code":"no","source:geometry:date":"2016-08-16","source:geometry:ref":"Picc/3532603","toilets":"no","website":"https://www.pharmacieparvais.com/"},"timestamp":"2025-08-11T13:56:08Z","user":{"name":"eMerzh","id":15399}},{"osm_id":437028322,"type":"way","lat":50.6829777,"lon":4.3699529,"tags":{"addr:city":"Braine-l'Alleud","addr:housenumber":"4","addr:postcode":"1420","addr:street":"Rue du Môle","amenity":"pharmacy","building":"yes","building:levels":"3","dispensing":"yes","email":"braine.lalleud@pharmacie-familia.be","healthcare":"pharmacy","name":"Pharmacie Familia","opening_hours":"Mo-Fr 08:30-12:30,13:30-18:30; Sa 08:30-12:00","phone":"+32 2 384 25 20","source:geometry:date":"2016-08-16","source:geometry:ref":"Picc/1362135"},"timestamp":"2023-11-04T21:40:56Z","user":{"name":"eMerzh","id":15399}},{"osm_id":477506519,"type":"way","lat":50.6853228,"lon":4.377244,"tags":{"addr:city":"Braine-l'Alleud","addr:housenumber":"2;4","addr:postcode":"1420","addr:street":"Avenue Napoléon","amenity":"pharmacy","building":"yes","contact:email":"pharmacie.genonceaux@gmail.com","dispensing":"yes","healthcare":"pharmacy","name":"Pharmacie Genonceaux","opening_hours":"Mo-Fr 08:30-12:30, 13:30-18:45; Sa 08:30-12:30; Su off","phone":"+32 2 384 32 80","source:geometry:date":"2016-08-16","source:geometry:ref":"Picc/2874691","website":"https://www.pharmaciemeurisse.be"},"timestamp":"2023-11-08T19:50:28Z","user":{"name":"eMerzh","id":15399}},{"osm_id":762370190,"type":"way","lat":50.6857665,"lon":4.3786635,"tags":{"addr:city":"Braine-l'Alleud","addr:housenumber":"37","addr:postcode":"1420","addr:street":"Chaussée Reine Astrid","amenity":"pharmacy","building":"yes","contact:facebook":"https://www.facebook.com/pg/pharmacievalleebailly","dispensing":"yes","healthcare":"pharmacy","name":"Pharmacie Vallée Bailly","opening_hours":"Mo-Fr 08:30-12:30, 13:30-19:00; Sa 08:30-12:30; Su off","phone":"+32 2 384 20 62","source:geometry:date":"2016-08-16","source:geometry:ref":"Picc/234360","website":"https://www.pharmacie-vallee-bailly.be/"},"timestamp":"2023-11-07T20:55:00Z","user":{"name":"eMerzh","id":15399}}],"history":[{"date":"2025-09-01T22:00:00.000Z","count":12},{"date":"2025-09-02T22:00:00.000Z","count":12},{"date":"2025-09-03T22:00:00.000Z","count":12},{"date":"2025-09-04T22:00:00.000Z","count":12},{"date":"2025-09-05T22:00:00.000Z","count":12},{"date":"2025-09-06T22:00:00.000Z","count":12},{"date":"2025-09-07T22:00:00.000Z","count":12},{"date":"2025-09-08T22:00:00.000Z","count":12},{"date":"2025-09-09T22:00:00.000Z","count":12},{"date":"2025-09-10T22:00:00.000Z","count":12},{"date":"2025-09-11T22:00:00.000Z","count":12},{"date":"2025-09-12T22:00:00.000Z","count":12},{"date":"2025-09-13T22:00:00.000Z","count":12},{"date":"2025-09-14T22:00:00.000Z","count":12},{"date":"2025-09-15T22:00:00.000Z","count":12},{"date":"2025-09-16T22:00:00.000Z","count":12},{"date":"2025-09-17T22:00:00.000Z","count":12},{"date":"2025-09-18T22:00:00.000Z","count":12},{"date":"2025-09-19T22:00:00.000Z","count":12},{"date":"2025-09-20T22:00:00.000Z","count":12},{"date":"2025-09-21T22:00:00.000Z","count":12},{"date":"2025-09-22T22:00:00.000Z","count":12},{"date":"2025-09-23T22:00:00.000Z","count":12},{"date":"2025-09-24T22:00:00.000Z","count":12},{"date":"2025-09-25T22:00:00.000Z","count":12},{"date":"2025-09-26T22:00:00.000Z","count":12},{"date":"2025-09-27T22:00:00.000Z","count":12},{"date":"2025-09-28T22:00:00.000Z","count":12},{"date":"2025-09-29T22:00:00.000Z","count":12},{"date":"2025-09-30T22:00:00.000Z","count":12},{"date":"2025-10-01T22:00:00.000Z","count":12}],"contributors":[{"count":"1","username":"Jakka"},{"count":"1","username":"bxl-forever_repair"},{"count":"9","username":"eMerzh"},{"count":"1","username":"leonlapin"}],"listDefinition":{"slug":"pharmacy","name":"Pharmacies","query":"nwr[\"amenity\"=\"pharmacy\"](area.b);","props":{"withOpening":true},"tags":"\"amenity\"=\"pharmacy\""}},"__N_SSG":true}