{"pageProps":{"city":{"slug":"braine-lalleud","name":"Braine-l'Alleud","center":{"lat":50.683627,"lon":4.3749516},"bbox":[4.25,50.6,4.5,50.78]},"items":[{"osm_id":306291158,"type":"node","lat":50.6971129,"lon":4.3636184,"tags":{"level":"-1","name":"Bio-Planet Braine l'Alleud","organic":"only","shop":"supermarket"},"timestamp":"2021-10-05T14:28:50Z","user":{"name":"leonlapin","id":683726}},{"osm_id":2498830599,"type":"node","lat":50.6642813,"lon":4.3466351,"tags":{"addr:street":"Rue des Combattants","brand":"Carrefour Market","brand:wikidata":"Q2689639","brand:wikipedia":"fr:Carrefour Market","name":"Carrefour Market","opening_hours":"Mo-Fr 07:00-20:00 et Sa-So 08:00-20:00","shop":"supermarket"},"timestamp":"2021-09-21T11:51:08Z","user":{"name":"EIzquierdo","id":6591875}},{"osm_id":8572800884,"type":"node","lat":50.685639,"lon":4.401969,"tags":{"addr:city":"Braine-l'Alleud","addr:housenumber":"7","addr:postcode":"1420","addr:street":"Avenue Victor Hugo","name":"Färm","opening_hours":"Mo-Sa 10:00-19:00; Su 10:00-20:00","operator":"Färm","organic":"only","payment:cash":"yes","payment:debit_cards":"yes","payment:maestro":"yes","phone":"+3228801815","shop":"supermarket","website":"https://www.farm.coop/"},"timestamp":"2022-07-11T08:08:40Z","user":{"name":"eMerzh","id":15399}},{"osm_id":26784537,"type":"way","lat":50.6876853,"lon":4.371723,"tags":{"addr:city":"Braine l'Alleud","addr:country":"BE","addr:housename":"LIDL 102","addr:housenumber":"20","addr:postcode":"1420","addr:street":"Avenue de la Belle Province","brand":"Lidl","brand:wikidata":"Q151954","brand:wikipedia":"en:Lidl","building":"yes","name":"Lidl","shop":"supermarket","website":"https://www.lidl.be/"},"timestamp":"2021-06-30T13:24:43Z","user":{"name":"leonlapin","id":683726}},{"osm_id":28090848,"type":"way","lat":50.6869368,"lon":4.3744921,"tags":{"addr:housenumber":"73","addr:street":"Avenue de la Belle Province","brand":"Match","brand:wikidata":"Q513977","brand:wikipedia":"en:Match (supermarket)","building":"yes","name":"Match","opening_hours":"Mo-Th, Sa 08:00-20:00; Fr 08:00-21:00; Su 08:30-13:00","phone":"+32 2 386 42 40","shop":"supermarket","website":"http://www.supermarche-match.be/en/match-braine-l-alleud.html"},"timestamp":"2020-01-19T20:24:27Z","user":{"name":"eMerzh","id":15399}},{"osm_id":29314887,"type":"way","lat":50.6788553,"lon":4.384144,"tags":{"addr:city":"Braine-l'Alleud","addr:housenumber":"15","addr:postcode":"1420","addr:street":"Place Saint-Sébastien","brand":"Carrefour Market","brand:wikidata":"Q2689639","brand:wikipedia":"fr:Carrefour Market","building":"yes","name":"Carrefour Market","opening_hours":"Mo-Fr 09:00-20:00, Sa 09:00-19:00","operator":"Mestdagh","phone":"+32 2 384 09 28","shop":"supermarket","website":"https://www.groupemestdagh.be/les-magasins/braine-l-alleud.htm?lng="},"timestamp":"2021-03-04T21:08:18Z","user":{"name":"eMerzh","id":15399}},{"osm_id":30991650,"type":"way","lat":50.6984328,"lon":4.3614587,"tags":{"addr:housenumber":"5","addr:street":"Rue de la Graignette","brand":"Delhaize","brand:wikidata":"Q1184173","brand:wikipedia":"fr:Delhaize","building":"yes","name":"Delhaize","shop":"supermarket"},"timestamp":"2022-05-09T09:58:59Z","user":{"name":"joost schouppe import","id":4212780}},{"osm_id":164645473,"type":"way","lat":50.6838431,"lon":4.3697176,"tags":{"addr:city":"Braine-l'Alleud","addr:housenumber":"25","addr:postcode":"1420","addr:street":"Place du Môle","brand":"Carrefour Market","brand:wikidata":"Q2689639","brand:wikipedia":"fr:Carrefour Market","building":"yes","name":"Carrefour Market","opening_hours":"Mo 13:00-19:30; Tu-Sa 08:00-19:30; Su 08:00-13:00","shop":"supermarket"},"timestamp":"2019-12-13T21:17:12Z","user":{"name":"eMerzh","id":15399}},{"osm_id":413102188,"type":"way","lat":50.6944889,"lon":4.3664511,"tags":{"building":"yes","level":"+1","name":"Colruyt Braine-l'Alleud","shop":"supermarket","website":"https://www.colruyt.be/","wheelchair":"yes"},"timestamp":"2019-03-28T00:59:25Z","user":{"name":"b-jazz-bot","id":9451067}},{"osm_id":579027666,"type":"way","lat":50.6388962,"lon":4.3604763,"tags":{"addr:city":"Lillois-Witterzée","addr:housenumber":"366","addr:postcode":"1428","addr:street":"Grand'Route","building":"yes","name":"Proxy Delhaize Lillois","operator":"Delhaize","shop":"supermarket"},"timestamp":"2018-04-11T19:51:53Z","user":{"name":"niconoe","id":219387}},{"osm_id":711641928,"type":"way","lat":50.6860047,"lon":4.4010697,"tags":{"addr:city":"Braine-l'Alleud","addr:housenumber":"3","addr:postcode":"1420","addr:street":"Avenue Victor Hugo","brand":"Delhaize","brand:wikidata":"Q1184173","brand:wikipedia":"fr:Delhaize","building":"commercial","building:levels":"2","name":"Delhaize","opening_hours":"Mo-Su 08:30-20:00","payment:cash":"yes","payment:maestro":"yes","roof:levels":"0","shop":"supermarket"},"timestamp":"2021-09-22T16:07:27Z","user":{"name":"theTouristos","id":8153121}}],"history":[{"date":"2022-07-28T22:00:00.000Z","count":11},{"date":"2022-07-29T22:00:00.000Z","count":11},{"date":"2022-07-30T22:00:00.000Z","count":11},{"date":"2022-07-31T22:00:00.000Z","count":11},{"date":"2022-08-01T22:00:00.000Z","count":11},{"date":"2022-08-02T22:00:00.000Z","count":11},{"date":"2022-08-03T22:00:00.000Z","count":11},{"date":"2022-08-04T22:00:00.000Z","count":11},{"date":"2022-08-05T22:00:00.000Z","count":11},{"date":"2022-08-06T22:00:00.000Z","count":11},{"date":"2022-08-07T22:00:00.000Z","count":11},{"date":"2022-08-08T22:00:00.000Z","count":11},{"date":"2022-08-09T22:00:00.000Z","count":11},{"date":"2022-08-10T22:00:00.000Z","count":11},{"date":"2022-08-11T22:00:00.000Z","count":11},{"date":"2022-08-12T22:00:00.000Z","count":11},{"date":"2022-08-13T22:00:00.000Z","count":11},{"date":"2022-08-14T22:00:00.000Z","count":11},{"date":"2022-08-15T22:00:00.000Z","count":11},{"date":"2022-08-16T22:00:00.000Z","count":11},{"date":"2022-08-17T22:00:00.000Z","count":11},{"date":"2022-08-18T22:00:00.000Z","count":11},{"date":"2022-08-19T22:00:00.000Z","count":11},{"date":"2022-08-20T22:00:00.000Z","count":11},{"date":"2022-08-21T22:00:00.000Z","count":11},{"date":"2022-08-22T22:00:00.000Z","count":11},{"date":"2022-08-23T22:00:00.000Z","count":11},{"date":"2022-08-24T22:00:00.000Z","count":11},{"date":"2022-08-25T22:00:00.000Z","count":11},{"date":"2022-08-26T22:00:00.000Z","count":11},{"date":"2022-08-27T22:00:00.000Z","count":11}],"contributors":[{"count":"1","username":"b-jazz-bot"},{"count":"1","username":"EIzquierdo"},{"count":"1","username":"joost schouppe import"},{"count":"4","username":"eMerzh"},{"count":"2","username":"leonlapin"},{"count":"1","username":"theTouristos"},{"count":"1","username":"niconoe"}],"listDefinition":{"slug":"shop-supermarket","name":"Supermarché","query":"nwr[\"shop\"=\"supermarket\"](area.b);","props":{"withOpening":true},"tags":"\"shop\"=\"supermarket\""}},"__N_SSG":true}