{"pageProps":{"city":{"slug":"braine-lalleud","name":"Braine-l'Alleud","center":{"lat":50.683627,"lon":4.3749516},"bbox":[4.25,50.6,4.5,50.78]},"items":[{"lat":50.6693833,"lon":4.3522789,"tags":{"phone":"+32 2 385 16 94","amenity":"doctors","operator":"Dr GIL Ilana","addr:city":"Ophain-Bois-Seigneur-Isaac","healthcare":"doctor","addr:street":"Rue de la Bouvrée","addr:postcode":"1421","medical_system":"western","addr:housenumber":"1","health_facility:type":"office","healthcare:speciality":"general"},"type":"node","user":{"id":9641966,"name":"Sun937"},"osm_id":2564378889,"timestamp":"2020-10-14T13:44:56Z"},{"lat":50.6841772,"lon":4.3750842,"tags":{"email":"dr@florence-tassignon.be","phone":"+32 2 385 19 87","amenity":"doctors","website":"https://florence-tassignon.be","operator":"Dr TASSIGNON Tassignon","addr:city":"Braine-l'Alleud","healthcare":"doctor","addr:street":"Rue des Croix de Feu","addr:postcode":"1420","opening_hours":"Mo-Fr 08:30-13:00, 14:00-18:00, Sa-Su off","addr:housenumber":"10","health_facility:type":"office","healthcare:speciality":"general","medical_system:western":"yes"},"type":"node","user":{"id":15399,"name":"eMerzh"},"osm_id":7434986549,"timestamp":"2023-10-29T17:38:38Z"},{"lat":50.6844522,"lon":4.3805601,"tags":{"amenity":"doctors","operator":"Dr GOSSELIN Nathalie","addr:city":"Braine-l'Alleud","healthcare":"doctor","addr:street":"Avenue de Menden","addr:postcode":"1420","contact:email":"docteurngosselin@me.com","contact:phone":"+32 2 385 45 00","contact:website":"https://www.docteurgosselin.be","addr:housenumber":"24","healthcare:speciality":"paediatrics;dermatology"},"type":"node","user":{"id":9641966,"name":"Sun937"},"osm_id":7529486164,"timestamp":"2020-05-17T17:27:14Z"},{"lat":50.6852189,"lon":4.3776786,"tags":{"amenity":"doctors","operator":"ROSY Françoise","addr:city":"Braine-l'Alleud","healthcare":"doctor","addr:street":"Avenue Napoléon","description":"Maladies et chirurgie des yeux","addr:postcode":"1420","contact:phone":"+32 2 385 16 05","opening_hours":"\"by appointment\"","addr:housenumber":"12","healthcare:speciality":"ophthalmology"},"type":"node","user":{"id":9641966,"name":"Sun937"},"osm_id":7541935473,"timestamp":"2020-05-20T17:51:22Z"},{"lat":50.687609,"lon":4.3707261,"tags":{"name":"Cabinet Médical Croquet Flamme CMCF","phone":"+32 2 384 33 60","amenity":"doctors","operator":"C.M.C.F.","addr:city":"Braine-l'Alleud","healthcare":"doctor","addr:street":"Rue Pierre Flamand","description":"4 médecins généralistes: W. Liu, A. Croquet, M.-E. Flamme, Ch. Croquet.","addr:postcode":"1420","medical_system":"western","addr:housenumber":"87","healthcare:speciality":"general"},"type":"node","user":{"id":22278927,"name":"tansu_bla"},"osm_id":7597705119,"timestamp":"2024-12-12T20:42:06Z"},{"lat":50.6715173,"lon":4.3345703,"tags":{"name":"Luce Collart Médecin généraliste","phone":"+32 2 384 67 94","amenity":"doctors"},"type":"node","user":{"id":5432507,"name":"cEvLGWiQ"},"osm_id":11415185841,"timestamp":"2024-04-22T10:15:23Z"},{"lat":50.6661858,"lon":4.3479386,"tags":{"name":"Cabinet médical Izabel Ukaj","phone":"+32 460 94 15 18","amenity":"doctors"},"type":"node","user":{"id":5432507,"name":"cEvLGWiQ"},"osm_id":11811416263,"timestamp":"2024-04-22T10:15:23Z"},{"lat":50.6633092,"lon":4.345831,"tags":{"name":"Docteur Vanstiphout Kevin","phone":"+32 2 203 81 98","amenity":"doctors","website":"https://www.docteur-vanstiphout.be/","addr:city":"Braine L'Alleud","addr:street":"Rue des Combattants","addr:country":"BE","addr:postcode":"1420","addr:housenumber":"69"},"type":"node","user":{"id":5432507,"name":"cEvLGWiQ"},"osm_id":11811426275,"timestamp":"2024-04-22T10:15:24Z"},{"lat":50.6797857,"lon":4.3853587,"tags":{"note":"Dr. Wendy Stiernon: https://rosa.be/fr/hp/wendy-stiernon/\nDr. Caroline Mathieu: https://progenda.be/calendars/docteur-mathieu-caroline-medecine-generale-braine-l-alleud","amenity":"doctors","operator":"Hydoc SRL","addr:city":"Braine-l'Alleud","healthcare":"doctor","addr:street":"Place Saint-Sébastien","addr:postcode":"1420","medical_system":"western","addr:housenumber":"64","healthcare:speciality":"general"},"type":"node","user":{"id":22278927,"name":"tansu_bla"},"osm_id":12409952837,"timestamp":"2024-12-10T18:28:22Z"},{"lat":50.6857658,"lon":4.3769934,"tags":{"phone":"+32 4 349 96 87","amenity":"doctors","contact":"https://www.doctoranytime.be/d/medecin-generaliste/guy-matthys","building":"house","operator":"Dr MATTHYS Guy","addr:city":"Braine-l'Alleud","healthcare":"doctor","addr:street":"Chaussée Reine Astrid","addr:postcode":"1420","building:levels":"2","addr:housenumber":"1","source:geometry:ref":"Picc/44808","health_facility:type":"office","source:geometry:date":"2022-09-12","healthcare:speciality":"general","medical_system:western":"yes"},"type":"way","user":{"id":15399,"name":"eMerzh"},"osm_id":762225931,"timestamp":"2023-11-07T20:55:00Z"},{"lat":50.681962,"lon":4.3764581,"tags":{"amenity":"doctors","building":"house","operator":"Dr FRANCOTTE","addr:city":"Braine-l'Alleud","healthcare":"doctor","roof:shape":"gabled","addr:street":"Avenue Alphonse Allard","addr:postcode":"1420","roof:material":"slate","building:levels":"2","addr:housenumber":"13","roof:orientation":"across","source:geometry:ref":"Picc/2416001","health_facility:type":"office","source:geometry:date":"2016-08-16","healthcare:speciality":"radiology","medical_system:western":"yes"},"type":"way","user":{"id":15399,"name":"eMerzh"},"osm_id":764638137,"timestamp":"2023-12-10T12:41:12Z"}],"history":[{"date":"2024-12-04T23:00:00.000Z","count":11},{"date":"2024-12-05T23:00:00.000Z","count":11},{"date":"2024-12-06T23:00:00.000Z","count":11},{"date":"2024-12-07T23:00:00.000Z","count":11},{"date":"2024-12-08T23:00:00.000Z","count":11},{"date":"2024-12-09T23:00:00.000Z","count":11},{"date":"2024-12-10T23:00:00.000Z","count":11},{"date":"2024-12-11T23:00:00.000Z","count":11},{"date":"2024-12-12T23:00:00.000Z","count":11},{"date":"2024-12-13T23:00:00.000Z","count":11},{"date":"2024-12-14T23:00:00.000Z","count":11},{"date":"2024-12-15T23:00:00.000Z","count":11},{"date":"2024-12-16T23:00:00.000Z","count":11},{"date":"2024-12-17T23:00:00.000Z","count":11},{"date":"2024-12-18T23:00:00.000Z","count":11},{"date":"2024-12-19T23:00:00.000Z","count":11},{"date":"2024-12-20T23:00:00.000Z","count":11},{"date":"2024-12-21T23:00:00.000Z","count":11},{"date":"2024-12-22T23:00:00.000Z","count":11},{"date":"2024-12-23T23:00:00.000Z","count":11},{"date":"2024-12-24T23:00:00.000Z","count":11},{"date":"2024-12-25T23:00:00.000Z","count":11},{"date":"2024-12-26T23:00:00.000Z","count":11},{"date":"2024-12-27T23:00:00.000Z","count":11},{"date":"2024-12-28T23:00:00.000Z","count":11},{"date":"2024-12-29T23:00:00.000Z","count":11},{"date":"2024-12-30T23:00:00.000Z","count":null},{"date":"2024-12-31T23:00:00.000Z","count":11},{"date":"2025-01-01T23:00:00.000Z","count":11},{"date":"2025-01-02T23:00:00.000Z","count":11},{"date":"2025-01-03T23:00:00.000Z","count":11}],"contributors":[{"count":"3","username":"eMerzh"},{"count":"3","username":"cEvLGWiQ"},{"count":"2","username":"tansu_bla"},{"count":"3","username":"Sun937"}],"listDefinition":{"slug":"doctor","name":"Docteurs","query":"nwr[\"amenity\"=\"doctors\"](area.b);","tags":"\"amenity\"=\"doctors\""}},"__N_SSG":true}