{"pageProps":{"city":{"slug":"braine-lalleud","name":"Braine-l'Alleud","center":{"lat":50.683627,"lon":4.3749516},"bbox":[4.25,50.6,4.5,50.78]},"items":[{"osm_id":346595729,"type":"node","lat":50.698367,"lon":4.3626722,"tags":{"addr:city":"Braine-l'Alleud","addr:country":"BE","addr:housenumber":"499","addr:postcode":"1420","addr:street":"Chaussée d'Alsemberg","amenity":"restaurant","cuisine":"asian","name":"Zen","phone":"+32 2 387 38 88"},"timestamp":"2021-10-06T17:23:21Z","user":{"name":"leonlapin","id":683726}},{"osm_id":1222412857,"type":"node","lat":50.6869004,"lon":4.4049675,"tags":{"amenity":"restaurant","cuisine":"french","internet_access":"no","name":"Wood Wayne","phone":"+32 2 387 54 35","smoking":"no","website":"http://woodwayne.be","wheelchair":"no"},"timestamp":"2019-09-09T06:54:57Z","user":{"name":"Al-Hun","id":527910}},{"osm_id":1306996467,"type":"node","lat":50.6851516,"lon":4.3768722,"tags":{"addr:city":"Braine-l'Alleud","addr:housenumber":"5","addr:postcode":"1420","addr:street":"Avenue Albert 1er","air_conditioning":"yes","amenity":"restaurant","contact:email":"dragon.king_resto@hotmail.be","contact:facebook":"https://www.facebook.com/pg/DragonRoyalBla","cuisine":"chinese","delivery":"no","name":"Le Dragon Royal","opening_hours":"Mo-Fr 12:00-14:30, 18:00-23:00; Sa-Su 12:00-14:30, 18:00-24:00; Tu off; PH Tu 12:00-14:30, 18:00-24:00","outdoor_seating":"no","payment:cash":"yes","payment:mastercard":"yes","payment:visa":"yes","phone":"+32 2 385 12 88","smoking":"no","takeaway":"yes","website":"http://www.dragonroyal-resto.be/","wheelchair":"yes"},"timestamp":"2020-09-14T09:57:48Z","user":{"name":"wheelmap_visitor","id":290680}},{"osm_id":1774857936,"type":"node","lat":50.6854622,"lon":4.3752298,"tags":{"addr:city":"Braine-l'Alleud","addr:housenumber":"9","addr:postcode":"1420","addr:street":"Place de la Gare","amenity":"restaurant","contact:email":"info@poivrenoir.be","cuisine":"french","name":"Poivre noir","opening_hours":"We, Su, PH off; Mo 12:00-14:00; Tu,Th,Fr, Sa 12:00-14:00, 19:00-21:00","outdoor_seating":"patio","phone":"+32 2 385 14 12","smoking":"no","website":"http://www.poivrenoir.be"},"timestamp":"2022-02-22T17:03:36Z","user":{"name":"leonlapin","id":683726}},{"osm_id":1904541688,"type":"node","lat":50.6306264,"lon":4.3539209,"tags":{"addr:city":"Lillois-Witterzee","addr:country":"BE","addr:housenumber":"491","addr:postcode":"1428","addr:street":"Grand'Route","amenity":"restaurant","cuisine":"french","name":"Tichoux, Georges et Louis","phone":"+32 67 21 65 33"},"timestamp":"2019-01-04T21:47:37Z","user":{"name":"RouletteBE","id":8647449}},{"osm_id":2306365745,"type":"node","lat":50.6968233,"lon":4.3650077,"tags":{"amenity":"restaurant","cuisine":"french","name":"Le 421","website":"https://www.le421.be/"},"timestamp":"2020-11-24T11:43:40Z","user":{"name":"Thibaultmol","id":2916921}},{"osm_id":2463811867,"type":"node","lat":50.6679478,"lon":4.3529219,"tags":{"addr:city":"Ophain-Bois-Seigneur-Isaac","addr:country":"BE","addr:housename":"La Ferme du Moulin à Eau","addr:housenumber":"3","addr:postcode":"1421","addr:street":"Rue du Moulin à Eau","amenity":"restaurant","email":"info@lafermedumoulinaeau.be","fax":"+32 2 387 10 18","name":"La Ferme du Moulin à Eau","phone":"+32 2 387 02 12","website":"http://www.lafermedumoulinaeau.be"},"timestamp":"2013-12-30T16:57:41Z","user":{"name":"Flupke1400","id":1355339}},{"osm_id":2689903471,"type":"node","lat":50.6856291,"lon":4.3753991,"tags":{"addr:city":"Braine-l'Alleud","addr:country":"BE","addr:housenumber":"12","addr:postcode":"1420","addr:street":"Place de la Gare","air_conditioning":"yes","amenity":"restaurant","cuisine":"vietnamese","internet_access":"yes","name":"Saigon Bistro","opening_hours":"Su-Mo off; Tu-Fr 11:45-14:00, 17:30-22:00; Sa 17:30-22:00","payment:bancontact":"yes","payment:mastercard":"yes","payment:visa":"yes","phone":"+32 2 387 37 87","smoking":"no","takeaway":"yes","website":"https://saigonbistro.be/","wheelchair":"no"},"timestamp":"2022-02-22T17:04:46Z","user":{"name":"leonlapin","id":683726}},{"osm_id":2727519029,"type":"node","lat":50.6839138,"lon":4.4020033,"tags":{"addr:city":"Braine l'Alleud","addr:country":"BE","addr:housenumber":"87","addr:postcode":"1420","addr:street":"Chaussée de Nivelles","amenity":"restaurant","cuisine":"chinese","name":"La Chine Impériale","phone":"+32 2 384 05 20"},"timestamp":"2014-03-19T20:03:00Z","user":{"name":"OlivierCO","id":92837}},{"osm_id":3020376199,"type":"node","lat":50.6979008,"lon":4.3588402,"tags":{"addr:city":"Braine-l'Alleud","addr:country":"BE","addr:housename":"Le monde est petit","addr:housenumber":"65","addr:postcode":"1420","addr:street":"Chaussée de Tubize","amenity":"restaurant","cuisine":"chinese","microbrewery":"yes","name":"Le monde est petit","opening_hours":"Mo-Fr 12:00-14:00, 18:00-22:00","phone":"+32 2 384 40 29","website":"https://lmep65.be/"},"timestamp":"2021-10-05T13:25:23Z","user":{"name":"leonlapin","id":683726}},{"osm_id":3646271201,"type":"node","lat":50.6861692,"lon":4.380816,"tags":{"addr:city":"Braine-l'Alleud","addr:housenumber":"77","addr:postcode":"1420","addr:street":"Chaussée Reine Astrid","amenity":"restaurant","cuisine":"brasserie_bar_lounge","delivery":"no","name":"Le Yakapasta","opening_hours":"Mo,We,Th,Su 12:00-14:30,18:00-22:30; Fr 12:00-14:30,18:00-23:00; Sa 18:00-23:30","outdoor_seating":"yes","phone":"+32 2 385 13 90","smoking":"outside","takeaway":"yes","website":"https://leyakapasta.be/"},"timestamp":"2019-03-25T11:40:09Z","user":{"name":"b-jazz-bot","id":9451067}},{"osm_id":3822452851,"type":"node","lat":50.6860671,"lon":4.3841151,"tags":{"addr:city":"Braine-l'Alleud","addr:housenumber":"11","addr:postcode":"1420","addr:street":"Chaussée de Mont-Saint-Jean","amenity":"restaurant","cuisine":"sandwich","delivery":"yes","name":"La Pause","opening_hours":"Mo-Fr 07:45-15:00","phone":"+32 2 385 02 39","smoking":"no","takeaway":"yes","website":"https://www.lapause.be/"},"timestamp":"2019-03-28T00:55:39Z","user":{"name":"b-jazz-bot","id":9451067}},{"osm_id":3967711792,"type":"node","lat":50.6662718,"lon":4.3821286,"tags":{"access":"private","amenity":"restaurant","name":"Les Terrasses de l'Alliance"},"timestamp":"2016-01-26T08:49:14Z","user":{"name":"metatech","id":1545711}},{"osm_id":4100852790,"type":"node","lat":50.6856315,"lon":4.3793515,"tags":{"addr:city":"Braine-l'Alleud","addr:housenumber":"34","addr:postcode":"1420","addr:street":"Chaussée Reine Astrid","amenity":"restaurant","contact:facebook":"https://www.facebook.com/pg/Maïnoï-114071650138450","craft":"caterer","cuisine":"thai","delivery":"yes","email":"info@mainoi.be","name":"Maïnoï","opening_hours":"Mo off; Tu-Th, Su 12:00-14:00, 18:00-21:00; Fr 12:00-14:00, 18:00-22:00; Sa 18:00-22:00","outdoor_seating":"terrace","payment:cash":"yes","payment:debit_cards":"yes","payment:mastercard":"yes","payment:visa":"yes","phone:mobile":"+32 484 39 80 01","takeaway":"yes","website":"https://www.mainoi.be"},"timestamp":"2020-10-12T20:15:27Z","user":{"name":"eMerzh","id":15399}},{"osm_id":4100860092,"type":"node","lat":50.6860493,"lon":4.3840488,"tags":{"addr:housenumber":"11","addr:street":"Chaussée de Mont-Saint-Jean","amenity":"restaurant","cuisine":"mediterranean","name":"Le Méditerannéen","opening_hours":"Mo-Th 18:00-22:00; Fr-Sa 18:00-22:30; Su 12:00-14:00, 18:00-22:00","phone":"+32 2 385 12 64","website":"https://www.lemediterraneen.be/"},"timestamp":"2019-03-21T03:26:10Z","user":{"name":"b-jazz-bot","id":9451067}},{"osm_id":4108448676,"type":"node","lat":50.68514,"lon":4.3679209,"tags":{"amenity":"restaurant","name":"Tasty","opening_hours":"Mo-Fr 07:00-19:00; Sa 08:00-18:00; Su,PH 09:30-18:00","website":"https://www.tasty.pro/"},"timestamp":"2019-03-28T00:47:22Z","user":{"name":"b-jazz-bot","id":9451067}},{"osm_id":4494813649,"type":"node","lat":50.6683433,"lon":4.378586,"tags":{"addr:city":"Braine-l'Alleud","addr:housenumber":"1B","addr:postcode":"1420","addr:street":"Boulevard de France","amenity":"restaurant","cuisine":"asian;thai","diet:vegetarian":"yes","email":"info@kinecopy.com","name":"Le Copyright","opening_hours":"Mo-Th 17:00-22:00; Fr-Sa 13:00-25:00; Su 13:00-22:00","phone":"+32 2 385 26 29","toilets:wheelchair":"yes","website":"https://www.kinecopy.com","wheelchair":"yes"},"timestamp":"2022-10-06T11:24:24Z","user":{"name":"PtitGNU","id":71064}},{"osm_id":5548148189,"type":"node","lat":50.6444977,"lon":4.3658994,"tags":{"amenity":"restaurant","cuisine":"sandwich","name":"Croc & Go","phone":"+32 2 384 31 41","website":"http://www.crocandgo.be/"},"timestamp":"2022-07-14T12:37:39Z","user":{"name":"leonlapin","id":683726}},{"osm_id":6071739731,"type":"node","lat":50.6828424,"lon":4.3791866,"tags":{"addr:city":"Braine-l'Alleud","addr:housenumber":"18","addr:postcode":"1420","addr:street":"Avenue Raymond Brassinne","amenity":"restaurant","contact:facebook":"https://www.facebook.com/pg/WAW-MOMO-Braine-LAlleud-105182914650605/","contact:phone":"+32 2 203 43 00","cuisine":"sandwich;indian;thai","description":"Sandwicherie - Petite restauration","name":"WAW MOMO","opening_hours":"Mo-Th 10:00-15:00, 17:00-20:00; Fr 10:00-15:00, 17:00-21:00; Sa 17:00-21:00; Su 17:00-20:00","takeaway":"yes"},"timestamp":"2020-11-10T15:40:45Z","user":{"name":"Sun937","id":9641966}},{"osm_id":6102947663,"type":"node","lat":50.6961827,"lon":4.3650366,"tags":{"amenity":"restaurant","cuisine":"chinese","name":"Soho"},"timestamp":"2018-11-29T11:56:09Z","user":{"name":"leonlapin","id":683726}},{"osm_id":6376317001,"type":"node","lat":50.6894131,"lon":4.3628543,"tags":{"amenity":"restaurant","cuisine":"pizza","name":"Wotaland"},"timestamp":"2019-08-10T12:12:49Z","user":{"name":"leonlapin","id":683726}},{"osm_id":6683202617,"type":"node","lat":50.6843447,"lon":4.375129,"tags":{"amenity":"restaurant","contact:facebook":"https://www.facebook.com/profile.php?id=100063608291199","cuisine":"lebanese","diet:vegetarian":"yes","name":"Le Cèdre","opening_hours":"Tu-Su 12:00-15:00, 18:00-22:00; Mo off","phone":"+32 2 384 73 75","takeaway":"yes"},"timestamp":"2023-03-06T16:13:22Z","user":{"name":"joost schouppe","id":67832}},{"osm_id":7485812980,"type":"node","lat":50.6842167,"lon":4.3707239,"tags":{"addr:city":"Braine-l'Alleud","addr:housenumber":"13","addr:postcode":"1420","addr:street":"Place du Môle","amenity":"restaurant","contact:facebook":"https://www.facebook.com/pg/annyeongbla","cuisine":"korean","delivery":"yes","name":"Annyeong","opening_hours":"Mo off; Tu-Su 12:00-15:00, 18:00-22:00","phone:mobile":"+32 468 42 31 91","takeaway":"yes"},"timestamp":"2020-05-05T14:01:14Z","user":{"name":"Sun937","id":9641966}},{"osm_id":7486389891,"type":"node","lat":50.6840138,"lon":4.3711449,"tags":{"addr:city":"Braine-l'Alleud","addr:housenumber":"12","addr:postcode":"1420","addr:street":"Place du Môle","amenity":"restaurant","contact:facebook":"https://www.facebook.com/pg/monsieurpatate.be","cuisine":"regional","description":"Restaurant, traiteur et tea-room.","name":"Fromton","opening_hours":"Su-Mo off; Tu-We 10:00-18:30; Th-Sa 10:00-21:30","phone":"+32 2 387 52 00","takeaway":"yes","website":"https://www.fromton.be/"},"timestamp":"2020-06-28T21:23:18Z","user":{"name":"eMerzh","id":15399}},{"osm_id":7499181315,"type":"node","lat":50.6846438,"lon":4.3709986,"tags":{"addr:city":"Braine-l'Alleud","addr:housenumber":"2","addr:postcode":"1420","addr:street":"Place Cardinal Mercier","amenity":"restaurant","contact:email":"lamezzerie@gmail.be","contact:facebook":"https://www.facebook.com/pg/Ouzerie-La-Mezzerie-164810773596987","cuisine":"greek;mediterranean","name":"Ouzerie - La Mezzerie","opening_hours":"Fr-Sa 12:00-14:00, 19:00-21:30","phone":"+32 2 384 99 90","website":"http://www.lamezzerie.be"},"timestamp":"2020-05-08T19:47:03Z","user":{"name":"Sun937","id":9641966}},{"osm_id":7501798454,"type":"node","lat":50.6841442,"lon":4.3714256,"tags":{"addr:city":"Braine-l'Alleud","addr:housenumber":"4","addr:postcode":"1420","addr:street":"Avenue Léon Jourez","amenity":"restaurant","contact:facebook":"https://www.facebook.com/pg/ThaiSelect4u","craft":"caterer","cuisine":"thai","name":"Thaï Select","opening_hours":"Tu-Fr 11:30-15:00,17:30-21:00; Sa 17:30-21:00; Su-Mo,PH off","phone":"+32 2 384 16 78","takeaway":"yes","website":"https://thai-select.business.site"},"timestamp":"2023-05-06T08:12:28Z","user":{"name":"paulbrunner","id":15541433}},{"osm_id":7503738496,"type":"node","lat":50.6836137,"lon":4.3707973,"tags":{"addr:city":"Braine-l'Alleud","addr:housenumber":"11","addr:postcode":"1420","addr:street":"Rue des Fossés","addr:unit":"A","amenity":"restaurant","contact:email":"traiteursylvain@gmail.com","craft":"caterer","cuisine":"french;belgian","delivery":"yes","name":"Restaurant Sylvain","opening_hours":"Su-Fr 11:30-14:00; Sa off","payment:cash":"yes","payment:contactless":"yes","payment:debit_cards":"yes","payment:mastercard":"yes","payment:visa":"yes","phone:mobile":"+32 478 67 56 70","takeaway":"yes","website":"https://restaurantsylvain.eatbu.com"},"timestamp":"2021-01-16T15:51:44Z","user":{"name":"davidfaure_bot","id":12169583}},{"osm_id":7503738497,"type":"node","lat":50.6844073,"lon":4.3715884,"tags":{"addr:city":"Braine-l'Alleud","addr:housenumber":"17","addr:postcode":"1420","addr:street":"Avenue Léon Jourez","amenity":"restaurant","contact:email":"restaurant.lepavot@hotmail.com","contact:facebook":"https://www.facebook.com/pg/www.lepavot.be","cuisine":"french;polish","name":"Le Pavot","opening_hours":"Tu-We off; Th, Fr, Su, Mo 12:00-14:00, 19:00-21:00; Sa 19:00-21:00","phone":"+32 2 384 99 82","phone:mobile":"+32 497 14 19 30","reservation":"required","website":"https://www.lepavot.be"},"timestamp":"2020-05-10T15:43:13Z","user":{"name":"Sun937","id":9641966}},{"osm_id":7519579626,"type":"node","lat":50.6856995,"lon":4.379754,"tags":{"addr:city":"Braine-l'Alleud","addr:housenumber":"40","addr:postcode":"1420","addr:street":"Chaussée Reine Astrid","amenity":"restaurant","contact:email":"info@restaurant-indien.be","contact:facebook":"https://www.facebook.com/pg/tajmahalexpress1420","craft":"caterer","cuisine":"indian","delivery":"yes","description":"Restaurant et traiteur indien. Salon de thé/café avec vente de thés bios et de cafés.","diet:halal":"yes","name":"Taj Mahal","opening_hours":"Mo off; Tu, Th 12:00-21:00; We 12:00-21:30; Fr 16:00-22:00; Sa 12:00-22:00; Su 13:00-21:00","phone":"+32 2 852 10 47","takeaway":"yes","website":"http://www.restaurant-indien.be"},"timestamp":"2020-05-14T20:52:16Z","user":{"name":"Sun937","id":9641966}},{"osm_id":9087696001,"type":"node","lat":50.6920213,"lon":4.3406311,"tags":{"amenity":"restaurant"},"timestamp":"2021-09-14T11:06:16Z","user":{"name":"Korgorr","id":12288675}},{"osm_id":9148459895,"type":"node","lat":50.6981026,"lon":4.3599234,"tags":{"amenity":"restaurant","cuisine":"sandwich","name":"L'Étoilé Sud","outdoor_seating":"yes","phone":"+32 2 673 99 42","takeaway":"yes","website":"https://www.traiteur-etoile.be/"},"timestamp":"2023-02-28T10:09:29Z","user":{"name":"cEvLGWiQ","id":5432507}},{"osm_id":9337761036,"type":"node","lat":50.6653896,"lon":4.3472147,"tags":{"amenity":"restaurant","cuisine":"italian","name":"La Padella","phone":"+32 477 77 67 28","takeaway":"yes"},"timestamp":"2023-02-28T10:09:30Z","user":{"name":"cEvLGWiQ","id":5432507}},{"osm_id":9573474220,"type":"node","lat":50.6857336,"lon":4.3784275,"tags":{"addr:city":"Braine-l'Alleud","addr:country":"BE","addr:housenumber":"31","addr:postcode":"1420","addr:street":"Chaussée Reine Astrid","amenity":"restaurant","contact:facebook":"https://www.facebook.com/tamishansushi/","contact:phone":"+32 2 640 14 04","contact:website":"https://tamishansushi.be","cuisine":"sushi;japanese","delivery":"yes","name":"Tamishan sushi","opening_hours":"Mo 11:30-14:30,18:00-22:00, Tu off, We-Su 11:30-14:30,18:00-22:00","phone":"+32 2 640 14 04","takeaway":"yes","website":"https://tamishansushi.be"},"timestamp":"2022-03-12T18:12:57Z","user":{"name":"Sun937","id":9641966}},{"osm_id":9751510064,"type":"node","lat":50.6955975,"lon":4.3412267,"tags":{"amenity":"restaurant","cuisine":"sandwich","name":"Le Welly","phone":"+32 2 384 05 84","takeaway":"yes","website":"https://lewelly-express.be/"},"timestamp":"2022-07-04T13:14:02Z","user":{"name":"RouletteBE","id":8647449}},{"osm_id":9751545152,"type":"node","lat":50.6932521,"lon":4.3319785,"tags":{"addr:city":"Braine-l'Alleud","addr:country":"BE","addr:housenumber":"481","addr:postcode":"1420","addr:street":"Chaussée de Tubize","amenity":"restaurant","cuisine":"french","level":"2","name":"Toit","phone":"+32 2 897 01 23","website":"http://www.toit-restaurant.be/"},"timestamp":"2023-02-28T10:09:31Z","user":{"name":"cEvLGWiQ","id":5432507}},{"osm_id":9925634033,"type":"node","lat":50.713078,"lon":4.3531103,"tags":{"addr:city":"Braine-l'Alleud","addr:housenumber":"856","addr:postcode":"1420","addr:street":"Chaussée d'Alsemberg","amenity":"restaurant","cuisine":"italian;pizza","name":"La Fornarina","website":"https://lafornarina.be"},"timestamp":"2022-08-29T11:22:09Z","user":{"name":"leonlapin","id":683726}},{"osm_id":10253176365,"type":"node","lat":50.6829351,"lon":4.3703126,"tags":{"addr:city":"Braine-l'Alleud","addr:housenumber":"17","addr:postcode":"1420","addr:street":"Rue de l'Ancien Bourg","amenity":"restaurant","cuisine":"sushi","delivery":"yes","name":"Sushi Oden","opening_hours":"Mo 11:30-14:00,17:30-21:30; We,Fr-Su 11:30-14:00,17:30-22:00; Th 11:30-13:30,17:30-22:00","phone":"+32 2 385 42 63","takeaway":"only","website":"https://www.sushioden.be"},"timestamp":"2022-12-11T13:30:53Z","user":{"name":"leonlapin","id":683726}},{"osm_id":10253176368,"type":"node","lat":50.6824333,"lon":4.3700881,"tags":{"amenity":"restaurant","cuisine":"soup","name":"Chez Linette","phone":"+32 2 230 33 12","website":"https://www.facebook.com/chezlinettebas/"},"timestamp":"2023-02-28T10:09:37Z","user":{"name":"cEvLGWiQ","id":5432507}},{"osm_id":10805564382,"type":"node","lat":50.7147146,"lon":4.3516313,"tags":{"addr:housenumber":"963","addr:street":"Chaussée d'Alsemberg","amenity":"restaurant","cuisine":"italian","name":"Foccacia","opening_hours":"Mo-Sa 18:00-22:00; Su off"},"timestamp":"2023-04-13T09:23:45Z","user":{"name":"TopiBe92","id":18926022}},{"osm_id":98017053,"type":"way","lat":50.6687764,"lon":4.3875602,"tags":{"addr:city":"Braine l'Alleud","addr:country":"BE","addr:housenumber":"400","addr:postcode":"1420","addr:street":"Avenue Alphonse Allard","amenity":"restaurant","building":"yes","cuisine":"french","name":"Brasserie de l'Alliance","phone":"+32 2 387 17 20","smoking":"no","website":"http://sites.resto.com/lalliance/info.cfm"},"timestamp":"2019-12-15T18:07:30Z","user":{"name":"leonlapin","id":683726}},{"osm_id":101384678,"type":"way","lat":50.6603025,"lon":4.3796725,"tags":{"addr:city":"Braine l'Alleud","addr:country":"BE","addr:housenumber":"336","addr:postcode":"1420","addr:street":"Chaussée de Nivelles","amenity":"restaurant","building":"yes","cuisine":"french","email":"info@jacquesmarit.com","fax":"+32 2 384 10 42","microbrewery":"no","name":"Jacques Marit","phone":"+32 2 384 15 01","smoking":"no","website":"http://www.jacquesmarit.be"},"timestamp":"2022-06-19T16:17:31Z","user":{"name":"Staliom","id":10415664}},{"osm_id":105617805,"type":"way","lat":50.6410326,"lon":4.3627483,"tags":{"addr:city":"Lillois-Witterzée","addr:country":"BE","addr:housenumber":"262","addr:postcode":"1428","addr:street":"Grand'Route","amenity":"restaurant","building":"yes","cuisine":"french","email":"info@la-vache-sur-le-toit.be","name":"La Vache sur le Toit","opening_hours":"Mo-Su 12:00-14:30,19:00-22:30","phone":"+32 2 385 36 50","smoking":"no","website":"https://lavachesurletoit.be/","wheelchair":"no"},"timestamp":"2019-03-25T11:38:27Z","user":{"name":"b-jazz-bot","id":9451067}},{"osm_id":257181479,"type":"way","lat":50.6821961,"lon":4.3695288,"tags":{"addr:city":"Braine-l'Alleud","addr:housenumber":"13","addr:postcode":"1420","addr:street":"Grand-Place Baudouin Ier","amenity":"restaurant","building":"yes","clt:criteria":"M","clt:exception":"no","clt:inscription_date":"1983-08-29","clt:restricted":"no","cuisine":"italian","email":"restotradinoi@gmail.com","heritage":"4","heritage:operator":"clt","name":"Tra Di Noi","opening_hours":"Mo-Sa 12:00-14:00,18:00-22:00","phone":"+32 2 385 18 94","website":"https://www.restotradinoi.be"},"timestamp":"2022-09-29T23:43:21Z","user":{"name":"PtitGNU","id":71064}},{"osm_id":397977658,"type":"way","lat":50.6813498,"lon":4.3990331,"tags":{"addr:city":"Braine l'Alleud","addr:housenumber":"100","addr:postcode":"1420","addr:street":"Chaussée de Nivelles","amenity":"restaurant","building":"yes","cuisine":"japanese","name":"Fuji","phone":"+32 2 387 43 67","smoking":"no","source:geometry:date":"2016-08-16","source:geometry:ref":"Picc/1723563","website":"https://www.restofuji.be/"},"timestamp":"2022-05-16T20:40:24Z","user":{"name":"eMerzh","id":15399}},{"osm_id":413115879,"type":"way","lat":50.682322,"lon":4.370043,"tags":{"addr:city":"Braine-l'Alleud","addr:housenumber":"6","addr:postcode":"1420","addr:street":"Rue Doyen Van Belle","amenity":"restaurant","building":"yes","building:levels":"3","cuisine":"french","name":"Philippe Meyers"},"timestamp":"2019-09-28T21:05:40Z","user":{"name":"eMerzh","id":15399}},{"osm_id":413119677,"type":"way","lat":50.6836802,"lon":4.3713169,"tags":{"addr:city":"Braine-l'Alleud","addr:housenumber":"23","addr:postcode":"1420","addr:street":"Rue des Fossés","amenity":"restaurant","building":"yes","building:levels":"3","cuisine":"chinese","name":"Jade Garden","opening_hours":"Th-Tu 12:00-14:00, 18:30-22:00","phone":"+32 2 385 01 77"},"timestamp":"2019-11-28T21:47:56Z","user":{"name":"eMerzh","id":15399}},{"osm_id":438544716,"type":"way","lat":50.6798987,"lon":4.3671102,"tags":{"addr:city":"Braine-l'Alleud","addr:housenumber":"1","addr:postcode":"1420","addr:street":"Place du Quartier Saint-Jacques","amenity":"restaurant","building":"house","cuisine":"thai","name":"Pin Toh Thai","source:geometry:date":"2016-08-16","source:geometry:ref":"Picc/20858","takeaway":"yes","website":"https://www.pintohthai.be/"},"timestamp":"2022-10-12T15:02:54Z","user":{"name":"eMerzh","id":15399}},{"osm_id":439001039,"type":"way","lat":50.6793146,"lon":4.3668927,"tags":{"addr:city":"Braine-l'Alleud","addr:housenumber":"59","addr:postcode":"1420","addr:street":"Chaussée d'Ophain","amenity":"restaurant","building":"yes","cuisine":"friture","name":"M&M Comme à la maison","opening_hours":"Tu-Th 11:30-22:00; Fr 11:30-23:30; Sa-Su 11:30-22:00","payment:maestro":"yes","phone":"+32 2 3850507","roof:levels":"1","source:geometry:date":"2016-08-16","source:geometry:ref":"Picc/1109529","website":"https://mm-snack.com/"},"timestamp":"2022-08-13T13:03:05Z","user":{"name":"eMerzh","id":15399}},{"osm_id":729003818,"type":"way","lat":50.6832128,"lon":4.3741215,"tags":{"addr:city":"Braine-l'Alleud","addr:housenumber":"17","addr:postcode":"1420","addr:street":"Place Sainte-Anne","amenity":"restaurant","building":"yes","building:levels":"2","contact:email":"info@lousoleou.be","cuisine":"french;pizza","fair_trade":"yes","name":"Lou Soleou","opening_hours":"Mo-Th 12:00-14:00, 18:30-21:30; Fr 12:00-14:00, 18:30-22:30; Sa 18:30-22:30, Su off","organic":"yes","phone":"+32 2 385 25 35","roof:levels":"1","roof:shape":"gabled","takeaway":"yes","terrace":"yes","website":"https://lousoleou.be/","wheelchair":"no"},"timestamp":"2020-05-21T18:02:19Z","user":{"name":"Sun937","id":9641966}},{"osm_id":733085189,"type":"way","lat":50.6845878,"lon":4.3751229,"tags":{"addr:city":"Braine-l'Alleud","addr:country":"BE","addr:housenumber":"2","addr:postcode":"1420","addr:street":"Rue des Croix du Feu","amenity":"restaurant","building":"yes","cuisine":"italian","email":"info@chezrino.be","name":"Chez Rino","opening_hours":"Mo-Fr 08:30-20:00","outdoor_seating":"terrace","phone":"+32 2 384 05 26","smoking":"no","website":"https://www.chezrino.be/","wheelchair":"no"},"timestamp":"2020-04-22T17:53:38Z","user":{"name":"Sun937","id":9641966}},{"osm_id":738356724,"type":"way","lat":50.6849994,"lon":4.3751858,"tags":{"addr:city":"Braine l'Alleud","addr:country":"BE","addr:housenumber":"4","addr:postcode":"1420","addr:street":"Place de la Gare","amenity":"restaurant","building":"yes","building:levels":"2","cuisine":"chinese;cantonese;thai","name":"Chen Xi","opening_hours":"We-Mo 12:00 -14:30, 18:00 - 22:30; Tu 12:00 -14:30","outdoor_seating":"terrace","phone":"+32 2 384 36 88","takeaway":"yes","website":"https://chenxi2012168.wixsite.com/chenxi"},"timestamp":"2022-03-12T15:49:10Z","user":{"name":"Sun937","id":9641966}},{"osm_id":738356733,"type":"way","lat":50.6849792,"lon":4.374519,"tags":{"addr:city":"Braine-l'Alleud","addr:housenumber":"72","addr:postcode":"1420","addr:street":"Avenue Léon Jourez","amenity":"restaurant","building":"yes","building:levels":"3","craft":"caterer","cuisine":"chinese","delivery":"yes","internet_access":"yes","name":"Hau Wang","opening_hours":"Mo-Su 11:30-14:30, 17:30-23:00","phone":"+32 2 384 41 96","phone:mobile":"+32 488 98 51 38","roof:levels":"1","roof:orientation":"across","roof:shape":"gabled","smoking":"no","takeaway":"yes","website":"http://www.hauwang.be/en/contact","wheelchair":"yes"},"timestamp":"2020-05-24T18:31:21Z","user":{"name":"Sun937","id":9641966}},{"osm_id":762730380,"type":"way","lat":50.6852633,"lon":4.3769621,"tags":{"addr:city":"Braine-l'Alleud","addr:housenumber":"2","addr:postcode":"1420","addr:street":"Chaussée Reine Astrid","amenity":"restaurant","brand":"Pizza Hut","brand:wikidata":"Q191615","brand:wikipedia":"en:Pizza Hut","building":"yes","cuisine":"pizza","name":"Pizza Hut","opening_hours":"Mo-Su 11:30-22:00","outdoor_seating":"no","phone":"+32 2 385 41 41","website":"https://www.pizzahut.be/fr"},"timestamp":"2020-04-22T17:53:38Z","user":{"name":"Sun937","id":9641966}}],"history":[{"date":"2023-07-09T22:00:00.000Z","count":53},{"date":"2023-07-10T22:00:00.000Z","count":53},{"date":"2023-07-11T22:00:00.000Z","count":53},{"date":"2023-07-12T22:00:00.000Z","count":53},{"date":"2023-07-13T22:00:00.000Z","count":53},{"date":"2023-07-14T22:00:00.000Z","count":53},{"date":"2023-07-15T22:00:00.000Z","count":53},{"date":"2023-07-16T22:00:00.000Z","count":53},{"date":"2023-07-17T22:00:00.000Z","count":53},{"date":"2023-07-18T22:00:00.000Z","count":53},{"date":"2023-07-19T22:00:00.000Z","count":53},{"date":"2023-07-20T22:00:00.000Z","count":53},{"date":"2023-07-21T22:00:00.000Z","count":53},{"date":"2023-07-22T22:00:00.000Z","count":53},{"date":"2023-07-23T22:00:00.000Z","count":53},{"date":"2023-07-24T22:00:00.000Z","count":53},{"date":"2023-07-25T22:00:00.000Z","count":53},{"date":"2023-07-26T22:00:00.000Z","count":53},{"date":"2023-07-27T22:00:00.000Z","count":53},{"date":"2023-07-28T22:00:00.000Z","count":53},{"date":"2023-07-29T22:00:00.000Z","count":53},{"date":"2023-07-30T22:00:00.000Z","count":53},{"date":"2023-07-31T22:00:00.000Z","count":53},{"date":"2023-08-01T22:00:00.000Z","count":53},{"date":"2023-08-02T22:00:00.000Z","count":53},{"date":"2023-08-03T22:00:00.000Z","count":53},{"date":"2023-08-04T22:00:00.000Z","count":53},{"date":"2023-08-05T22:00:00.000Z","count":53},{"date":"2023-08-06T22:00:00.000Z","count":53},{"date":"2023-08-07T22:00:00.000Z","count":53},{"date":"2023-08-08T22:00:00.000Z","count":53}],"contributors":[{"count":"4","username":"cEvLGWiQ"},{"count":"1","username":"metatech"},{"count":"1","username":"joost schouppe"},{"count":"1","username":"wheelmap_visitor"},{"count":"1","username":"OlivierCO"},{"count":"1","username":"Thibaultmol"},{"count":"1","username":"Korgorr"},{"count":"1","username":"davidfaure_bot"},{"count":"10","username":"leonlapin"},{"count":"1","username":"Al-Hun"},{"count":"2","username":"PtitGNU"},{"count":"5","username":"b-jazz-bot"},{"count":"1","username":"TopiBe92"},{"count":"1","username":"Staliom"},{"count":"7","username":"eMerzh"},{"count":"1","username":"Flupke1400"},{"count":"2","username":"RouletteBE"},{"count":"1","username":"paulbrunner"},{"count":"11","username":"Sun937"}],"listDefinition":{"slug":"restaurant","name":"Restaurants","query":"nwr[\"amenity\"=\"restaurant\"](area.b);","props":{"withOpening":true},"tags":"\"amenity\"=\"restaurant\""}},"__N_SSG":true}