{"pageProps":{"city":{"slug":"braine-lalleud","name":"Braine-l'Alleud","center":{"lat":50.683627,"lon":4.3749516},"bbox":[4.25,50.6,4.5,50.78]},"items":[{"lat":50.6853513,"lon":4.3750463,"tags":{"atm":"no","name":"Belfius","brand":"Belfius","amenity":"bank","addr:city":"Braine-l'Alleud","addr:street":"Place de la Gare","contact:fax":"+32 2 386 42 99","addr:postcode":"1420","contact:phone":"+32 2 386 42 80","drive_through":"no","brand:wikidata":"Q1956014","brand:wikipedia":"en:Belfius","contact:website":"https://www.belfius.be","internet_access":"wlan","addr:housenumber":"7"},"type":"node","user":{"id":15399,"name":"eMerzh"},"osm_id":1762549554,"timestamp":"2023-06-11T08:53:21Z"},{"lat":50.6850259,"lon":4.3737642,"tags":{"atm":"no","name":"ING","brand":"ING","branch":"Braine-l'Alleud","amenity":"bank","addr:city":"Braine-l'Alleud","addr:street":"Avenue Léon Jourez","addr:postcode":"1420","contact:email":"braine-l.alleud@ing.be","contact:phone":"+32 2 389 15 70","drive_through":"no","brand:wikidata":"Q645708","brand:wikipedia":"en:ING Group","contact:website":"https://www.ing.be","addr:housenumber":"63"},"type":"node","user":{"id":15399,"name":"eMerzh"},"osm_id":1774886763,"timestamp":"2023-06-11T08:53:21Z"},{"lat":50.6409049,"lon":4.362992,"tags":{"atm":"yes","name":"Agence de Lillois","amenity":"bank","operator":"BNP Paribas Fortis","addr:city":"Lillois-Witterzee","wheelchair":"limited","addr:street":"Grand'Route","addr:country":"BE","addr:postcode":"1428","addr:housenumber":"261"},"type":"node","user":{"id":290680,"name":"wheelmap_visitor"},"osm_id":2376950163,"timestamp":"2013-12-05T18:08:53Z"},{"lat":50.6861779,"lon":4.3750336,"tags":{"name":"CBC","brand":"CBC","branch":"Braine-l'Alleud","amenity":"bank","brand:en":"KBC","brand:nl":"KBC","addr:city":"Braine-l'Alleud","addr:street":"Avenue de la Belle Province","addr:postcode":"1420","contact:phone":"+32 2 389 15 20","brand:wikidata":"Q2931011","brand:wikipedia":"fr:CBC Banque & Assurance","contact:website":"https://www.cbc.be/","addr:housenumber":"92"},"type":"node","user":{"id":85218,"name":"Aleks-Berlin"},"osm_id":3442983022,"timestamp":"2022-06-20T12:07:08Z"},{"lat":50.6864365,"lon":4.3747132,"tags":{"atm":"yes","name":"Crelan","brand":"Crelan","phone":"+32 2 883 27 17","branch":"Braine-l'Alleud","amenity":"bank","website":"https://www.crelan.be","operator":"Twenty One Invest SRL","addr:city":"Braine l'Alleud","addr:street":"Avenue de la Belle Province","addr:postcode":"1420","contact:email":"brainelalleud.serment@crelan.be","brand:wikidata":"Q389872","addr:housenumber":"103-105","operator:wikidata":"Q389872"},"type":"node","user":{"id":683726,"name":"leonlapin"},"osm_id":3447126887,"timestamp":"2024-08-20T13:59:12Z"},{"lat":50.6844634,"lon":4.3724839,"tags":{"atm":"no","name":"Beobank","brand":"Beobank","branch":"Braine-l'Alleud","amenity":"bank","operator":"B Finance and Consulting SRL","addr:city":"Braine-l'Alleud","addr:street":"Avenue Léon Jourez","contact:fax":"+32 2 385 07 71","addr:postcode":"1420","contact:email":"agentbraine@beobank.be","contact:phone":"+32 2 384 92 12","opening_hours":"Mo, We, Fr 09:00-13:00, 14:00-16:30; Tu-Th 09:00-13:00, 14:00-18:00; Sa \"by appointment\"; Su off","brand:wikidata":"Q14911971","brand:wikipedia":"nl:Beobank","contact:website":"https://www.beobank.be","addr:housenumber":"30"},"type":"node","user":{"id":9641966,"name":"Sun937"},"osm_id":7552072852,"timestamp":"2020-05-23T17:33:41Z"},{"lat":50.6851754,"lon":4.3743078,"tags":{"atm":"no","name":"BNP Paribas Fortis","brand":"BNP Paribas Fortis","amenity":"bank","addr:city":"Braine-l'Alleud","wheelchair":"yes","addr:street":"Avenue Léon Jourez","contact:fax":"+32 2 565 01 02","addr:postcode":"1420","contact:email":"braine-lalleud@bnpparibasfortis.com","contact:phone":"+32 2 762 20 00","drive_through":"no","brand:wikidata":"Q796827","brand:wikipedia":"en:BNP Paribas Fortis","contact:website":"https://www.bnpparibasfortis.be","internet_access":"wlan","addr:housenumber":"73"},"type":"node","user":{"id":15399,"name":"eMerzh"},"osm_id":9527748667,"timestamp":"2023-06-11T08:53:21Z"},{"lat":50.6834333,"lon":4.3702786,"tags":{"atm":"no","name":"Fintro","brand":"Fintro","amenity":"bank","building":"house","addr:city":"Braine-l'Alleud","addr:street":"Rue du Môle","addr:postcode":"1420","brand:wikidata":"Q2457280","addr:housenumber":"20","source:geometry:ref":"Picc/3790791","source:geometry:date":"2016-08-16"},"type":"way","user":{"id":15399,"name":"eMerzh"},"osm_id":413104976,"timestamp":"2023-11-05T14:12:33Z"},{"lat":50.6835797,"lon":4.3702833,"tags":{"atm":"yes","name":"Crelan","brand":"Crelan","email":"brainelalleud@crelan.be","phone":"+32 2 387 00 21","amenity":"bank","website":"https://www.crelan.be","building":"yes","operator":"Denuit & François","addr:city":"Braine-l'Alleud","addr:street":"Place du Môle","addr:postcode":"1420","opening_hours":"Mo,Tu,Th 09:00-12:30; We 09:00-12:30,13:30-16:00; Fr 09:00-12:30,13:30-17:00","brand:wikidata":"Q389872","brand:wikipedia":"en:Crelan","addr:housenumber":"1-2","source:geometry:ref":"Picc/2979048","source:geometry:date":"2016-08-16"},"type":"way","user":{"id":71064,"name":"PtitGNU"},"osm_id":750596543,"timestamp":"2024-07-22T14:34:58Z"}],"history":[{"date":"2024-12-01T23:00:00.000Z","count":9},{"date":"2024-12-02T23:00:00.000Z","count":9},{"date":"2024-12-03T23:00:00.000Z","count":9},{"date":"2024-12-04T23:00:00.000Z","count":9},{"date":"2024-12-05T23:00:00.000Z","count":9},{"date":"2024-12-06T23:00:00.000Z","count":9},{"date":"2024-12-07T23:00:00.000Z","count":9},{"date":"2024-12-08T23:00:00.000Z","count":9},{"date":"2024-12-09T23:00:00.000Z","count":9},{"date":"2024-12-10T23:00:00.000Z","count":9},{"date":"2024-12-11T23:00:00.000Z","count":9},{"date":"2024-12-12T23:00:00.000Z","count":9},{"date":"2024-12-13T23:00:00.000Z","count":9},{"date":"2024-12-14T23:00:00.000Z","count":9},{"date":"2024-12-15T23:00:00.000Z","count":9},{"date":"2024-12-16T23:00:00.000Z","count":9},{"date":"2024-12-17T23:00:00.000Z","count":9},{"date":"2024-12-18T23:00:00.000Z","count":9},{"date":"2024-12-19T23:00:00.000Z","count":9},{"date":"2024-12-20T23:00:00.000Z","count":9},{"date":"2024-12-21T23:00:00.000Z","count":9},{"date":"2024-12-22T23:00:00.000Z","count":9},{"date":"2024-12-23T23:00:00.000Z","count":9},{"date":"2024-12-24T23:00:00.000Z","count":9},{"date":"2024-12-25T23:00:00.000Z","count":9},{"date":"2024-12-26T23:00:00.000Z","count":9},{"date":"2024-12-27T23:00:00.000Z","count":9},{"date":"2024-12-28T23:00:00.000Z","count":9},{"date":"2024-12-29T23:00:00.000Z","count":9},{"date":"2024-12-30T23:00:00.000Z","count":9},{"date":"2024-12-31T23:00:00.000Z","count":9}],"contributors":[{"count":"1","username":"PtitGNU"},{"count":"1","username":"wheelmap_visitor"},{"count":"1","username":"Sun937"},{"count":"1","username":"Aleks-Berlin"},{"count":"1","username":"leonlapin"},{"count":"4","username":"eMerzh"}],"listDefinition":{"slug":"shop-bank","name":"Banque","query":"nwr[\"amenity\"=\"bank\"](area.b);","props":{"withOpening":true},"tags":"\"amenity\"=\"bank\""}},"__N_SSG":true}