{"pageProps":{"city":{"slug":"braine-lalleud","name":"Braine-l'Alleud","center":{"lat":50.683627,"lon":4.3749516},"bbox":[4.25,50.6,4.5,50.78]},"items":[{"lat":50.6693833,"lon":4.3522789,"tags":{"phone":"+32 2 385 16 94","amenity":"doctors","operator":"Dr GIL Ilana","addr:city":"Ophain-Bois-Seigneur-Isaac","healthcare":"doctor","addr:street":"Rue de la Bouvrée","addr:postcode":"1421","medical_system":"western","addr:housenumber":"1","health_facility:type":"office","healthcare:speciality":"general"},"type":"node","user":{"id":9641966,"name":"Sun937"},"osm_id":2564378889,"timestamp":"2020-10-14T13:44:56Z"},{"lat":50.6851216,"lon":4.3790029,"tags":{"name":"Hypno-coaching","email":"philippe.defaux@hypno-coaching.be","phone":"+32 475 91 28 22","amenity":"doctors","name:fr":"Hypno-coaching","website":"https://www.hypno-coaching.be/","healthcare":"doctor","addr:street":"Avenue Maréchal Ney","addr:postcode":"1420","addr:housenumber":"27"},"type":"node","user":{"id":302717,"name":"Fasse"},"osm_id":4790675023,"timestamp":"2019-09-29T10:37:46Z"},{"lat":50.6841772,"lon":4.3750842,"tags":{"email":"dr@florence-tassignon.be","phone":"+32 2 385 19 87","amenity":"doctors","website":"https://florence-tassignon.be","operator":"Dr TASSIGNON Tassignon","addr:city":"Braine-l'Alleud","healthcare":"doctor","addr:street":"Rue des Croix du Feu","addr:postcode":"1420","opening_hours":"Mo-Fr 08:30-13:00, 14:00-18:00, Sa-Su off","addr:housenumber":"10","health_facility:type":"office","healthcare:speciality":"general","medical_system:western":"yes"},"type":"node","user":{"id":5432507,"name":"cEvLGWiQ"},"osm_id":7434986549,"timestamp":"2023-08-27T09:14:30Z"},{"lat":50.6844522,"lon":4.3805601,"tags":{"amenity":"doctors","operator":"Dr GOSSELIN Nathalie","addr:city":"Braine-l'Alleud","healthcare":"doctor","addr:street":"Avenue de Menden","addr:postcode":"1420","contact:email":"docteurngosselin@me.com","contact:phone":"+32 2 385 45 00","contact:website":"https://www.docteurgosselin.be","addr:housenumber":"24","healthcare:speciality":"paediatrics;dermatology"},"type":"node","user":{"id":9641966,"name":"Sun937"},"osm_id":7529486164,"timestamp":"2020-05-17T17:27:14Z"},{"lat":50.6852189,"lon":4.3776786,"tags":{"amenity":"doctors","operator":"ROSY Françoise","addr:city":"Braine-l'Alleud","healthcare":"doctor","addr:street":"Avenue Napoléon","description":"Maladies et chirurgie des yeux","addr:postcode":"1420","contact:phone":"+32 2 385 16 05","opening_hours":"\"by appointment\"","addr:housenumber":"12","healthcare:speciality":"ophthalmology"},"type":"node","user":{"id":9641966,"name":"Sun937"},"osm_id":7541935473,"timestamp":"2020-05-20T17:51:22Z"},{"lat":50.687609,"lon":4.3707261,"tags":{"name":"Croquet C.","phone":"+32 2 384 33 60","amenity":"doctors","addr:city":"Braine-l'Alleud","healthcare":"doctor","addr:street":"Rue Pierre Flamand","addr:postcode":"1420","addr:housenumber":"87"},"type":"node","user":{"id":5432507,"name":"cEvLGWiQ"},"osm_id":7597705119,"timestamp":"2023-02-28T10:09:28Z"},{"lat":50.6857651,"lon":4.3769949,"tags":{"phone":"+32 4 349 96 87","amenity":"doctors","contact":"https://www.doctoranytime.be/d/medecin-generaliste/guy-matthys","building":"house","operator":"Dr MATTHYS Guy","addr:city":"Braine-l'Alleud","healthcare":"doctor","addr:street":"Chaussée Reine Astrid","addr:postcode":"1420","building:levels":"2","addr:housenumber":"1","health_facility:type":"office","healthcare:speciality":"general","medical_system:western":"yes"},"type":"way","user":{"id":9641966,"name":"Sun937"},"osm_id":762225931,"timestamp":"2020-04-28T19:43:42Z"},{"lat":50.6819615,"lon":4.3764588,"tags":{"amenity":"doctors","building":"house","operator":"Dr FRANCOTTE","addr:city":"Braine-l'Alleud","healthcare":"doctor","addr:street":"Avenue Alphonse Allard","addr:postcode":"1420","building:levels":"2","addr:housenumber":"13","health_facility:type":"office","healthcare:speciality":"radiology","medical_system:western":"yes"},"type":"way","user":{"id":9641966,"name":"Sun937"},"osm_id":764638137,"timestamp":"2020-04-28T19:43:42Z"}],"history":[{"date":"2023-09-20T22:00:00.000Z","count":8},{"date":"2023-09-21T22:00:00.000Z","count":8},{"date":"2023-09-22T22:00:00.000Z","count":8},{"date":"2023-09-23T22:00:00.000Z","count":8},{"date":"2023-09-24T22:00:00.000Z","count":8},{"date":"2023-09-25T22:00:00.000Z","count":8},{"date":"2023-09-26T22:00:00.000Z","count":8},{"date":"2023-09-27T22:00:00.000Z","count":8},{"date":"2023-09-28T22:00:00.000Z","count":8},{"date":"2023-09-29T22:00:00.000Z","count":8},{"date":"2023-09-30T22:00:00.000Z","count":8},{"date":"2023-10-01T22:00:00.000Z","count":8},{"date":"2023-10-02T22:00:00.000Z","count":8},{"date":"2023-10-03T22:00:00.000Z","count":8},{"date":"2023-10-04T22:00:00.000Z","count":8},{"date":"2023-10-05T22:00:00.000Z","count":8},{"date":"2023-10-06T22:00:00.000Z","count":8},{"date":"2023-10-07T22:00:00.000Z","count":8},{"date":"2023-10-08T22:00:00.000Z","count":8},{"date":"2023-10-09T22:00:00.000Z","count":8},{"date":"2023-10-10T22:00:00.000Z","count":8},{"date":"2023-10-11T22:00:00.000Z","count":8},{"date":"2023-10-12T22:00:00.000Z","count":8},{"date":"2023-10-13T22:00:00.000Z","count":8},{"date":"2023-10-14T22:00:00.000Z","count":8},{"date":"2023-10-15T22:00:00.000Z","count":8},{"date":"2023-10-16T22:00:00.000Z","count":8},{"date":"2023-10-17T22:00:00.000Z","count":8},{"date":"2023-10-18T22:00:00.000Z","count":8},{"date":"2023-10-19T22:00:00.000Z","count":8},{"date":"2023-10-20T22:00:00.000Z","count":null}],"contributors":[{"count":"2","username":"cEvLGWiQ"},{"count":"1","username":"Fasse"},{"count":"5","username":"Sun937"}],"listDefinition":{"slug":"doctor","name":"Docteurs","query":"nwr[\"amenity\"=\"doctors\"](area.b);","tags":"\"amenity\"=\"doctors\""}},"__N_SSG":true}