{"pageProps":{"city":{"slug":"braine-lalleud","name":"Braine-l'Alleud","center":{"lat":50.683627,"lon":4.3749516},"bbox":[4.25,50.6,4.5,50.78]},"items":[{"lat":50.6971129,"lon":4.3636184,"tags":{"name":"Bio-Planet Braine l'Alleud","shop":"supermarket","level":"-1","organic":"only"},"type":"node","user":{"id":683726,"name":"leonlapin"},"osm_id":306291158,"timestamp":"2021-10-05T14:28:50Z"},{"lat":50.685639,"lon":4.401969,"tags":{"name":"Färm","shop":"supermarket","phone":"+32 2 880 18 15","organic":"only","website":"https://www.farm.coop/","operator":"Färm","addr:city":"Braine-l'Alleud","addr:street":"Avenue Victor Hugo","payment:cash":"yes","addr:postcode":"1420","opening_hours":"Mo-Sa 10:00-19:00; Su 10:00-20:00","payment:maestro":"yes","addr:housenumber":"7","payment:debit_cards":"yes"},"type":"node","user":{"id":5432507,"name":"cEvLGWiQ"},"osm_id":8572800884,"timestamp":"2023-02-28T10:09:42Z"},{"lat":50.7059084,"lon":4.3583309,"tags":{"name":"Louis Delhaize","shop":"supermarket","phone":"+32 2 237 09 70","website":"https://magasins.carrefour.be/fr/s/carrefour/carrefour-express-mestdagh-braine-lalleud/3125"},"type":"node","user":{"id":10406473,"name":"ha dem"},"osm_id":9985832242,"timestamp":"2023-04-17T11:21:04Z"},{"lat":50.6985859,"lon":4.3619206,"tags":{"name":"Delhaize","shop":"supermarket","brand":"Delhaize","phone":"+32 2 387 43 75","website":"https://stores.delhaize.be/fr/delhaize-braine-lalleud","addr:city":"Braine-l'Alleud","wheelchair":"yes","addr:street":"Rue de la Graignette","addr:postcode":"1420","opening_hours":"Mo-Th 08:00-20:00; Fr 08:00-21:00; Sa 08:00-20:00","brand:wikidata":"Q1184173","addr:housenumber":"5"},"type":"node","user":{"id":71064,"name":"PtitGNU"},"osm_id":10202593596,"timestamp":"2022-11-19T21:48:50Z"},{"lat":50.6945322,"lon":4.3659618,"tags":{"name":"Colruyt","shop":"supermarket","brand":"Colruyt","level":"1","phone":"+32 2 387 21 43","website":"https://www.colruyt.be/fr/recherche-de-magasin/colruyt-braine-lalleud","operator":"Colruyt Group","addr:city":"Braine-l'Alleud","wheelchair":"yes","addr:street":"Rue du Jardinier","addr:postcode":"1420","opening_hours":"Mo-Th 08:30-20:00; Fr 08:30-21:00; Sa 08:30-20:00","brand:wikidata":"Q2363991","addr:housenumber":"50"},"type":"node","user":{"id":71064,"name":"PtitGNU"},"osm_id":10202642724,"timestamp":"2022-11-19T21:11:14Z"},{"lat":50.6876853,"lon":4.371723,"tags":{"name":"Lidl","shop":"supermarket","brand":"Lidl","website":"https://www.lidl.be/","building":"yes","addr:city":"Braine l'Alleud","addr:street":"Avenue de la Belle Province","addr:country":"BE","addr:postcode":"1420","addr:housename":"LIDL 102","brand:wikidata":"Q151954","brand:wikipedia":"en:Lidl","addr:housenumber":"20"},"type":"way","user":{"id":683726,"name":"leonlapin"},"osm_id":26784537,"timestamp":"2021-06-30T13:24:43Z"},{"lat":50.6869368,"lon":4.3744921,"tags":{"name":"Match","shop":"supermarket","brand":"Match","phone":"+32 2 386 42 40","website":"http://www.supermarche-match.be/en/match-braine-l-alleud.html","building":"yes","addr:street":"Avenue de la Belle Province","opening_hours":"Mo-Th, Sa 08:00-20:00; Fr 08:00-21:00; Su 08:30-13:00","brand:wikidata":"Q513977","brand:wikipedia":"en:Match (supermarket)","addr:housenumber":"73"},"type":"way","user":{"id":15399,"name":"eMerzh"},"osm_id":28090848,"timestamp":"2020-01-19T20:24:27Z"},{"lat":50.6788553,"lon":4.384144,"tags":{"name":"Carrefour Market","shop":"supermarket","brand":"Carrefour Market","phone":"+32 2 384 09 28","website":"https://www.groupemestdagh.be/les-magasins/braine-l-alleud.htm?lng=","building":"yes","operator":"Mestdagh","addr:city":"Braine-l'Alleud","addr:street":"Place Saint-Sébastien","addr:postcode":"1420","opening_hours":"Mo-Fr 09:00-20:00, Sa 09:00-19:00","brand:wikidata":"Q2689639","brand:wikipedia":"fr:Carrefour Market","addr:housenumber":"15"},"type":"way","user":{"id":15399,"name":"eMerzh"},"osm_id":29314887,"timestamp":"2021-03-04T21:08:18Z"},{"lat":50.6838431,"lon":4.3697176,"tags":{"name":"Carrefour Market","shop":"supermarket","brand":"Carrefour Market","building":"yes","addr:city":"Braine-l'Alleud","addr:street":"Place du Môle","addr:postcode":"1420","opening_hours":"Mo 13:00-19:30; Tu-Sa 08:00-19:30; Su 08:00-13:00","brand:wikidata":"Q2689639","brand:wikipedia":"fr:Carrefour Market","addr:housenumber":"25"},"type":"way","user":{"id":15399,"name":"eMerzh"},"osm_id":164645473,"timestamp":"2019-12-13T21:17:12Z"},{"lat":50.6388738,"lon":4.3606058,"tags":{"name":"Proxy Delhaize Lillois","shop":"supermarket","building":"yes","operator":"Delhaize","addr:city":"Lillois-Witterzée","addr:street":"Grand'Route","addr:postcode":"1428","addr:housenumber":"350","source:geometry:ref":"Picc/601829","source:geometry:date":"2022-06-22"},"type":"way","user":{"id":15399,"name":"eMerzh"},"osm_id":579027666,"timestamp":"2023-10-19T06:30:34Z"},{"lat":50.6860047,"lon":4.4010697,"tags":{"name":"Delhaize","shop":"supermarket","brand":"Delhaize","building":"commercial","addr:city":"Braine-l'Alleud","addr:street":"Avenue Victor Hugo","roof:levels":"0","payment:cash":"yes","addr:postcode":"1420","opening_hours":"Mo-Su 08:30-20:00","brand:wikidata":"Q1184173","brand:wikipedia":"fr:Delhaize","building:levels":"2","payment:maestro":"yes","addr:housenumber":"3"},"type":"way","user":{"id":8153121,"name":"theTouristos"},"osm_id":711641928,"timestamp":"2021-09-22T16:07:27Z"}],"history":[{"date":"2023-09-20T22:00:00.000Z","count":11},{"date":"2023-09-21T22:00:00.000Z","count":11},{"date":"2023-09-22T22:00:00.000Z","count":11},{"date":"2023-09-23T22:00:00.000Z","count":11},{"date":"2023-09-24T22:00:00.000Z","count":11},{"date":"2023-09-25T22:00:00.000Z","count":11},{"date":"2023-09-26T22:00:00.000Z","count":11},{"date":"2023-09-27T22:00:00.000Z","count":11},{"date":"2023-09-28T22:00:00.000Z","count":11},{"date":"2023-09-29T22:00:00.000Z","count":11},{"date":"2023-09-30T22:00:00.000Z","count":11},{"date":"2023-10-01T22:00:00.000Z","count":11},{"date":"2023-10-02T22:00:00.000Z","count":11},{"date":"2023-10-03T22:00:00.000Z","count":11},{"date":"2023-10-04T22:00:00.000Z","count":11},{"date":"2023-10-05T22:00:00.000Z","count":11},{"date":"2023-10-06T22:00:00.000Z","count":11},{"date":"2023-10-07T22:00:00.000Z","count":11},{"date":"2023-10-08T22:00:00.000Z","count":11},{"date":"2023-10-09T22:00:00.000Z","count":11},{"date":"2023-10-10T22:00:00.000Z","count":11},{"date":"2023-10-11T22:00:00.000Z","count":11},{"date":"2023-10-12T22:00:00.000Z","count":11},{"date":"2023-10-13T22:00:00.000Z","count":11},{"date":"2023-10-14T22:00:00.000Z","count":11},{"date":"2023-10-15T22:00:00.000Z","count":11},{"date":"2023-10-16T22:00:00.000Z","count":11},{"date":"2023-10-17T22:00:00.000Z","count":11},{"date":"2023-10-18T22:00:00.000Z","count":11},{"date":"2023-10-19T22:00:00.000Z","count":11},{"date":"2023-10-20T22:00:00.000Z","count":null}],"contributors":[{"count":"4","username":"eMerzh"},{"count":"2","username":"leonlapin"},{"count":"1","username":"theTouristos"},{"count":"1","username":"cEvLGWiQ"},{"count":"2","username":"PtitGNU"},{"count":"1","username":"ha dem"}],"listDefinition":{"slug":"shop-supermarket","name":"Supermarché","query":"nwr[\"shop\"=\"supermarket\"](area.b);","props":{"withOpening":true},"tags":"\"shop\"=\"supermarket\""}},"__N_SSG":true}