{"pageProps":{"city":{"slug":"braine-lalleud","name":"Braine-l'Alleud","center":{"lat":50.683627,"lon":4.3749516},"bbox":[4.25,50.6,4.5,50.78]},"items":[{"osm_id":23298926,"type":"way","lat":50.6793254,"lon":4.4051705,"tags":{"addr:city":"Braine-l'Alleud","addr:housenumber":"315","addr:postcode":"1420","addr:street":"Route du Lion","building":"yes","museum":"history","name":"Panorama","tourism":"museum","wheelchair":"yes"},"timestamp":"2022-01-11T14:48:00Z","user":{"name":"leonlapin","id":683726}},{"osm_id":364357193,"type":"way","lat":50.6706861,"lon":4.3944681,"tags":{"addr:city":"Braine-l'Alleud","addr:postcode":"1420","addr:street":"Chemin du Goumont","building":"farm","historic":"battlefield","museum":"history","name":"Musée de la Ferme d'Hougoumont","tourism":"museum","website":"http://www.waterloo1815.be/"},"timestamp":"2022-06-26T20:36:19Z","user":{"name":"eMerzh","id":15399}},{"osm_id":948692728,"type":"way","lat":50.6798,"lon":4.4042425,"tags":{"addr:city":"Braine-l'Alleud","addr:country":"BE","addr:housenumber":"1815","addr:postcode":"1420","addr:street":"Route du Lion","building":"yes","layer":"-1","museum":"history","name":"Mémorial de Waterloo 1815","tourism":"museum","website":"https://www.waterloo1815.be","wheelchair":"yes"},"timestamp":"2022-01-11T14:48:00Z","user":{"name":"leonlapin","id":683726}}],"history":[{"date":"2022-12-25T23:00:00.000Z","count":3},{"date":"2022-12-26T23:00:00.000Z","count":3},{"date":"2022-12-27T23:00:00.000Z","count":3},{"date":"2022-12-28T23:00:00.000Z","count":3},{"date":"2022-12-29T23:00:00.000Z","count":3},{"date":"2022-12-30T23:00:00.000Z","count":3},{"date":"2022-12-31T23:00:00.000Z","count":3},{"date":"2023-01-01T23:00:00.000Z","count":3},{"date":"2023-01-02T23:00:00.000Z","count":3},{"date":"2023-01-03T23:00:00.000Z","count":3},{"date":"2023-01-04T23:00:00.000Z","count":3},{"date":"2023-01-05T23:00:00.000Z","count":3},{"date":"2023-01-06T23:00:00.000Z","count":3},{"date":"2023-01-07T23:00:00.000Z","count":3},{"date":"2023-01-08T23:00:00.000Z","count":3},{"date":"2023-01-09T23:00:00.000Z","count":3},{"date":"2023-01-10T23:00:00.000Z","count":3},{"date":"2023-01-11T23:00:00.000Z","count":3},{"date":"2023-01-12T23:00:00.000Z","count":3},{"date":"2023-01-13T23:00:00.000Z","count":3},{"date":"2023-01-14T23:00:00.000Z","count":3},{"date":"2023-01-15T23:00:00.000Z","count":3},{"date":"2023-01-16T23:00:00.000Z","count":3},{"date":"2023-01-17T23:00:00.000Z","count":3},{"date":"2023-01-18T23:00:00.000Z","count":3},{"date":"2023-01-19T23:00:00.000Z","count":3},{"date":"2023-01-20T23:00:00.000Z","count":3},{"date":"2023-01-21T23:00:00.000Z","count":3},{"date":"2023-01-22T23:00:00.000Z","count":3},{"date":"2023-01-23T23:00:00.000Z","count":3},{"date":"2023-01-24T23:00:00.000Z","count":3}],"contributors":[{"count":"1","username":"eMerzh"},{"count":"2","username":"leonlapin"}],"listDefinition":{"slug":"museum","name":"Musées","query":"nwr[\"tourism\"=\"museum\"](area.b);","props":{"withOpening":true},"tags":"\"tourism\"=\"museum\""}},"__N_SSG":true}