{"pageProps":{"city":{"slug":"braine-lalleud","name":"Braine-l'Alleud","center":{"lat":50.683627,"lon":4.3749516},"bbox":[4.25,50.6,4.5,50.78]},"items":[{"lat":50.6853513,"lon":4.3750463,"tags":{"atm":"no","name":"Belfius","brand":"Belfius","branch":"Braine-l'Alleud","amenity":"bank","contact:phone":"+32 2 386 42 80","drive_through":"no","opening_hours":"Mo-Fr 08:00-20:00; Sa 09:00-12:00; Su off; PH off","brand:wikidata":"Q1956014","brand:wikipedia":"en:Belfius","contact:website":"https://www.belfius.be","internet_access":"wlan"},"type":"node","user":{"id":22278927,"name":"tansu_bla"},"osm_id":1762549554,"timestamp":"2026-01-06T15:49:18Z"},{"lat":50.6850259,"lon":4.3737642,"tags":{"atm":"no","name":"ING","brand":"ING","branch":"Braine-l'Alleud","amenity":"bank","wheelchair":"no","contact:phone":"+32 2 464 60 02","drive_through":"no","opening_hours":"Mo-Fr 09:00-12:30,13:30-16:30; Sa-Su off; PH off","brand:wikidata":"Q645708","brand:wikipedia":"en:ING Group","contact:website":"https://www.ing.be"},"type":"node","user":{"id":22278927,"name":"tansu_bla"},"osm_id":1774886763,"timestamp":"2026-01-06T15:36:34Z"},{"lat":50.6409049,"lon":4.362992,"tags":{"atm":"yes","name":"Agence de Lillois","amenity":"bank","operator":"BNP Paribas Fortis","addr:city":"Lillois-Witterzee","wheelchair":"limited","addr:street":"Grand'Route","addr:country":"BE","addr:postcode":"1428","addr:housenumber":"261"},"type":"node","user":{"id":290680,"name":"wheelmap_visitor"},"osm_id":2376950163,"timestamp":"2013-12-05T18:08:53Z"},{"lat":50.6861779,"lon":4.3750336,"tags":{"name":"CBC","brand":"CBC","branch":"Braine-l'Alleud","amenity":"bank","brand:en":"KBC","brand:nl":"KBC","addr:street":"Avenue de la Belle Province","contact:phone":"+32 2 389 15 20","brand:wikidata":"Q2931011","brand:wikipedia":"fr:CBC Banque & Assurance","contact:website":"https://www.cbc.be/","addr:housenumber":"92"},"type":"node","user":{"id":20124809,"name":"bxl-forever_repair"},"osm_id":3442983022,"timestamp":"2025-12-10T16:19:28Z"},{"lat":50.6829699,"lon":4.3719334,"tags":{"atm":"yes","name":"Crelan","brand":"Crelan","branch":"Braine-l'Alleud","amenity":"bank","operator":"Twenty One Invest SRL","addr:street":"Rue du Serment","contact:email":"brainelalleud.serment@crelan.be","contact:phone":"+32 2 883 27 17","drive_through":"no","opening_hours":"Mo 09:00-12:30; Tu 09:00-12:30; Th 09:00-12:30,14:00-17:00; Fr 09:00-12:30","brand:wikidata":"Q389872","contact:website":"https://www.crelan.be","addr:housenumber":"2A","operator:wikidata":"Q389872"},"type":"node","user":{"id":22278927,"name":"tansu_bla"},"osm_id":3447126887,"timestamp":"2026-01-07T14:43:55Z"},{"lat":50.6844634,"lon":4.3724839,"tags":{"atm":"yes","name":"Beobank","brand":"Beobank","branch":"Braine-l'Alleud","amenity":"bank","operator":"B Finance and Consulting SRL","addr:street":"Avenue Léon Jourez","contact:phone":"+32 2 384 92 12","drive_through":"no","opening_hours":"Mo, We, Fr 09:00-13:00, 14:00-16:30; Tu-Th 09:00-13:00, 14:00-18:00; Sa-Su off; PH off","brand:wikidata":"Q14911971","brand:wikipedia":"nl:Beobank","contact:website":"https://www.beobank.be","addr:housenumber":"30"},"type":"node","user":{"id":22278927,"name":"tansu_bla"},"osm_id":7552072852,"timestamp":"2026-01-10T13:31:51Z"},{"lat":50.6851465,"lon":4.3743252,"tags":{"atm":"no","name":"BNP Paribas Fortis","brand":"BNP Paribas Fortis","branch":"Braine-l'Alleud","amenity":"bank","wheelchair":"yes","contact:email":"braine-lalleud@bnpparibasfortis.com","contact:phone":"+32 2 386 52 70","drive_through":"no","opening_hours":"Mo-Fr 09:00-12:30,13:30-20:00; Sa 09:30-12:30; Su off; PH off","brand:wikidata":"Q796827","brand:wikipedia":"en:BNP Paribas Fortis","contact:website":"https://www.bnpparibasfortis.be","internet_access":"wlan"},"type":"node","user":{"id":22278927,"name":"tansu_bla"},"osm_id":9527748667,"timestamp":"2026-01-06T15:15:09Z"},{"lat":50.6834417,"lon":4.3702468,"tags":{"atm":"no","name":"Fintro","brand":"Fintro","amenity":"bank","brand:wikidata":"Q2457280"},"type":"node","user":{"id":20124809,"name":"bxl-forever_repair"},"osm_id":13295397992,"timestamp":"2025-11-10T21:07:03Z"},{"lat":50.6834509,"lon":4.4008201,"tags":{"atm":"no","name":"Banque Van Breda","brand":"Van Breda","branch":"Braine-l'Alleud","amenity":"bank","name:fr":"Banque Van Breda","name:nl":"Bank Van Breda","description":"Banque destinée aux entrepreneurs et aux professions libérales (indépendants).","contact:email":"brainelalleud@banquevanbreda.be","contact:phone":"+32 2 384 62 15","drive_through":"no","contact:website":"https://www.banquevanbreda.be/agences/braine-l-alleud","addr:housenumber":"68"},"type":"node","user":{"id":22278927,"name":"tansu_bla"},"osm_id":13322281331,"timestamp":"2025-11-21T16:24:49Z"},{"lat":50.6420198,"lon":4.3636112,"tags":{"atm":"yes","name":"Argenta","brand":"Argenta","branch":"Lillois-Witterzee","amenity":"bank","operator":"Maxime MICHEL BV","contact:phone":"+32 2 387 25 32","drive_through":"no","opening_hours":"Mo-We 09:00-12:30,13:30-17:00; Th 09:00-12:30,13:30-18:00; Fr 09:00-12:30,13:30-16:00; Sa-Su off","brand:wikidata":"Q932856","contact:website":"https://www.argenta.be/fr/agences/maxime-michel-bv-3740.html"},"type":"node","user":{"id":22278927,"name":"tansu_bla"},"osm_id":13326268639,"timestamp":"2025-11-23T14:50:52Z"}],"history":[{"date":"2026-01-07T23:00:00.000Z","count":null},{"date":"2026-01-08T23:00:00.000Z","count":10},{"date":"2026-01-09T23:00:00.000Z","count":10},{"date":"2026-01-10T23:00:00.000Z","count":10},{"date":"2026-01-11T23:00:00.000Z","count":10},{"date":"2026-01-12T23:00:00.000Z","count":null},{"date":"2026-01-13T23:00:00.000Z","count":null},{"date":"2026-01-14T23:00:00.000Z","count":10},{"date":"2026-01-15T23:00:00.000Z","count":null},{"date":"2026-01-16T23:00:00.000Z","count":10},{"date":"2026-01-17T23:00:00.000Z","count":10},{"date":"2026-01-18T23:00:00.000Z","count":10},{"date":"2026-01-19T23:00:00.000Z","count":10},{"date":"2026-01-20T23:00:00.000Z","count":10},{"date":"2026-01-21T23:00:00.000Z","count":10},{"date":"2026-01-22T23:00:00.000Z","count":10},{"date":"2026-01-23T23:00:00.000Z","count":10},{"date":"2026-01-24T23:00:00.000Z","count":10},{"date":"2026-01-25T23:00:00.000Z","count":10},{"date":"2026-01-26T23:00:00.000Z","count":10},{"date":"2026-01-27T23:00:00.000Z","count":10},{"date":"2026-01-28T23:00:00.000Z","count":10},{"date":"2026-01-29T23:00:00.000Z","count":10},{"date":"2026-01-30T23:00:00.000Z","count":10},{"date":"2026-01-31T23:00:00.000Z","count":10},{"date":"2026-02-01T23:00:00.000Z","count":10},{"date":"2026-02-02T23:00:00.000Z","count":10},{"date":"2026-02-03T23:00:00.000Z","count":10},{"date":"2026-02-04T23:00:00.000Z","count":10},{"date":"2026-02-05T23:00:00.000Z","count":10},{"date":"2026-02-06T23:00:00.000Z","count":10}],"contributors":[{"count":"7","username":"tansu_bla"},{"count":"2","username":"bxl-forever_repair"},{"count":"1","username":"wheelmap_visitor"}],"listDefinition":{"slug":"shop-bank","name":"Banque","query":"nwr[\"amenity\"=\"bank\"](area.b);","props":{"withOpening":true},"tags":"\"amenity\"=\"bank\""}},"__N_SSG":true}