{"pageProps":{"city":{"slug":"braine-lalleud","name":"Braine-l'Alleud","center":{"lat":50.683627,"lon":4.3749516},"bbox":[4.25,50.6,4.5,50.78]},"items":[{"lat":50.6853513,"lon":4.3750463,"tags":{"atm":"no","name":"Belfius","brand":"Belfius","amenity":"bank","addr:city":"Braine-l'Alleud","addr:street":"Place de la Gare","contact:fax":"+32 2 386 42 99","addr:postcode":"1420","contact:phone":"+32 2 386 42 80","drive_through":"no","brand:wikidata":"Q1956014","brand:wikipedia":"en:Belfius","contact:website":"https://www.belfius.be","internet_access":"wlan","addr:housenumber":"7"},"type":"node","user":{"id":15399,"name":"eMerzh"},"osm_id":1762549554,"timestamp":"2023-06-11T08:53:21Z"},{"lat":50.6850259,"lon":4.3737642,"tags":{"atm":"no","name":"ING","brand":"ING","branch":"Braine-l'Alleud","amenity":"bank","addr:city":"Braine-l'Alleud","addr:street":"Avenue Léon Jourez","addr:postcode":"1420","contact:email":"braine-l.alleud@ing.be","contact:phone":"+32 2 389 15 70","drive_through":"no","brand:wikidata":"Q645708","brand:wikipedia":"en:ING Group","contact:website":"https://www.ing.be","addr:housenumber":"63"},"type":"node","user":{"id":15399,"name":"eMerzh"},"osm_id":1774886763,"timestamp":"2023-06-11T08:53:21Z"},{"lat":50.6409049,"lon":4.362992,"tags":{"atm":"yes","name":"Agence de Lillois","amenity":"bank","operator":"BNP Paribas Fortis","addr:city":"Lillois-Witterzee","wheelchair":"limited","addr:street":"Grand'Route","addr:country":"BE","addr:postcode":"1428","addr:housenumber":"261"},"type":"node","user":{"id":290680,"name":"wheelmap_visitor"},"osm_id":2376950163,"timestamp":"2013-12-05T18:08:53Z"},{"lat":50.6861779,"lon":4.3750336,"tags":{"name":"CBC","brand":"CBC","branch":"Braine-l'Alleud","amenity":"bank","brand:en":"KBC","brand:nl":"KBC","addr:city":"Braine-l'Alleud","addr:street":"Avenue de la Belle Province","addr:postcode":"1420","contact:phone":"+32 2 389 15 20","brand:wikidata":"Q2931011","brand:wikipedia":"fr:CBC Banque & Assurance","contact:website":"https://www.cbc.be/","addr:housenumber":"92"},"type":"node","user":{"id":85218,"name":"Aleks-Berlin"},"osm_id":3442983022,"timestamp":"2022-06-20T12:07:08Z"},{"lat":50.6829699,"lon":4.3719334,"tags":{"atm":"yes","name":"Crelan","brand":"Crelan","phone":"+32 2 883 27 17","branch":"Braine-l'Alleud","amenity":"bank","website":"https://www.crelan.be","operator":"Twenty One Invest SRL","addr:city":"Braine l'Alleud","addr:unit":"A","addr:street":"Rue du Serment","addr:postcode":"1420","contact:email":"brainelalleud.serment@crelan.be","opening_hours":"Mo 09:00-12:30; Tu 09:00-12:30; Th 09:00-12:30,14:00-17:00; Fr 09:00-12:30","brand:wikidata":"Q389872","addr:housenumber":"2","operator:wikidata":"Q389872"},"type":"node","user":{"id":71064,"name":"PtitGNU"},"osm_id":3447126887,"timestamp":"2025-05-27T18:20:36Z"},{"lat":50.6844634,"lon":4.3724839,"tags":{"atm":"no","name":"Beobank","brand":"Beobank","branch":"Braine-l'Alleud","amenity":"bank","operator":"B Finance and Consulting SRL","addr:city":"Braine-l'Alleud","addr:street":"Avenue Léon Jourez","contact:fax":"+32 2 385 07 71","addr:postcode":"1420","contact:email":"agentbraine@beobank.be","contact:phone":"+32 2 384 92 12","opening_hours":"Mo, We, Fr 09:00-13:00, 14:00-16:30; Tu-Th 09:00-13:00, 14:00-18:00; Sa \"by appointment\"; Su off","brand:wikidata":"Q14911971","brand:wikipedia":"nl:Beobank","contact:website":"https://www.beobank.be","addr:housenumber":"30"},"type":"node","user":{"id":9641966,"name":"Sun937"},"osm_id":7552072852,"timestamp":"2020-05-23T17:33:41Z"},{"lat":50.6851754,"lon":4.3743078,"tags":{"atm":"no","name":"BNP Paribas Fortis","brand":"BNP Paribas Fortis","amenity":"bank","addr:city":"Braine-l'Alleud","wheelchair":"yes","addr:street":"Avenue Léon Jourez","contact:fax":"+32 2 565 01 02","addr:postcode":"1420","contact:email":"braine-lalleud@bnpparibasfortis.com","contact:phone":"+32 2 762 20 00","drive_through":"no","brand:wikidata":"Q796827","brand:wikipedia":"en:BNP Paribas Fortis","contact:website":"https://www.bnpparibasfortis.be","internet_access":"wlan","addr:housenumber":"73"},"type":"node","user":{"id":15399,"name":"eMerzh"},"osm_id":9527748667,"timestamp":"2023-06-11T08:53:21Z"},{"lat":50.6834417,"lon":4.3702468,"tags":{"atm":"no","name":"Fintro","brand":"Fintro","amenity":"bank","brand:wikidata":"Q2457280"},"type":"node","user":{"id":20124809,"name":"bxl-forever_repair"},"osm_id":13295397992,"timestamp":"2025-11-10T21:07:03Z"},{"lat":50.6835643,"lon":4.3702855,"tags":{"atm":"yes","name":"Crelan","brand":"Crelan","amenity":"bank","operator":"Denuit & François","contact:email":"brainelalleud@crelan.be","contact:phone":"+32 2 387 00 21","opening_hours":"Mo,Tu,Th 09:00-12:30; We 09:00-12:30,13:30-16:00; Fr 09:00-12:30,13:30-17:00","brand:wikidata":"Q389872","brand:wikipedia":"en:Crelan","contact:website":"https://www.crelan.be/"},"type":"node","user":{"id":20124809,"name":"bxl-forever_repair"},"osm_id":13295397994,"timestamp":"2025-11-10T21:07:03Z"}],"history":[{"date":"2025-10-11T22:00:00.000Z","count":9},{"date":"2025-10-12T22:00:00.000Z","count":9},{"date":"2025-10-13T22:00:00.000Z","count":9},{"date":"2025-10-14T22:00:00.000Z","count":9},{"date":"2025-10-15T22:00:00.000Z","count":9},{"date":"2025-10-16T22:00:00.000Z","count":9},{"date":"2025-10-17T22:00:00.000Z","count":9},{"date":"2025-10-18T22:00:00.000Z","count":9},{"date":"2025-10-19T22:00:00.000Z","count":9},{"date":"2025-10-20T22:00:00.000Z","count":9},{"date":"2025-10-21T22:00:00.000Z","count":9},{"date":"2025-10-22T22:00:00.000Z","count":9},{"date":"2025-10-23T22:00:00.000Z","count":9},{"date":"2025-10-24T22:00:00.000Z","count":9},{"date":"2025-10-25T22:00:00.000Z","count":9},{"date":"2025-10-26T23:00:00.000Z","count":9},{"date":"2025-10-27T23:00:00.000Z","count":9},{"date":"2025-10-28T23:00:00.000Z","count":9},{"date":"2025-10-29T23:00:00.000Z","count":9},{"date":"2025-10-30T23:00:00.000Z","count":9},{"date":"2025-10-31T23:00:00.000Z","count":9},{"date":"2025-11-01T23:00:00.000Z","count":9},{"date":"2025-11-02T23:00:00.000Z","count":9},{"date":"2025-11-03T23:00:00.000Z","count":9},{"date":"2025-11-04T23:00:00.000Z","count":9},{"date":"2025-11-05T23:00:00.000Z","count":9},{"date":"2025-11-06T23:00:00.000Z","count":9},{"date":"2025-11-07T23:00:00.000Z","count":9},{"date":"2025-11-08T23:00:00.000Z","count":9},{"date":"2025-11-09T23:00:00.000Z","count":9},{"date":"2025-11-10T23:00:00.000Z","count":9}],"contributors":[{"count":"1","username":"PtitGNU"},{"count":"2","username":"bxl-forever_repair"},{"count":"1","username":"wheelmap_visitor"},{"count":"1","username":"Sun937"},{"count":"1","username":"Aleks-Berlin"},{"count":"3","username":"eMerzh"}],"listDefinition":{"slug":"shop-bank","name":"Banque","query":"nwr[\"amenity\"=\"bank\"](area.b);","props":{"withOpening":true},"tags":"\"amenity\"=\"bank\""}},"__N_SSG":true}