{"pageProps":{"city":{"slug":"braine-lalleud","name":"Braine-l'Alleud","center":{"lat":50.683627,"lon":4.3749516},"bbox":[4.25,50.6,4.5,50.78]},"items":[{"osm_id":306291158,"type":"node","lat":50.6971129,"lon":4.3636184,"tags":{"level":"-1","name":"Bio-Planet Braine l'Alleud","organic":"only","shop":"supermarket"},"timestamp":"2021-10-05T14:28:50Z","user":{"name":"leonlapin","id":683726}},{"osm_id":6883686884,"type":"node","lat":50.6839634,"lon":4.3750821,"tags":{"addr:city":"Braine-l'Alleud","addr:housenumber":"12","addr:postcode":"1420","addr:street":"Rue des Croix de Feu","branch":"Braine-l'Alleud","brand":"Ekivrac","bulk_purchase":"yes","contact:email":"brainelalleud@ekivrac.com","name":"Ekivrac","opening_hours":"Mo 13:00-19:00; Tu-Sa 10:00-19:00; Su 10:00-13:00, PH off","organic":"only","payment:bancontact":"yes","payment:cash":"yes","payment:edenred":"yes","payment:mastercard":"yes","payment:monizze":"yes","payment:sodexo":"yes","payment:visa":"yes","phone":"+32 2 654 26 89","shop":"convenience","website":"https://www.ekivrac.com","zero_waste":"only"},"timestamp":"2023-10-29T17:38:38Z","user":{"name":"eMerzh","id":15399}},{"osm_id":7442761950,"type":"node","lat":50.6840063,"lon":4.3750781,"tags":{"addr:city":"Braine-l'Alleud","addr:housenumber":"12","addr:postcode":"1420","addr:street":"Rue des Croix de Feu","branch":"Braine-l'Alleud","brand":"Agribio","name":"Agribio","opening_hours":"Mo-Fr 07:00-19:00; Sa 08:00-19:00; Su 08:00-13:00","organic":"only","phone":"+32 2 654 26 89","shop":"bakery","website":"https://agribio.be"},"timestamp":"2023-10-29T17:38:38Z","user":{"name":"eMerzh","id":15399}},{"osm_id":8572800884,"type":"node","lat":50.685639,"lon":4.401969,"tags":{"addr:city":"Braine-l'Alleud","addr:housenumber":"7","addr:postcode":"1420","addr:street":"Avenue Victor Hugo","name":"Färm","opening_hours":"Mo-Sa 10:00-19:00; Su 10:00-20:00","operator":"Färm","organic":"only","payment:cash":"yes","payment:debit_cards":"yes","payment:maestro":"yes","phone":"+32 2 880 18 15","shop":"supermarket","website":"https://www.farm.coop/"},"timestamp":"2023-02-28T10:09:42Z","user":{"name":"cEvLGWiQ","id":5432507}},{"osm_id":9880448056,"type":"node","lat":50.6963625,"lon":4.3620827,"tags":{"addr:city":"Braine-l'Alleud","addr:housenumber":"9","addr:postcode":"1420","addr:street":"Avenue de l'Artisanat","name":"Le Relais Bio","organic":"only","phone":"+32 2 384 17 73","shop":"convenience","website":"https://www.lerelaisbio.be/"},"timestamp":"2023-02-28T10:09:32Z","user":{"name":"cEvLGWiQ","id":5432507}},{"osm_id":1020128446,"type":"way","lat":50.6865728,"lon":4.3854642,"tags":{"addr:city":"Braine-l'Alleud","addr:housenumber":"37","addr:postcode":"1420","addr:street":"Chaussée de Mont-Saint-Jean","building":"commercial","contact:facebook":"https://www.facebook.com/March%C3%A9-Saint-Jean-1767064056907440/","name":"Marché Saint-Jean","opening_hours":"We,Th,Fr 10:00-18:30; Sa 10:00-18:30; Su 10:00-14:00","organic":"only","payment:cash":"yes","payment:debit_cards":"yes","phone":"+32 473 58 10 83","shop":"convenience","source:geometry:date":"2020-12-17","source:geometry:ref":"Picc/2474258","website":"https://marchesaintjean.be/"},"timestamp":"2023-11-07T07:03:23Z","user":{"name":"eMerzh","id":15399}}],"history":[{"date":"2023-11-20T23:00:00.000Z","count":6},{"date":"2023-11-21T23:00:00.000Z","count":6},{"date":"2023-11-22T23:00:00.000Z","count":6},{"date":"2023-11-23T23:00:00.000Z","count":6},{"date":"2023-11-24T23:00:00.000Z","count":6},{"date":"2023-11-25T23:00:00.000Z","count":6},{"date":"2023-11-26T23:00:00.000Z","count":6},{"date":"2023-11-27T23:00:00.000Z","count":6},{"date":"2023-11-28T23:00:00.000Z","count":6},{"date":"2023-11-29T23:00:00.000Z","count":6},{"date":"2023-11-30T23:00:00.000Z","count":6},{"date":"2023-12-01T23:00:00.000Z","count":6},{"date":"2023-12-02T23:00:00.000Z","count":6},{"date":"2023-12-03T23:00:00.000Z","count":6},{"date":"2023-12-04T23:00:00.000Z","count":6},{"date":"2023-12-05T23:00:00.000Z","count":6},{"date":"2023-12-06T23:00:00.000Z","count":6},{"date":"2023-12-07T23:00:00.000Z","count":6},{"date":"2023-12-08T23:00:00.000Z","count":6},{"date":"2023-12-09T23:00:00.000Z","count":6},{"date":"2023-12-10T23:00:00.000Z","count":6},{"date":"2023-12-11T23:00:00.000Z","count":6},{"date":"2023-12-12T23:00:00.000Z","count":6},{"date":"2023-12-13T23:00:00.000Z","count":6},{"date":"2023-12-14T23:00:00.000Z","count":6},{"date":"2023-12-15T23:00:00.000Z","count":6},{"date":"2023-12-16T23:00:00.000Z","count":6},{"date":"2023-12-17T23:00:00.000Z","count":6},{"date":"2023-12-18T23:00:00.000Z","count":6},{"date":"2023-12-19T23:00:00.000Z","count":6},{"date":"2023-12-20T23:00:00.000Z","count":6}],"contributors":[{"count":"2","username":"cEvLGWiQ"},{"count":"3","username":"eMerzh"},{"count":"1","username":"leonlapin"}],"listDefinition":{"slug":"shop-bio","name":"Magasin Bio","query":"nwr[\"shop\"][\"organic\"=\"only\"](area.b);","props":{"withOpening":true},"tags":"\"shop\"=* avec \"organic\"=\"only\""}},"__N_SSG":true}