{"pageProps":{"city":{"slug":"braine-lalleud","name":"Braine-l'Alleud","center":{"lat":50.683627,"lon":4.3749516},"bbox":[4.25,50.6,4.5,50.78]},"items":[{"lat":50.6971129,"lon":4.3636184,"tags":{"name":"Bio-Planet","shop":"supermarket","brand":"Bio-Planet","level":"-1","phone":"+32 2 384 47 71","branch":"Braine l'Alleud","organic":"only","website":"https://www.bioplanet.be/fr/magasins/bioplanet-braine-lalleud","wheelchair":"yes","addr:street":"Chaussée d'Alsemberg","opening_hours":"Mo-Th,Sa 09:00-19:30; Fr 09:00-20:00","brand:wikidata":"Q122415968","addr:housenumber":"437"},"type":"node","user":{"id":19397909,"name":"ValidDistress"},"osm_id":306291158,"timestamp":"2024-11-01T14:08:07Z"},{"lat":50.6856643,"lon":4.4019353,"tags":{"name":"Färm","shop":"supermarket","brand":"Färm","branch":"Mont-Saint-Jean","organic":"only","operator":"Färm","addr:street":"Avenue Victor Hugo","payment:cash":"yes","contact:email":"contact.montsaintjean@farmstore.be","contact:phone":"+32 2 880 18 15","opening_hours":"Mo-Sa 07:30-19:00; Su 07:30-18:30","contact:website":"https://stores.farm.coop/fr/farm-mont-saint-jean","payment:maestro":"yes","addr:housenumber":"7","contact:facebook":"https://www.facebook.com/farm.montsaintjean","payment:debit_cards":"yes"},"type":"node","user":{"id":20124809,"name":"bxl-forever_repair"},"osm_id":8572800884,"timestamp":"2025-12-10T16:19:28Z"},{"lat":50.7059084,"lon":4.3583309,"tags":{"name":"Louis Delhaize","shop":"supermarket","phone":"+32 2 237 09 70"},"type":"node","user":{"id":20124809,"name":"bxl-forever_repair"},"osm_id":9985832242,"timestamp":"2024-09-09T10:37:25Z"},{"lat":50.698589,"lon":4.3618071,"tags":{"name":"Delhaize","shop":"supermarket","brand":"Delhaize","wheelchair":"yes","addr:street":"Rue de la Graignette","contact:phone":"+32 2 387 43 75","opening_hours":"Mo-Th 08:00-20:00; Fr 08:00-21:00; Sa 08:00-20:00","brand:wikidata":"Q1184173","contact:website":"https://stores.delhaize.be/fr/delhaize-braine-lalleud","addr:housenumber":"5"},"type":"node","user":{"id":20124809,"name":"bxl-forever_repair"},"osm_id":10202593596,"timestamp":"2025-12-10T16:19:28Z"},{"lat":50.6945322,"lon":4.3659618,"tags":{"name":"Colruyt","shop":"supermarket","brand":"Colruyt","level":"1","operator":"Colruyt Group","wheelchair":"yes","contact:phone":"+32 2 387 21 43","opening_hours":"Mo-Th 08:30-20:00; Fr 08:30-21:00; Sa 08:30-20:00","brand:wikidata":"Q2363991","contact:website":"https://www.colruyt.be/fr/recherche-de-magasin/colruyt-braine-lalleud"},"type":"node","user":{"id":22278927,"name":"tansu_bla"},"osm_id":10202642724,"timestamp":"2025-12-15T22:06:43Z"},{"lat":50.6834212,"lon":4.3720099,"tags":{"name":"ALDI","shop":"supermarket","brand":"ALDI","wheelchair":"yes","addr:street":"Rue du Serment","opening_hours":"Mo-Sa 08:30-19:00","brand:wikidata":"Q41171373","contact:website":"https://www.aldi.be/fr/informations/magasins.html/l/braine-l-alleud","addr:housenumber":"10"},"type":"node","user":{"id":20124809,"name":"bxl-forever_repair"},"osm_id":12366125087,"timestamp":"2025-11-10T21:07:03Z"},{"lat":50.6876825,"lon":4.3717233,"tags":{"name":"Lidl","shop":"supermarket","brand":"Lidl","building":"retail","addr:street":"Avenue de la Belle Province","brand:wikidata":"Q151954","brand:wikipedia":"en:Lidl","contact:website":"https://www.lidl.be/","addr:housenumber":"20","source:geometry:ref":"Picc/1911433","source:geometry:date":"2016-08-16"},"type":"way","user":{"id":20124809,"name":"bxl-forever_repair"},"osm_id":26784537,"timestamp":"2025-12-10T16:19:28Z"},{"lat":50.6870052,"lon":4.3744761,"tags":{"name":"Spar","shop":"supermarket","brand":"Spar","branch":"Braine-l'Alleud","building":"retail","addr:street":"Avenue de la Belle Province","contact:email":"info@sparbrainelalleud.be","contact:phone":"+32 2 616 70 08","opening_hours":"Mo-Th,Sa 08:30-20:00; Fr 08:30-21:00; Su 08:00-13:00","brand:wikidata":"Q610492","contact:website":"https://www.monspar.be/magasins/spar-braine-lalleud","addr:housenumber":"73","operator:wikidata":"Q1111963","source:geometry:ref":"Picc/1366260","source:geometry:date":"2016-08-16"},"type":"way","user":{"id":22278927,"name":"tansu_bla"},"osm_id":28090848,"timestamp":"2025-12-08T14:50:32Z"},{"lat":50.6788559,"lon":4.3841445,"tags":{"name":"Intermarché","shop":"supermarket","brand":"Intermarché","branch":"Braine-l'Alleud","building":"yes","operator":"Mestdagh","addr:street":"Place Saint-Sébastien","contact:phone":"+32 2 384 09 28","opening_hours":"Mo-Sa 08:00-20:00; Su 08:30-18:00; PH 08:30-18:00","brand:wikidata":"Q3153200","contact:website":"https://www.intermarche.be/magasins/intermarche-braine-lalleud/","addr:housenumber":"15","contact:facebook":"https://www.facebook.com/IntermarcheBraineLAlleud","source:geometry:ref":"Picc/325056","source:geometry:date":"2016-08-16"},"type":"way","user":{"id":22278927,"name":"tansu_bla"},"osm_id":29314887,"timestamp":"2026-01-05T18:42:24Z"},{"lat":50.683843,"lon":4.3697181,"tags":{"name":"Carrefour Market","shop":"supermarket","brand":"Carrefour Market","addr:street":"Place du Môle","opening_hours":"Mo 13:00-19:30; Tu-Sa 08:00-19:30; Su 08:00-13:00","brand:wikidata":"Q2689639","brand:wikipedia":"fr:Carrefour Market","addr:housenumber":"25"},"type":"way","user":{"id":20124809,"name":"bxl-forever_repair"},"osm_id":164645473,"timestamp":"2025-11-10T21:07:03Z"},{"lat":50.6388738,"lon":4.3606058,"tags":{"name":"Proxy Delhaize Lillois","shop":"supermarket","building":"yes","operator":"Delhaize","addr:city":"Lillois-Witterzée","addr:street":"Grand'Route","addr:postcode":"1428","addr:housenumber":"350","source:geometry:ref":"Picc/601829","source:geometry:date":"2022-06-22"},"type":"way","user":{"id":15399,"name":"eMerzh"},"osm_id":579027666,"timestamp":"2023-10-19T06:30:34Z"},{"lat":50.6860187,"lon":4.4010832,"tags":{"name":"Delhaize","shop":"supermarket","brand":"Delhaize","building":"commercial","addr:street":"Avenue Victor Hugo","roof:levels":"0","payment:cash":"yes","opening_hours":"Mo-Su 08:30-20:00","brand:wikidata":"Q1184173","brand:wikipedia":"fr:Delhaize","building:levels":"2","payment:maestro":"yes","addr:housenumber":"3","source:geometry:ref":"Picc/1521164","source:geometry:date":"2021-04-22"},"type":"way","user":{"id":20124809,"name":"bxl-forever_repair"},"osm_id":711641928,"timestamp":"2025-12-10T16:19:28Z"}],"history":[{"date":"2025-12-09T23:00:00.000Z","count":12},{"date":"2025-12-10T23:00:00.000Z","count":12},{"date":"2025-12-11T23:00:00.000Z","count":12},{"date":"2025-12-12T23:00:00.000Z","count":12},{"date":"2025-12-13T23:00:00.000Z","count":12},{"date":"2025-12-14T23:00:00.000Z","count":12},{"date":"2025-12-15T23:00:00.000Z","count":12},{"date":"2025-12-16T23:00:00.000Z","count":12},{"date":"2025-12-17T23:00:00.000Z","count":null},{"date":"2025-12-18T23:00:00.000Z","count":12},{"date":"2025-12-19T23:00:00.000Z","count":12},{"date":"2025-12-20T23:00:00.000Z","count":null},{"date":"2025-12-21T23:00:00.000Z","count":12},{"date":"2025-12-22T23:00:00.000Z","count":null},{"date":"2025-12-23T23:00:00.000Z","count":12},{"date":"2025-12-24T23:00:00.000Z","count":12},{"date":"2025-12-25T23:00:00.000Z","count":12},{"date":"2025-12-26T23:00:00.000Z","count":null},{"date":"2025-12-27T23:00:00.000Z","count":12},{"date":"2025-12-28T23:00:00.000Z","count":12},{"date":"2025-12-29T23:00:00.000Z","count":12},{"date":"2025-12-30T23:00:00.000Z","count":12},{"date":"2025-12-31T23:00:00.000Z","count":12},{"date":"2026-01-01T23:00:00.000Z","count":12},{"date":"2026-01-02T23:00:00.000Z","count":null},{"date":"2026-01-03T23:00:00.000Z","count":12},{"date":"2026-01-04T23:00:00.000Z","count":12},{"date":"2026-01-05T23:00:00.000Z","count":null},{"date":"2026-01-06T23:00:00.000Z","count":null},{"date":"2026-01-07T23:00:00.000Z","count":null},{"date":"2026-01-08T23:00:00.000Z","count":12}],"contributors":[{"count":"3","username":"tansu_bla"},{"count":"7","username":"bxl-forever_repair"},{"count":"1","username":"ValidDistress"},{"count":"1","username":"eMerzh"}],"listDefinition":{"slug":"shop-supermarket","name":"Supermarché","query":"nwr[\"shop\"=\"supermarket\"](area.b);","props":{"withOpening":true},"tags":"\"shop\"=\"supermarket\""}},"__N_SSG":true}