{"pageProps":{"city":{"slug":"braine-lalleud","name":"Braine-l'Alleud","center":{"lat":50.683627,"lon":4.3749516},"bbox":[4.25,50.6,4.5,50.78]},"items":[{"lat":50.698367,"lon":4.3626722,"tags":{"name":"Zen","phone":"+32 2 387 38 88","amenity":"restaurant","cuisine":"asian","addr:city":"Braine-l'Alleud","addr:street":"Chaussée d'Alsemberg","addr:country":"BE","addr:postcode":"1420","addr:housenumber":"499"},"type":"node","user":{"id":683726,"name":"leonlapin"},"osm_id":346595729,"timestamp":"2021-10-06T17:23:21Z"},{"lat":50.6869004,"lon":4.4049675,"tags":{"name":"Wood Wayne","phone":"+32 2 387 54 35","amenity":"restaurant","cuisine":"french;burger;grill","smoking":"no","website":"https://woodwayne.be","addr:city":"Braine l'Alleud","wheelchair":"no","addr:street":"Chaussée de Nivelles","addr:postcode":"1420","internet_access":"no","addr:housenumber":"29"},"type":"node","user":{"id":15399,"name":"eMerzh"},"osm_id":1222412857,"timestamp":"2023-11-05T13:14:10Z"},{"lat":50.6851516,"lon":4.3768722,"tags":{"name":"Le Dragon Royal","phone":"+32 2 385 12 88","amenity":"restaurant","cuisine":"chinese","smoking":"no","website":"http://www.dragonroyal-resto.be/","delivery":"no","takeaway":"yes","addr:city":"Braine-l'Alleud","wheelchair":"yes","addr:street":"Avenue Albert 1er","payment:cash":"yes","payment:visa":"yes","addr:postcode":"1420","contact:email":"dragon.king_resto@hotmail.be","opening_hours":"Mo-Fr 12:00-14:30, 18:00-23:00; Sa-Su 12:00-14:30, 18:00-24:00; Tu off; PH Tu 12:00-14:30, 18:00-24:00","outdoor_seating":"no","addr:housenumber":"5","air_conditioning":"yes","contact:facebook":"https://www.facebook.com/pg/DragonRoyalBla","payment:mastercard":"yes"},"type":"node","user":{"id":290680,"name":"wheelmap_visitor"},"osm_id":1306996467,"timestamp":"2020-09-14T09:57:48Z"},{"lat":50.6854622,"lon":4.3752298,"tags":{"name":"Poivre noir","phone":"+32 2 385 14 12","amenity":"restaurant","cuisine":"french","smoking":"no","website":"https://www.poivrenoir.be","addr:city":"Braine-l'Alleud","addr:street":"Place de la Gare","addr:postcode":"1420","contact:email":"info@poivrenoir.be","opening_hours":"We, Su, PH off; Mo 12:00-14:00; Tu,Th,Fr, Sa 12:00-14:00, 19:00-21:00","outdoor_seating":"patio","addr:housenumber":"9"},"type":"node","user":{"id":5432507,"name":"cEvLGWiQ"},"osm_id":1774857936,"timestamp":"2023-08-27T09:14:04Z"},{"lat":50.6306264,"lon":4.3539209,"tags":{"name":"Tichoux, Georges et Louis","phone":"+32 67 21 65 33","amenity":"restaurant","cuisine":"french","addr:city":"Lillois-Witterzee","addr:street":"Grand'Route","addr:country":"BE","addr:postcode":"1428","addr:housenumber":"491"},"type":"node","user":{"id":8647449,"name":"RouletteBE"},"osm_id":1904541688,"timestamp":"2019-01-04T21:47:37Z"},{"lat":50.6968233,"lon":4.3650077,"tags":{"name":"Le 421","amenity":"restaurant","cuisine":"french","website":"https://www.le421.be/","addr:city":"Braine-l'Alleud","addr:street":"Chaussée d'Alsemberg","addr:postcode":"1420","opening_hours":"Mo off; Tu-We,Th,Fr,Sa 10:30-23:00; Su 10:30-18:00","addr:housenumber":"421"},"type":"node","user":{"id":15541433,"name":"paulbrunner"},"osm_id":2306365745,"timestamp":"2023-12-01T20:04:07Z"},{"lat":50.6679478,"lon":4.3529219,"tags":{"fax":"+32 2 387 10 18","name":"La Ferme du Moulin à Eau","email":"info@lafermedumoulinaeau.be","phone":"+32 2 387 02 12","amenity":"restaurant","website":"http://www.lafermedumoulinaeau.be","addr:city":"Ophain-Bois-Seigneur-Isaac","addr:street":"Rue du Moulin à Eau","addr:country":"BE","addr:postcode":"1421","addr:housename":"La Ferme du Moulin à Eau","addr:housenumber":"3"},"type":"node","user":{"id":1355339,"name":"Flupke1400"},"osm_id":2463811867,"timestamp":"2013-12-30T16:57:41Z"},{"lat":50.6856291,"lon":4.3753991,"tags":{"name":"Saigon Bistro","phone":"+32 2 387 37 87","amenity":"restaurant","cuisine":"vietnamese","smoking":"no","website":"https://saigonbistro.be/","takeaway":"yes","addr:city":"Braine-l'Alleud","wheelchair":"no","addr:street":"Place de la Gare","addr:country":"BE","payment:visa":"yes","addr:postcode":"1420","opening_hours":"Su-Mo off; Tu-Fr 11:45-14:00, 17:30-22:00; Sa 17:30-22:00","internet_access":"yes","addr:housenumber":"12","air_conditioning":"yes","payment:bancontact":"yes","payment:mastercard":"yes"},"type":"node","user":{"id":683726,"name":"leonlapin"},"osm_id":2689903471,"timestamp":"2022-02-22T17:04:46Z"},{"lat":50.6839138,"lon":4.4020033,"tags":{"name":"La Chine Impériale","phone":"+32 2 384 05 20","amenity":"restaurant","cuisine":"chinese","addr:city":"Braine l'Alleud","addr:street":"Chaussée de Nivelles","addr:country":"BE","addr:postcode":"1420","addr:housenumber":"87"},"type":"node","user":{"id":92837,"name":"OlivierCO"},"osm_id":2727519029,"timestamp":"2014-03-19T20:03:00Z"},{"lat":50.6979008,"lon":4.3588402,"tags":{"name":"Le monde est petit","phone":"+32 2 384 40 29","amenity":"restaurant","cuisine":"chinese;european","website":"https://lmep65.be/","addr:city":"Braine-l'Alleud","addr:street":"Chaussée de Tubize","addr:country":"BE","microbrewery":"yes","addr:postcode":"1420","opening_hours":"Mo-Fr 12:00-14:00, 18:00-22:00","addr:housename":"Le monde est petit","addr:housenumber":"65"},"type":"node","user":{"id":683726,"name":"leonlapin"},"osm_id":3020376199,"timestamp":"2024-01-05T08:03:41Z"},{"lat":50.6860671,"lon":4.3841151,"tags":{"name":"La Pause","phone":"+32 2 385 02 39","amenity":"restaurant","cuisine":"sandwich","smoking":"no","website":"https://www.lapause.be/","delivery":"yes","takeaway":"yes","addr:city":"Braine-l'Alleud","addr:street":"Chaussée de Mont-Saint-Jean","addr:postcode":"1420","opening_hours":"Mo-Fr 07:45-15:00","addr:housenumber":"11"},"type":"node","user":{"id":9451067,"name":"b-jazz-bot"},"osm_id":3822452851,"timestamp":"2019-03-28T00:55:39Z"},{"lat":50.6662718,"lon":4.3821286,"tags":{"name":"Les Terrasses de l'Alliance","access":"private","amenity":"restaurant"},"type":"node","user":{"id":1545711,"name":"metatech"},"osm_id":3967711792,"timestamp":"2016-01-26T08:49:14Z"},{"lat":50.6856315,"lon":4.3793515,"tags":{"name":"Maïnoï","craft":"caterer","email":"info@mainoi.be","amenity":"restaurant","cuisine":"thai","website":"https://www.mainoi.be","delivery":"yes","takeaway":"yes","addr:city":"Braine-l'Alleud","addr:street":"Chaussée Reine Astrid","payment:cash":"yes","payment:visa":"yes","phone:mobile":"+32 484 39 80 01","addr:postcode":"1420","opening_hours":"Mo off; Tu-Th, Su 12:00-14:00, 18:00-21:00; Fr 12:00-14:00, 18:00-22:00; Sa 18:00-22:00","outdoor_seating":"terrace","addr:housenumber":"34","contact:facebook":"https://www.facebook.com/pg/Maïnoï-114071650138450","payment:mastercard":"yes","payment:debit_cards":"yes"},"type":"node","user":{"id":15399,"name":"eMerzh"},"osm_id":4100852790,"timestamp":"2020-10-12T20:15:27Z"},{"lat":50.6860493,"lon":4.3840488,"tags":{"name":"Le Méditerannéen","phone":"+32 2 385 12 64","amenity":"restaurant","cuisine":"mediterranean","website":"https://www.lemediterraneen.be/","addr:street":"Chaussée de Mont-Saint-Jean","opening_hours":"Mo-Th 18:00-22:00; Fr-Sa 18:00-22:30; Su 12:00-14:00, 18:00-22:00","addr:housenumber":"11"},"type":"node","user":{"id":9451067,"name":"b-jazz-bot"},"osm_id":4100860092,"timestamp":"2019-03-21T03:26:10Z"},{"lat":50.68514,"lon":4.3679209,"tags":{"name":"Tasty","amenity":"restaurant","website":"https://www.tasty.pro/","opening_hours":"Mo-Fr 07:00-19:00; Sa 08:00-18:00; Su,PH 09:30-18:00"},"type":"node","user":{"id":9451067,"name":"b-jazz-bot"},"osm_id":4108448676,"timestamp":"2019-03-28T00:47:22Z"},{"lat":50.6683433,"lon":4.378586,"tags":{"name":"Le Copyright","email":"info@kinecopy.com","phone":"+32 2 385 26 29","amenity":"restaurant","cuisine":"asian;thai","website":"https://www.kinecopy.com","addr:city":"Braine-l'Alleud","wheelchair":"yes","addr:street":"Boulevard de France","addr:postcode":"1420","opening_hours":"Mo-Th 17:00-22:00; Fr-Sa 13:00-25:00; Su 13:00-22:00","diet:vegetarian":"yes","addr:housenumber":"1B","toilets:wheelchair":"yes"},"type":"node","user":{"id":71064,"name":"PtitGNU"},"osm_id":4494813649,"timestamp":"2022-10-06T11:24:24Z"},{"lat":50.6444977,"lon":4.3658994,"tags":{"name":"Croc & Go","phone":"+32 2 384 31 41","amenity":"restaurant","cuisine":"sandwich","website":"https://www.crocandgo.be"},"type":"node","user":{"id":5432507,"name":"cEvLGWiQ"},"osm_id":5548148189,"timestamp":"2023-08-27T09:13:42Z"},{"lat":50.6828424,"lon":4.3791866,"tags":{"name":"WAW MOMO","amenity":"restaurant","cuisine":"sandwich;indian;thai","takeaway":"yes","addr:city":"Braine-l'Alleud","addr:street":"Avenue Raymond Brassinne","description":"Sandwicherie - Petite restauration","addr:postcode":"1420","contact:phone":"+32 2 203 43 00","opening_hours":"Mo-Th 10:00-15:00, 17:00-20:00; Fr 10:00-15:00, 17:00-21:00; Sa 17:00-21:00; Su 17:00-20:00","addr:housenumber":"18","contact:facebook":"https://www.facebook.com/pg/WAW-MOMO-Braine-LAlleud-105182914650605/"},"type":"node","user":{"id":9641966,"name":"Sun937"},"osm_id":6071739731,"timestamp":"2020-11-10T15:40:45Z"},{"lat":50.6961827,"lon":4.3650366,"tags":{"name":"Soho","phone":"+32 2 384 93 98","amenity":"restaurant","cuisine":"chinese","website":"https://www.soho7.be/","addr:street":"Chaussée d'Alsemberg","addr:housenumber":"421","contact:facebook":"https://www.facebook.com/RestaurantSOHO7/"},"type":"node","user":{"id":19397909,"name":"ValidDistress"},"osm_id":6102947663,"timestamp":"2023-11-14T22:47:34Z"},{"lat":50.6894131,"lon":4.3628543,"tags":{"name":"Wotaland","amenity":"restaurant","cuisine":"pizza"},"type":"node","user":{"id":683726,"name":"leonlapin"},"osm_id":6376317001,"timestamp":"2019-08-10T12:12:49Z"},{"lat":50.6843447,"lon":4.375129,"tags":{"name":"Le Cèdre","phone":"+32 2 384 73 75","amenity":"restaurant","cuisine":"lebanese","takeaway":"yes","opening_hours":"Tu-Su 12:00-15:00, 18:00-22:00; Mo off","diet:vegetarian":"yes","contact:facebook":"https://www.facebook.com/profile.php?id=100063608291199"},"type":"node","user":{"id":67832,"name":"joost schouppe"},"osm_id":6683202617,"timestamp":"2023-03-06T16:13:22Z"},{"lat":50.6842167,"lon":4.3707239,"tags":{"name":"Annyeong","amenity":"restaurant","cuisine":"korean","delivery":"yes","takeaway":"yes","addr:city":"Braine-l'Alleud","addr:street":"Place du Môle","phone:mobile":"+32 468 42 31 91","addr:postcode":"1420","opening_hours":"Mo off; Tu-Su 12:00-15:00, 18:00-22:00","addr:housenumber":"13","contact:facebook":"https://www.facebook.com/pg/annyeongbla"},"type":"node","user":{"id":9641966,"name":"Sun937"},"osm_id":7485812980,"timestamp":"2020-05-05T14:01:14Z"},{"lat":50.6840138,"lon":4.3711449,"tags":{"name":"Fromton","phone":"+32 2 387 52 00","amenity":"restaurant","cuisine":"regional","website":"https://www.fromton.be/","takeaway":"yes","addr:city":"Braine-l'Alleud","addr:street":"Place du Môle","description":"Restaurant, traiteur et tea-room.","addr:postcode":"1420","opening_hours":"Su-Mo off; Tu-We 10:00-18:30; Th-Sa 10:00-21:30","addr:housenumber":"12","contact:facebook":"https://www.facebook.com/pg/monsieurpatate.be"},"type":"node","user":{"id":15399,"name":"eMerzh"},"osm_id":7486389891,"timestamp":"2020-06-28T21:23:18Z"},{"lat":50.6846438,"lon":4.3709986,"tags":{"name":"Ouzerie - La Mezzerie","phone":"+32 2 384 99 90","amenity":"restaurant","cuisine":"greek;mediterranean","website":"https://www.lamezzerie.be","addr:city":"Braine-l'Alleud","addr:street":"Place Cardinal Mercier","addr:postcode":"1420","contact:email":"lamezzerie@gmail.be","opening_hours":"Fr-Sa 12:00-14:00, 19:00-21:30","addr:housenumber":"2","contact:facebook":"https://www.facebook.com/pg/Ouzerie-La-Mezzerie-164810773596987"},"type":"node","user":{"id":5432507,"name":"cEvLGWiQ"},"osm_id":7499181315,"timestamp":"2023-08-27T09:14:36Z"},{"lat":50.6841442,"lon":4.3714256,"tags":{"name":"Thaï Select","craft":"caterer","phone":"+32 2 384 16 78","amenity":"restaurant","cuisine":"thai","website":"https://thai-select.business.site","takeaway":"yes","addr:city":"Braine-l'Alleud","addr:street":"Avenue Léon Jourez","addr:postcode":"1420","opening_hours":"Tu-Fr 11:30-15:00,17:30-21:00; Sa 17:30-21:00; Su-Mo,PH off","addr:housenumber":"4","contact:facebook":"https://www.facebook.com/pg/ThaiSelect4u"},"type":"node","user":{"id":15541433,"name":"paulbrunner"},"osm_id":7501798454,"timestamp":"2023-05-06T08:12:28Z"},{"lat":50.6836137,"lon":4.3707973,"tags":{"name":"Restaurant Sylvain","craft":"caterer","amenity":"restaurant","cuisine":"french;belgian","website":"https://restaurantsylvain.eatbu.com","delivery":"yes","takeaway":"yes","addr:city":"Braine-l'Alleud","addr:unit":"A","addr:street":"Rue des Fossés","payment:cash":"yes","payment:visa":"yes","phone:mobile":"+32 478 67 56 70","addr:postcode":"1420","contact:email":"traiteursylvain@gmail.com","opening_hours":"Su-Fr 11:30-14:00; Sa off","addr:housenumber":"11","payment:mastercard":"yes","payment:contactless":"yes","payment:debit_cards":"yes"},"type":"node","user":{"id":12169583,"name":"davidfaure_bot"},"osm_id":7503738496,"timestamp":"2021-01-16T15:51:44Z"},{"lat":50.6844073,"lon":4.3715884,"tags":{"name":"Le Pavot","phone":"+32 2 384 99 82","amenity":"restaurant","cuisine":"french;polish","website":"https://www.lepavot.be","addr:city":"Braine-l'Alleud","addr:street":"Avenue Léon Jourez","reservation":"required","phone:mobile":"+32 497 14 19 30","addr:postcode":"1420","contact:email":"restaurant.lepavot@hotmail.com","opening_hours":"Tu-We off; Th, Fr, Su, Mo 12:00-14:00, 19:00-21:00; Sa 19:00-21:00","addr:housenumber":"17","contact:facebook":"https://www.facebook.com/pg/www.lepavot.be"},"type":"node","user":{"id":9641966,"name":"Sun937"},"osm_id":7503738497,"timestamp":"2020-05-10T15:43:13Z"},{"lat":50.6856995,"lon":4.379754,"tags":{"name":"Taj Mahal","craft":"caterer","phone":"+32 2 852 10 47","amenity":"restaurant","cuisine":"indian","website":"https://restaurant-indien.be/","delivery":"yes","takeaway":"yes","addr:city":"Braine-l'Alleud","diet:halal":"yes","addr:street":"Chaussée Reine Astrid","description":"Restaurant et traiteur indien. Salon de thé/café avec vente de thés bios et de cafés.","addr:postcode":"1420","contact:email":"info@restaurant-indien.be","opening_hours":"Mo off; Tu, Th 12:00-21:00; We 12:00-21:30; Fr 16:00-22:00; Sa 12:00-22:00; Su 13:00-21:00","addr:housenumber":"40","contact:facebook":"https://www.facebook.com/pg/tajmahalexpress1420"},"type":"node","user":{"id":9451067,"name":"b-jazz-bot"},"osm_id":7519579626,"timestamp":"2023-11-03T03:51:41Z"},{"lat":50.6920213,"lon":4.3406311,"tags":{"amenity":"restaurant"},"type":"node","user":{"id":12288675,"name":"Korgorr"},"osm_id":9087696001,"timestamp":"2021-09-14T11:06:16Z"},{"lat":50.6981026,"lon":4.3599234,"tags":{"name":"L'Étoilé Sud","phone":"+32 2 673 99 42","amenity":"restaurant","cuisine":"sandwich","website":"https://www.traiteur-etoile.be/","takeaway":"yes","outdoor_seating":"yes"},"type":"node","user":{"id":5432507,"name":"cEvLGWiQ"},"osm_id":9148459895,"timestamp":"2023-02-28T10:09:29Z"},{"lat":50.6653896,"lon":4.3472147,"tags":{"name":"La Padella","phone":"+32 477 77 67 28","amenity":"restaurant","cuisine":"italian","takeaway":"yes"},"type":"node","user":{"id":5432507,"name":"cEvLGWiQ"},"osm_id":9337761036,"timestamp":"2023-02-28T10:09:30Z"},{"lat":50.6857336,"lon":4.3784275,"tags":{"name":"Tamishan sushi","phone":"+32 2 640 14 04","amenity":"restaurant","cuisine":"sushi;japanese","website":"https://tamishansushi.be","delivery":"yes","takeaway":"yes","addr:city":"Braine-l'Alleud","addr:street":"Chaussée Reine Astrid","addr:country":"BE","addr:postcode":"1420","contact:phone":"+32 2 640 14 04","opening_hours":"Mo 11:30-14:30,18:00-22:00, Tu off, We-Su 11:30-14:30,18:00-22:00","contact:website":"https://tamishansushi.be","addr:housenumber":"31","contact:facebook":"https://www.facebook.com/tamishansushi/"},"type":"node","user":{"id":9641966,"name":"Sun937"},"osm_id":9573474220,"timestamp":"2022-03-12T18:12:57Z"},{"lat":50.6955975,"lon":4.3412267,"tags":{"name":"Le Welly","phone":"+32 2 384 05 84","amenity":"restaurant","cuisine":"sandwich","website":"https://lewelly-express.be/","takeaway":"yes"},"type":"node","user":{"id":8647449,"name":"RouletteBE"},"osm_id":9751510064,"timestamp":"2022-07-04T13:14:02Z"},{"lat":50.6932521,"lon":4.3319785,"tags":{"name":"Toit","level":"2","phone":"+32 2 897 01 23","amenity":"restaurant","cuisine":"french","website":"https://www.toit-restaurant.be","addr:city":"Braine-l'Alleud","addr:street":"Chaussée de Tubize","addr:country":"BE","addr:postcode":"1420","addr:housenumber":"481"},"type":"node","user":{"id":5432507,"name":"cEvLGWiQ"},"osm_id":9751545152,"timestamp":"2023-08-27T09:14:20Z"},{"lat":50.713078,"lon":4.3531103,"tags":{"name":"La Fornarina","amenity":"restaurant","cuisine":"italian;pizza","website":"https://lafornarina.be","addr:city":"Braine-l'Alleud","addr:street":"Chaussée d'Alsemberg","addr:postcode":"1420","addr:housenumber":"856"},"type":"node","user":{"id":683726,"name":"leonlapin"},"osm_id":9925634033,"timestamp":"2022-08-29T11:22:09Z"},{"lat":50.6829351,"lon":4.3703126,"tags":{"name":"Sushi Oden","phone":"+32 2 385 42 63","amenity":"restaurant","cuisine":"sushi","website":"https://www.sushioden.be","delivery":"yes","takeaway":"only","addr:city":"Braine-l'Alleud","addr:street":"Rue de l'Ancien Bourg","addr:postcode":"1420","opening_hours":"Mo 11:30-14:00,17:30-21:30; We,Fr-Su 11:30-14:00,17:30-22:00; Th 11:30-13:30,17:30-22:00","addr:housenumber":"17"},"type":"node","user":{"id":683726,"name":"leonlapin"},"osm_id":10253176365,"timestamp":"2022-12-11T13:30:53Z"},{"lat":50.6824333,"lon":4.3700881,"tags":{"name":"Chez Linette","phone":"+32 2 230 33 12","amenity":"restaurant","cuisine":"soup","website":"https://www.facebook.com/chezlinettebas/"},"type":"node","user":{"id":5432507,"name":"cEvLGWiQ"},"osm_id":10253176368,"timestamp":"2023-02-28T10:09:37Z"},{"lat":50.7147146,"lon":4.3516313,"tags":{"name":"Foccacia","amenity":"restaurant","cuisine":"italian","addr:street":"Chaussée d'Alsemberg","opening_hours":"Mo-Sa 18:00-22:00; Su off","addr:housenumber":"963"},"type":"node","user":{"id":18926022,"name":"TopiBe92"},"osm_id":10805564382,"timestamp":"2023-04-13T09:23:45Z"},{"lat":50.6842489,"lon":4.3709737,"tags":{"name":"Unkai sushi","amenity":"restaurant","cuisine":"japanese"},"type":"node","user":{"id":683726,"name":"leonlapin"},"osm_id":11429301457,"timestamp":"2023-12-18T16:51:30Z"},{"lat":50.685254,"lon":4.3769409,"tags":{"name":"Pizza Hut","brand":"Pizza Hut","phone":"+32 2 385 41 41","amenity":"restaurant","cuisine":"pizza","website":"https://www.pizzahut.be/fr","addr:city":"Braine-l'Alleud","addr:street":"Chaussée Reine Astrid","addr:postcode":"1420","opening_hours":"Mo-Su 11:30-22:00","brand:wikidata":"Q191615","brand:wikipedia":"en:Pizza Hut","outdoor_seating":"no","addr:housenumber":"2","source:geometry:ref":"Picc/2539266","source:geometry:date":"2020-12-03"},"type":"node","user":{"id":683726,"name":"leonlapin"},"osm_id":11438898384,"timestamp":"2023-12-21T15:53:07Z"},{"lat":50.668743,"lon":4.3875468,"tags":{"name":"Brasserie de l'Alliance","phone":"+32 2 387 17 20","amenity":"restaurant","cuisine":"french","smoking":"no","website":"https://sites.resto.com/lalliance/info.cfm","building":"commercial","addr:city":"Braine l'Alleud","addr:street":"Avenue Alphonse Allard","addr:country":"BE","addr:postcode":"1420","addr:housenumber":"400","source:geometry:ref":"Picc/1367028","source:geometry:date":"2021-04-09"},"type":"way","user":{"id":15399,"name":"eMerzh"},"osm_id":98017053,"timestamp":"2023-11-20T08:32:18Z"},{"lat":50.660329,"lon":4.3796571,"tags":{"fax":"+32 2 384 10 42","name":"Jacques Marit","email":"info@jacquesmarit.com","phone":"+32 2 384 15 01","amenity":"restaurant","cuisine":"french","smoking":"no","website":"http://www.jacquesmarit.be","building":"yes","addr:city":"Braine l'Alleud","addr:street":"Chaussée de Nivelles","addr:country":"BE","microbrewery":"no","addr:postcode":"1420","addr:housenumber":"336","source:geometry:ref":"Picc/2384063","source:geometry:date":"2016-08-16"},"type":"way","user":{"id":15399,"name":"eMerzh"},"osm_id":101384678,"timestamp":"2023-10-20T20:10:13Z"},{"lat":50.6410404,"lon":4.3627602,"tags":{"name":"La Vache sur le Toit","email":"info@la-vache-sur-le-toit.be","phone":"+32 2 385 36 50","amenity":"restaurant","cuisine":"french","smoking":"no","website":"https://lavachesurletoit.be/","building":"house","addr:city":"Lillois-Witterzée","wheelchair":"no","addr:street":"Grand'Route","addr:country":"BE","addr:postcode":"1428","opening_hours":"Mo-Su 12:00-14:30,19:00-22:30","addr:housenumber":"262","source:geometry:ref":"Picc/2968923","source:geometry:date":"2020-08-27"},"type":"way","user":{"id":15399,"name":"eMerzh"},"osm_id":105617805,"timestamp":"2023-10-19T20:25:43Z"},{"lat":50.6821966,"lon":4.3695293,"tags":{"name":"Tra Di Noi","email":"restotradinoi@gmail.com","phone":"+32 2 385 18 94","amenity":"restaurant","cuisine":"italian","website":"https://www.restotradinoi.be","building":"house","heritage":"4","addr:city":"Braine-l'Alleud","addr:street":"Grand-Place Baudouin 1er","clt:criteria":"M","website:menu":"https://www.restotradinoi.be/la-carte/","addr:postcode":"1420","clt:exception":"no","opening_hours":"Mo-Sa 12:00-14:00,18:00-22:00","clt:restricted":"no","addr:housenumber":"13","heritage:operator":"clt","source:geometry:ref":"Picc/1313582","clt:inscription_date":"1983-08-29","source:geometry:date":"2016-08-16"},"type":"way","user":{"id":15399,"name":"eMerzh"},"osm_id":257181479,"timestamp":"2024-06-23T13:41:46Z"},{"lat":50.6813498,"lon":4.3990331,"tags":{"name":"Fuji","phone":"+32 2 387 43 67","amenity":"restaurant","cuisine":"japanese","smoking":"no","website":"https://www.restofuji.be/","building":"yes","addr:city":"Braine l'Alleud","addr:street":"Chaussée de Nivelles","addr:postcode":"1420","addr:housenumber":"100","source:geometry:ref":"Picc/1723563","source:geometry:date":"2016-08-16"},"type":"way","user":{"id":15399,"name":"eMerzh"},"osm_id":397977658,"timestamp":"2022-05-16T20:40:24Z"},{"lat":50.6832778,"lon":4.3700772,"tags":{"name":"Burla'o","amenity":"restaurant","website":"https://www.burlao.be/","building":"yes","addr:city":"Braine-l'Alleud","addr:street":"Rue du Môle","addr:postcode":"1420","opening_hours":"Mo 12:00-14:30,19:00-22:00; Tu-We off; Th 12:00-14:30,19:00-22:00; Fr-Sa 12:00-14:30,19:00-22:00; Su 12:00-14:30,19:00-22:00","building:levels":"3","addr:housenumber":"14","source:geometry:ref":"Picc/2917136","source:geometry:date":"2016-08-16"},"type":"way","user":{"id":15399,"name":"eMerzh"},"osm_id":413106742,"timestamp":"2023-11-05T13:12:15Z"},{"lat":50.682322,"lon":4.3700424,"tags":{"name":"Philippe Meyers","amenity":"restaurant","cuisine":"french","building":"house","addr:city":"Braine-l'Alleud","addr:street":"Rue Doyen Van Belle","addr:postcode":"1420","building:levels":"3","addr:housenumber":"6","source:geometry:ref":"Picc/2515789","source:geometry:date":"2020-09-07"},"type":"way","user":{"id":15399,"name":"eMerzh"},"osm_id":413115879,"timestamp":"2023-10-29T21:57:38Z"},{"lat":50.6798987,"lon":4.3671102,"tags":{"name":"Pin Toh Thai","amenity":"restaurant","cuisine":"thai","website":"https://www.pintohthai.be/","building":"house","takeaway":"yes","addr:city":"Braine-l'Alleud","addr:street":"Place du Quartier Saint-Jacques","addr:postcode":"1420","addr:housenumber":"1","source:geometry:ref":"Picc/20858","source:geometry:date":"2016-08-16"},"type":"way","user":{"id":15399,"name":"eMerzh"},"osm_id":438544716,"timestamp":"2022-10-12T15:02:54Z"},{"lat":50.6832128,"lon":4.3741215,"tags":{"name":"Lou Soleou","phone":"+32 2 385 25 35","amenity":"restaurant","cuisine":"french;pizza","organic":"yes","terrace":"yes","website":"https://lousoleou.be/","building":"house","takeaway":"yes","addr:city":"Braine-l'Alleud","fair_trade":"yes","roof:shape":"gabled","wheelchair":"no","addr:street":"Place Sainte-Anne","roof:levels":"1","website:menu":"https://www.lousoleou.be/menu-1","addr:postcode":"1420","contact:email":"info@lousoleou.be","opening_hours":"Mo-Th 12:00-14:00, 18:30-21:30; Fr 12:00-14:00, 18:30-22:30; Sa 18:30-22:30, Su off","building:levels":"2","addr:housenumber":"17","source:geometry:ref":"Picc/403085","source:geometry:date":"2016-08-16"},"type":"way","user":{"id":15399,"name":"eMerzh"},"osm_id":729003818,"timestamp":"2024-06-23T13:40:59Z"},{"lat":50.6845866,"lon":4.3751223,"tags":{"name":"Chez Rino","email":"info@chezrino.be","phone":"+32 2 384 05 26","amenity":"restaurant","cuisine":"italian","smoking":"no","website":"https://www.chezrino.be/","building":"yes","addr:city":"Braine-l'Alleud","wheelchair":"no","addr:street":"Rue des Croix de Feu","addr:country":"BE","addr:postcode":"1420","opening_hours":"Mo-Fr 08:30-20:00","outdoor_seating":"terrace","addr:housenumber":"2","source:geometry:ref":"Picc/1509221","source:geometry:date":"2016-08-16"},"type":"way","user":{"id":15399,"name":"eMerzh"},"osm_id":733085189,"timestamp":"2023-11-05T20:51:33Z"},{"lat":50.6849993,"lon":4.3751852,"tags":{"name":"Chen Xi","phone":"+32 2 384 36 88","amenity":"restaurant","cuisine":"chinese;cantonese;thai","website":"https://chenxi2012168.wixsite.com/chenxi","building":"yes","takeaway":"yes","addr:city":"Braine l'Alleud","addr:street":"Place de la Gare","addr:country":"BE","addr:postcode":"1420","opening_hours":"We-Mo 12:00 -14:30, 18:00 - 22:30; Tu 12:00 -14:30","building:levels":"2","outdoor_seating":"terrace","addr:housenumber":"4","source:geometry:ref":"Picc/3708249","source:geometry:date":"2016-08-16"},"type":"way","user":{"id":15399,"name":"eMerzh"},"osm_id":738356724,"timestamp":"2023-11-05T20:55:31Z"},{"lat":50.6849794,"lon":4.3745191,"tags":{"name":"Hau Wang","craft":"caterer","phone":"+32 2 384 41 96","amenity":"restaurant","cuisine":"chinese","smoking":"no","website":"https://www.hauwang.be/en/contact","building":"house","delivery":"yes","takeaway":"yes","addr:city":"Braine-l'Alleud","roof:shape":"gabled","wheelchair":"yes","addr:street":"Avenue Léon Jourez","roof:levels":"1","phone:mobile":"+32 488 98 51 38","addr:postcode":"1420","opening_hours":"Mo-Su 11:30-14:30, 17:30-23:00","building:levels":"3","internet_access":"yes","addr:housenumber":"72","roof:orientation":"across","source:geometry:ref":"Picc/2332198","source:geometry:date":"2016-08-16"},"type":"way","user":{"id":15399,"name":"eMerzh"},"osm_id":738356733,"timestamp":"2023-11-05T20:55:31Z"},{"lat":50.688065,"lon":4.4059779,"tags":{"name":"Pizzeria Monte San Giovanni","amenity":"restaurant","cuisine":"pizza","website":"https://www.pizzeriamontesangiovanni.be/","building":"commercial","addr:street":"Chaussée de Nivelles","contact:phone":"+32 460 95 20 25","opening_hours":"Mo 12:00-13:30; Th,Su 18:00-20:30; Fr 12:00-13:30,18:00-21:00; Sa 18:00-21:00","addr:housenumber":"13","source:geometry:ref":"Picc/1315688","source:geometry:date":"2016-08-16"},"type":"way","user":{"id":5432507,"name":"cEvLGWiQ"},"osm_id":1028672950,"timestamp":"2024-04-22T10:15:25Z"}],"history":[{"date":"2024-07-08T22:00:00.000Z","count":54},{"date":"2024-07-09T22:00:00.000Z","count":54},{"date":"2024-07-10T22:00:00.000Z","count":54},{"date":"2024-07-11T22:00:00.000Z","count":54},{"date":"2024-07-12T22:00:00.000Z","count":54},{"date":"2024-07-13T22:00:00.000Z","count":54},{"date":"2024-07-14T22:00:00.000Z","count":54},{"date":"2024-07-15T22:00:00.000Z","count":54},{"date":"2024-07-16T22:00:00.000Z","count":54},{"date":"2024-07-17T22:00:00.000Z","count":54},{"date":"2024-07-18T22:00:00.000Z","count":null},{"date":"2024-07-19T22:00:00.000Z","count":null},{"date":"2024-07-20T22:00:00.000Z","count":54},{"date":"2024-07-21T22:00:00.000Z","count":54},{"date":"2024-07-22T22:00:00.000Z","count":54},{"date":"2024-07-23T22:00:00.000Z","count":54},{"date":"2024-07-24T22:00:00.000Z","count":54},{"date":"2024-07-25T22:00:00.000Z","count":54},{"date":"2024-07-26T22:00:00.000Z","count":54},{"date":"2024-07-27T22:00:00.000Z","count":54},{"date":"2024-07-28T22:00:00.000Z","count":54},{"date":"2024-07-29T22:00:00.000Z","count":54},{"date":"2024-07-30T22:00:00.000Z","count":54},{"date":"2024-07-31T22:00:00.000Z","count":53},{"date":"2024-08-01T22:00:00.000Z","count":53},{"date":"2024-08-02T22:00:00.000Z","count":53},{"date":"2024-08-03T22:00:00.000Z","count":53},{"date":"2024-08-04T22:00:00.000Z","count":53},{"date":"2024-08-05T22:00:00.000Z","count":53},{"date":"2024-08-06T22:00:00.000Z","count":53},{"date":"2024-08-07T22:00:00.000Z","count":53}],"contributors":[{"count":"1","username":"metatech"},{"count":"8","username":"cEvLGWiQ"},{"count":"1","username":"joost schouppe"},{"count":"1","username":"wheelmap_visitor"},{"count":"1","username":"OlivierCO"},{"count":"1","username":"Korgorr"},{"count":"1","username":"davidfaure_bot"},{"count":"8","username":"leonlapin"},{"count":"1","username":"PtitGNU"},{"count":"4","username":"b-jazz-bot"},{"count":"1","username":"TopiBe92"},{"count":"15","username":"eMerzh"},{"count":"1","username":"Flupke1400"},{"count":"2","username":"RouletteBE"},{"count":"4","username":"Sun937"},{"count":"2","username":"paulbrunner"},{"count":"1","username":"ValidDistress"}],"listDefinition":{"slug":"restaurant","name":"Restaurants","component":"Restaurant","query":"nwr[\"amenity\"=\"restaurant\"](area.b);","props":{"withOpening":true},"tags":"\"amenity\"=\"restaurant\""}},"__N_SSG":true}