{"pageProps":{"city":{"slug":"braine-lalleud","name":"Braine-l'Alleud","center":{"lat":50.683627,"lon":4.3749516},"bbox":[4.25,50.6,4.5,50.78]},"items":[{"lat":50.6971129,"lon":4.3636184,"tags":{"name":"Bio-Planet","shop":"supermarket","brand":"Bio-Planet","level":"-1","phone":"+32 2 384 47 71","branch":"Braine l'Alleud","organic":"only","website":"https://www.bioplanet.be/fr/magasins/bioplanet-braine-lalleud","wheelchair":"yes","addr:street":"Chaussée d'Alsemberg","opening_hours":"Mo-Th,Sa 09:00-19:30; Fr 09:00-20:00","brand:wikidata":"Q122415968","addr:housenumber":"437"},"type":"node","user":{"id":19397909,"name":"ValidDistress"},"osm_id":306291158,"timestamp":"2024-11-01T14:08:07Z"},{"lat":50.685639,"lon":4.401969,"tags":{"name":"Färm","shop":"supermarket","phone":"+32 2 880 18 15","organic":"only","website":"https://www.farm.coop/","operator":"Färm","addr:city":"Braine-l'Alleud","addr:street":"Avenue Victor Hugo","payment:cash":"yes","addr:postcode":"1420","opening_hours":"Mo-Sa 10:00-19:00; Su 10:00-20:00","payment:maestro":"yes","addr:housenumber":"7","payment:debit_cards":"yes"},"type":"node","user":{"id":5432507,"name":"cEvLGWiQ"},"osm_id":8572800884,"timestamp":"2023-02-28T10:09:42Z"},{"lat":50.7059084,"lon":4.3583309,"tags":{"name":"Louis Delhaize","shop":"supermarket","phone":"+32 2 237 09 70"},"type":"node","user":{"id":20124809,"name":"bxl-forever_repair"},"osm_id":9985832242,"timestamp":"2024-09-09T10:37:25Z"},{"lat":50.698589,"lon":4.3618071,"tags":{"name":"Delhaize","shop":"supermarket","brand":"Delhaize","phone":"+32 2 387 43 75","website":"https://stores.delhaize.be/fr/delhaize-braine-lalleud","addr:city":"Braine-l'Alleud","wheelchair":"yes","addr:street":"Rue de la Graignette","addr:postcode":"1420","opening_hours":"Mo-Th 08:00-20:00; Fr 08:00-21:00; Sa 08:00-20:00","brand:wikidata":"Q1184173","addr:housenumber":"5"},"type":"node","user":{"id":15399,"name":"eMerzh"},"osm_id":10202593596,"timestamp":"2023-11-26T14:43:59Z"},{"lat":50.6945322,"lon":4.3659618,"tags":{"name":"Colruyt","shop":"supermarket","brand":"Colruyt","level":"1","phone":"+32 2 387 21 43","website":"https://www.colruyt.be/fr/recherche-de-magasin/colruyt-braine-lalleud","operator":"Colruyt Group","addr:city":"Braine-l'Alleud","wheelchair":"yes","addr:street":"Rue du Jardinier","addr:postcode":"1420","opening_hours":"Mo-Th 08:30-20:00; Fr 08:30-21:00; Sa 08:30-20:00","brand:wikidata":"Q2363991","addr:housenumber":"50"},"type":"node","user":{"id":71064,"name":"PtitGNU"},"osm_id":10202642724,"timestamp":"2022-11-19T21:11:14Z"},{"lat":50.6834212,"lon":4.3720099,"tags":{"name":"ALDI","shop":"supermarket","brand":"ALDI","website":"https://www.aldi.be/fr/informations/magasins.html/l/braine-l-alleud","addr:city":"Braine-l'Alleud","wheelchair":"yes","addr:street":"Rue du Serment","addr:postcode":"1420","opening_hours":"Mo-Sa 08:30-19:00","brand:wikidata":"Q41171373","addr:housenumber":"10"},"type":"node","user":{"id":71064,"name":"PtitGNU"},"osm_id":12366125087,"timestamp":"2025-05-27T18:20:36Z"},{"lat":50.6876825,"lon":4.3717233,"tags":{"name":"Lidl","shop":"supermarket","brand":"Lidl","website":"https://www.lidl.be/","building":"retail","addr:city":"Braine l'Alleud","addr:street":"Avenue de la Belle Province","addr:country":"BE","addr:postcode":"1420","addr:housename":"LIDL 102","brand:wikidata":"Q151954","brand:wikipedia":"en:Lidl","addr:housenumber":"20","source:geometry:ref":"Picc/1911433","source:geometry:date":"2016-08-16"},"type":"way","user":{"id":683726,"name":"leonlapin"},"osm_id":26784537,"timestamp":"2023-12-21T11:16:53Z"},{"lat":50.6870052,"lon":4.3744761,"tags":{"name":"Comarché","shop":"supermarket","phone":"+32 2 616 70 08","website":"https://www.comarkt.be/fr/nos-magasins/comarkt-braine-lalleud","building":"retail","addr:street":"Avenue de la Belle Province","opening_hours":"Mo-Sa 08:00-20:00; Su 08:00-13:00","addr:housenumber":"73","operator:wikidata":"Q1111963","source:geometry:ref":"Picc/1366260","source:geometry:date":"2016-08-16"},"type":"way","user":{"id":683726,"name":"leonlapin"},"osm_id":28090848,"timestamp":"2024-08-20T13:59:12Z"},{"lat":50.6788559,"lon":4.3841445,"tags":{"name":"Intermarché","shop":"supermarket","brand":"Intermarché","phone":"+32 2 384 09 28","website":"https://www.groupemestdagh.be/les-magasins/braine-l-alleud.htm?lng=","building":"yes","operator":"Mestdagh","addr:city":"Braine-l'Alleud","addr:street":"Place Saint-Sébastien","addr:postcode":"1420","opening_hours":"Mo-Fr 08:00-20:00, Sa-Su 09:00-19:00","addr:housenumber":"15","source:geometry:ref":"Picc/325056","source:geometry:date":"2016-08-16"},"type":"way","user":{"id":683726,"name":"leonlapin"},"osm_id":29314887,"timestamp":"2024-10-05T12:35:54Z"},{"lat":50.683843,"lon":4.3697181,"tags":{"name":"Carrefour Market","shop":"supermarket","brand":"Carrefour Market","addr:city":"Braine-l'Alleud","addr:street":"Place du Môle","addr:postcode":"1420","opening_hours":"Mo 13:00-19:30; Tu-Sa 08:00-19:30; Su 08:00-13:00","brand:wikidata":"Q2689639","brand:wikipedia":"fr:Carrefour Market","addr:housenumber":"25"},"type":"way","user":{"id":15399,"name":"eMerzh"},"osm_id":164645473,"timestamp":"2023-11-05T15:37:12Z"},{"lat":50.6388738,"lon":4.3606058,"tags":{"name":"Proxy Delhaize Lillois","shop":"supermarket","building":"yes","operator":"Delhaize","addr:city":"Lillois-Witterzée","addr:street":"Grand'Route","addr:postcode":"1428","addr:housenumber":"350","source:geometry:ref":"Picc/601829","source:geometry:date":"2022-06-22"},"type":"way","user":{"id":15399,"name":"eMerzh"},"osm_id":579027666,"timestamp":"2023-10-19T06:30:34Z"},{"lat":50.6860187,"lon":4.4010832,"tags":{"name":"Delhaize","shop":"supermarket","brand":"Delhaize","building":"commercial","addr:city":"Braine-l'Alleud","addr:street":"Avenue Victor Hugo","roof:levels":"0","payment:cash":"yes","addr:postcode":"1420","opening_hours":"Mo-Su 08:30-20:00","brand:wikidata":"Q1184173","brand:wikipedia":"fr:Delhaize","building:levels":"2","payment:maestro":"yes","addr:housenumber":"3","source:geometry:ref":"Picc/1521164","source:geometry:date":"2021-04-22"},"type":"way","user":{"id":15399,"name":"eMerzh"},"osm_id":711641928,"timestamp":"2024-04-20T21:06:12Z"}],"history":[{"date":"2025-07-23T22:00:00.000Z","count":12},{"date":"2025-07-24T22:00:00.000Z","count":12},{"date":"2025-07-25T22:00:00.000Z","count":12},{"date":"2025-07-26T22:00:00.000Z","count":12},{"date":"2025-07-27T22:00:00.000Z","count":12},{"date":"2025-07-28T22:00:00.000Z","count":12},{"date":"2025-07-29T22:00:00.000Z","count":12},{"date":"2025-07-30T22:00:00.000Z","count":12},{"date":"2025-07-31T22:00:00.000Z","count":12},{"date":"2025-08-01T22:00:00.000Z","count":12},{"date":"2025-08-02T22:00:00.000Z","count":12},{"date":"2025-08-03T22:00:00.000Z","count":12},{"date":"2025-08-04T22:00:00.000Z","count":12},{"date":"2025-08-05T22:00:00.000Z","count":12},{"date":"2025-08-06T22:00:00.000Z","count":12},{"date":"2025-08-07T22:00:00.000Z","count":12},{"date":"2025-08-08T22:00:00.000Z","count":12},{"date":"2025-08-09T22:00:00.000Z","count":12},{"date":"2025-08-10T22:00:00.000Z","count":12},{"date":"2025-08-11T22:00:00.000Z","count":12},{"date":"2025-08-12T22:00:00.000Z","count":12},{"date":"2025-08-13T22:00:00.000Z","count":12},{"date":"2025-08-14T22:00:00.000Z","count":12},{"date":"2025-08-15T22:00:00.000Z","count":12},{"date":"2025-08-16T22:00:00.000Z","count":12},{"date":"2025-08-17T22:00:00.000Z","count":12},{"date":"2025-08-18T22:00:00.000Z","count":12},{"date":"2025-08-19T22:00:00.000Z","count":12},{"date":"2025-08-20T22:00:00.000Z","count":12},{"date":"2025-08-21T22:00:00.000Z","count":12},{"date":"2025-08-22T22:00:00.000Z","count":12}],"contributors":[{"count":"1","username":"cEvLGWiQ"},{"count":"2","username":"PtitGNU"},{"count":"1","username":"bxl-forever_repair"},{"count":"1","username":"ValidDistress"},{"count":"3","username":"leonlapin"},{"count":"4","username":"eMerzh"}],"listDefinition":{"slug":"shop-supermarket","name":"Supermarché","query":"nwr[\"shop\"=\"supermarket\"](area.b);","props":{"withOpening":true},"tags":"\"shop\"=\"supermarket\""}},"__N_SSG":true}