{"pageProps":{"city":{"slug":"braine-lalleud","name":"Braine-l'Alleud","center":{"lat":50.683627,"lon":4.3749516},"bbox":[4.25,50.6,4.5,50.78]},"items":[{"lat":50.6971129,"lon":4.3636184,"tags":{"name":"Bio-Planet Braine l'Alleud","shop":"supermarket","level":"-1","organic":"only"},"type":"node","user":{"id":683726,"name":"leonlapin"},"osm_id":306291158,"timestamp":"2021-10-05T14:28:50Z"},{"lat":50.6839634,"lon":4.3750821,"tags":{"name":"Ekivrac","shop":"convenience","brand":"Ekivrac","phone":"+32 2 654 26 89","branch":"Braine-l'Alleud","organic":"only","website":"http://www.ekivrac.com/","addr:city":"Braine-l'Alleud","zero_waste":"only","addr:street":"Rue des Croix du Feu","payment:cash":"yes","payment:visa":"yes","addr:postcode":"1420","bulk_purchase":"yes","contact:email":"brainelalleud@ekivrac.com","opening_hours":"Mo 13:00-19:00; Ma-Sa 10:00-19:00; Su 10:00-13:00, PH off","payment:sodexo":"yes","payment:edenred":"yes","payment:monizze":"yes","addr:housenumber":"12","payment:bancontact":"yes","payment:mastercard":"yes"},"type":"node","user":{"id":9641966,"name":"Sun937"},"osm_id":6883686884,"timestamp":"2020-05-14T18:51:57Z"},{"lat":50.6840063,"lon":4.3750781,"tags":{"name":"Agribio","shop":"bakery","brand":"Agribio","phone":"+32 2 654 26 89","branch":"Braine-l'Alleud","organic":"only","website":"https://agribio.be","addr:city":"Braine-l'Alleud","addr:street":"Rue des Croix du Feu","addr:postcode":"1420","opening_hours":"Mo-Fr 07:00-19:00; Sa 08:00-19:00; Su 08:00-13:00","addr:housenumber":"12"},"type":"node","user":{"id":9641966,"name":"Sun937"},"osm_id":7442761950,"timestamp":"2020-05-14T18:51:57Z"},{"lat":50.685639,"lon":4.401969,"tags":{"name":"Färm","shop":"supermarket","phone":"+3228801815","organic":"only","website":"https://www.farm.coop/","operator":"Färm","addr:city":"Braine-l'Alleud","addr:street":"Avenue Victor Hugo","payment:cash":"yes","addr:postcode":"1420","opening_hours":"Mo-Sa 10:00-19:00; Su 10:00-20:00","payment:maestro":"yes","addr:housenumber":"7","payment:debit_cards":"yes"},"type":"node","user":{"id":15399,"name":"eMerzh"},"osm_id":8572800884,"timestamp":"2022-07-11T08:08:40Z"},{"lat":50.6963625,"lon":4.3620827,"tags":{"name":"Le Relais Bio","shop":"supermarket","phone":"+32023841773","organic":"only","website":"https://www.lerelaisbio.be/","addr:city":"Braine-l'Alleud","addr:street":"Avenue de l'Artisanat","addr:postcode":"1420","addr:housenumber":"9"},"type":"node","user":{"id":15399,"name":"eMerzh"},"osm_id":9880448056,"timestamp":"2022-07-11T08:07:39Z"}],"history":[{"date":"2022-06-11T22:00:00.000Z","count":null},{"date":"2022-06-12T22:00:00.000Z","count":null},{"date":"2022-06-13T22:00:00.000Z","count":null},{"date":"2022-06-14T22:00:00.000Z","count":null},{"date":"2022-06-15T22:00:00.000Z","count":null},{"date":"2022-06-16T22:00:00.000Z","count":null},{"date":"2022-06-17T22:00:00.000Z","count":null},{"date":"2022-06-18T22:00:00.000Z","count":null},{"date":"2022-06-19T22:00:00.000Z","count":null},{"date":"2022-06-20T22:00:00.000Z","count":null},{"date":"2022-06-21T22:00:00.000Z","count":null},{"date":"2022-06-22T22:00:00.000Z","count":null},{"date":"2022-06-23T22:00:00.000Z","count":null},{"date":"2022-06-24T22:00:00.000Z","count":null},{"date":"2022-06-25T22:00:00.000Z","count":null},{"date":"2022-06-26T22:00:00.000Z","count":null},{"date":"2022-06-27T22:00:00.000Z","count":null},{"date":"2022-06-28T22:00:00.000Z","count":null},{"date":"2022-06-29T22:00:00.000Z","count":null},{"date":"2022-06-30T22:00:00.000Z","count":null},{"date":"2022-07-01T22:00:00.000Z","count":null},{"date":"2022-07-02T22:00:00.000Z","count":null},{"date":"2022-07-03T22:00:00.000Z","count":null},{"date":"2022-07-04T22:00:00.000Z","count":null},{"date":"2022-07-05T22:00:00.000Z","count":null},{"date":"2022-07-06T22:00:00.000Z","count":null},{"date":"2022-07-07T22:00:00.000Z","count":null},{"date":"2022-07-08T22:00:00.000Z","count":null},{"date":"2022-07-09T22:00:00.000Z","count":3},{"date":"2022-07-10T22:00:00.000Z","count":5},{"date":"2022-07-11T22:00:00.000Z","count":5}],"contributors":[{"count":"2","username":"Sun937"},{"count":"2","username":"eMerzh"},{"count":"1","username":"leonlapin"}],"listDefinition":{"slug":"shop-bio","name":"Magasin Bio","query":"nwr[\"shop\"][\"organic\"=\"only\"](area.b);","props":{"withOpening":true},"tags":"\"shop\"=* avec \"organic\"=\"only\""}},"__N_SSG":true}