{"pageProps":{"city":{"slug":"braine-lalleud","name":"Braine-l'Alleud","center":{"lat":50.683627,"lon":4.3749516},"bbox":[4.25,50.6,4.5,50.78]},"items":[{"lat":50.6652377,"lon":4.3474007,"tags":{"name":"Boucherie Vincent Plasman","shop":"butcher","phone":"+32 2 387 12 32","addr:city":"Ophain-Bois-Seigneur-Isaac","addr:street":"Rue des Combattants","addr:postcode":"1421","opening_hours":"Tu-Fr 08:30-19:00, Sa 08:00-18:00, Su 08:30-13:00","addr:housenumber":"5"},"type":"node","user":{"id":683726,"name":"leonlapin"},"osm_id":1765529083,"timestamp":"2021-12-14T14:57:19Z"},{"lat":50.6857481,"lon":4.370112,"tags":{"name":"Boucherie Carrez Marchandt","shop":"butcher"},"type":"node","user":{"id":683726,"name":"leonlapin"},"osm_id":2306534873,"timestamp":"2013-05-16T16:08:20Z"},{"lat":50.6846279,"lon":4.3723065,"tags":{"name":"Boucherie Côte & Côte","shop":"butcher","phone":"+32 2 384 21 32","addr:city":"Braine-l'Alleud","addr:street":"Avenue Léon Jourez","addr:postcode":"1420","opening_hours":"Tu-Sa 09:30-19:00; Su 09:30-16:00","addr:housenumber":"35"},"type":"node","user":{"id":683726,"name":"leonlapin"},"osm_id":4100816289,"timestamp":"2022-02-22T15:23:09Z"},{"lat":50.6869727,"lon":4.3687628,"tags":{"name":"Boucherie Potvin","shop":"butcher","building":"yes"},"type":"way","user":{"id":683726,"name":"leonlapin"},"osm_id":221606984,"timestamp":"2013-05-16T13:09:31Z"},{"lat":50.6857451,"lon":4.3785012,"tags":{"name":"L'Ardennaise","shop":"butcher","level":"2","phone":"+32 2 384 23 46","building":"house","addr:city":"Braine-l'Alleud","addr:street":"Chaussée Reine Astrid","addr:postcode":"1420","addr:housenumber":"33"},"type":"way","user":{"id":9641966,"name":"Sun937"},"osm_id":762370192,"timestamp":"2020-04-30T18:54:53Z"},{"lat":50.6803575,"lon":4.3778228,"tags":{"name":"Chez Bernard","shop":"butcher","level":"2","phone":"+32 2 384 79 22","website":"http://chezbernard.be/","building":"yes","delivery":"yes","addr:city":"Braine-l'Alleud","addr:street":"Avenue Alphonse Allard","addr:postcode":"1420","opening_hours":"Su-Mo off; Tu-Fr 09:00-18:30; Sa 08:00-13:00","addr:housenumber":"66","contact:facebook":"https://www.facebook.com/votreboucherie"},"type":"way","user":{"id":9641966,"name":"Sun937"},"osm_id":791075749,"timestamp":"2020-05-09T18:32:23Z"}],"history":[{"date":"2022-06-11T22:00:00.000Z","count":null},{"date":"2022-06-12T22:00:00.000Z","count":null},{"date":"2022-06-13T22:00:00.000Z","count":null},{"date":"2022-06-14T22:00:00.000Z","count":null},{"date":"2022-06-15T22:00:00.000Z","count":null},{"date":"2022-06-16T22:00:00.000Z","count":null},{"date":"2022-06-17T22:00:00.000Z","count":null},{"date":"2022-06-18T22:00:00.000Z","count":null},{"date":"2022-06-19T22:00:00.000Z","count":null},{"date":"2022-06-20T22:00:00.000Z","count":null},{"date":"2022-06-21T22:00:00.000Z","count":null},{"date":"2022-06-22T22:00:00.000Z","count":null},{"date":"2022-06-23T22:00:00.000Z","count":null},{"date":"2022-06-24T22:00:00.000Z","count":null},{"date":"2022-06-25T22:00:00.000Z","count":null},{"date":"2022-06-26T22:00:00.000Z","count":null},{"date":"2022-06-27T22:00:00.000Z","count":null},{"date":"2022-06-28T22:00:00.000Z","count":null},{"date":"2022-06-29T22:00:00.000Z","count":null},{"date":"2022-06-30T22:00:00.000Z","count":null},{"date":"2022-07-01T22:00:00.000Z","count":null},{"date":"2022-07-02T22:00:00.000Z","count":null},{"date":"2022-07-03T22:00:00.000Z","count":null},{"date":"2022-07-04T22:00:00.000Z","count":null},{"date":"2022-07-05T22:00:00.000Z","count":null},{"date":"2022-07-06T22:00:00.000Z","count":6},{"date":"2022-07-07T22:00:00.000Z","count":6},{"date":"2022-07-08T22:00:00.000Z","count":6},{"date":"2022-07-09T22:00:00.000Z","count":6},{"date":"2022-07-10T22:00:00.000Z","count":6},{"date":"2022-07-11T22:00:00.000Z","count":6}],"contributors":[{"count":"2","username":"Sun937"},{"count":"4","username":"leonlapin"}],"listDefinition":{"slug":"shop-butcher","name":"Boucher","query":"nwr[\"shop\"=\"butcher\"](area.b);","props":{"withOpening":true},"tags":"\"shop\"=\"butcher\""}},"__N_SSG":true}