{"pageProps":{"city":{"slug":"braine-lalleud","name":"Braine-l'Alleud","center":{"lat":50.683627,"lon":4.3749516},"bbox":[4.25,50.6,4.5,50.78]},"items":[{"lat":50.6856732,"lon":4.3754323,"tags":{"name":"Lloydspharma","brand":"Lloydspharma","phone":"+32 2 384 22 77","branch":"Pl. de la Gare","amenity":"pharmacy","website":"https://www.lloydspharma.be/","addr:city":"Braine l'Alleud","dispensing":"yes","healthcare":"pharmacy","addr:street":"Place de la Gare","addr:postcode":"1420","contact:email":"Pharmacie.Gare@lloydspharma.be","opening_hours":"Mo-Fr 08:30-13:00, 13:30-19:00; Sa 08:30-12:30; Su off","addr:housenumber":"13"},"type":"node","user":{"id":683726,"name":"leonlapin"},"osm_id":1774859786,"timestamp":"2022-02-22T17:03:36Z"},{"lat":50.6430073,"lon":4.3649047,"tags":{"name":"Pharmacie Jonkheere","fixme":"please check precise location","amenity":"pharmacy","dispensing":"no","wheelchair":"yes"},"type":"node","user":{"id":290680,"name":"wheelmap_visitor"},"osm_id":1913068900,"timestamp":"2013-12-05T18:08:21Z"},{"lat":50.6644234,"lon":4.3467357,"tags":{"name":"Williame","phone":"+32 2 384 29 57","amenity":"pharmacy","addr:city":"Ophain-Bois-Seigneur-Isaac","addr:street":"Rue des Combattants","addr:postcode":"1421","addr:housenumber":"39"},"type":"node","user":{"id":6591875,"name":"EIzquierdo"},"osm_id":2498823895,"timestamp":"2021-09-21T11:51:08Z"},{"lat":50.6999622,"lon":4.3614505,"tags":{"name":"Pharmacie Servais","email":"braine@pharmacieservais.be","phone":"+32 2 386 45 00","amenity":"pharmacy","building":"yes","dispensing":"yes","wheelchair":"yes","addr:street":"Chaussée d'Alsemberg","opening_hours":"Mo-Fr 08:30-19:00; Sa 9:00-18:00","addr:housenumber":"577"},"type":"way","user":{"id":4212780,"name":"joost schouppe import"},"osm_id":98162017,"timestamp":"2022-05-09T09:58:59Z"},{"lat":50.6840891,"lon":4.371368,"tags":{"name":"Pharmacie centrale","amenity":"pharmacy","building":"yes","addr:city":"Braine-l'Alleud","dispensing":"yes","healthcare":"pharmacy","addr:street":"Avenue Léon Jourez","roof:levels":"1","addr:postcode":"1420","building:levels":"3","addr:housenumber":"2"},"type":"way","user":{"id":9641966,"name":"Sun937"},"osm_id":170148466,"timestamp":"2020-05-24T18:18:55Z"},{"lat":50.6893813,"lon":4.3686602,"tags":{"name":"Pharmacie de L'Estrée","amenity":"pharmacy","building":"yes","addr:city":"Braine-l'Alleud","dispensing":"yes","healthcare":"pharmacy","addr:street":"Chaussée d'Alsemberg","addr:postcode":"1420","addr:housenumber":"156B"},"type":"way","user":{"id":15399,"name":"eMerzh"},"osm_id":221604355,"timestamp":"2020-12-25T13:46:44Z"},{"lat":50.6783784,"lon":4.3794245,"tags":{"name":"Pharmacie de l'Alliance","phone":"+32 2 384 36 44","amenity":"pharmacy","building":"yes","addr:city":"Braine-l'Alleud","dispensing":"yes","healthcare":"pharmacy","wheelchair":"yes","addr:street":"Avenue Alphonse Allard","addr:postcode":"1420","opening_hours":"Mo-Fr 08:00-19:00; Sa 08:30-18:00; Su off","addr:housenumber":"134,136","contact:facebook":"https://www.facebook.com/pg/Pharmacie-de-lAlliance-498780557140064"},"type":"way","user":{"id":9641966,"name":"Sun937"},"osm_id":337063488,"timestamp":"2020-05-10T17:25:10Z"},{"lat":50.6825159,"lon":4.3999946,"tags":{"name":"Pharmacie Servais","phone":"+32 2 384 24 57","amenity":"pharmacy","building":"yes","addr:city":"Braine l'Alleud","healthcare":"pharmacy","addr:street":"Chaussée de Nivelles","addr:postcode":"1420","opening_hours":"Mo-Fr 09:00-19:00; Sa 09:00-18:00","addr:housenumber":"86","source:geometry:ref":"Picc/3154889","source:geometry:date":"2017-08-02"},"type":"way","user":{"id":15399,"name":"eMerzh"},"osm_id":397960497,"timestamp":"2022-05-18T20:30:59Z"},{"lat":50.6829776,"lon":4.3699524,"tags":{"name":"Pharmacie Familia","amenity":"pharmacy","building":"yes","addr:city":"Braine-l'Alleud","healthcare":"pharmacy","addr:street":"Rue du Môle","addr:postcode":"1420","building:levels":"3","addr:housenumber":"4"},"type":"way","user":{"id":15399,"name":"eMerzh"},"osm_id":437028322,"timestamp":"2019-10-08T21:32:22Z"},{"lat":50.6853224,"lon":4.3772446,"tags":{"name":"Pharmacie Genonceaux","phone":"+32 2 384 32 80","amenity":"pharmacy","website":"https://www.pharmaciemeurisse.be","building":"yes","addr:city":"Braine-l'Alleud","dispensing":"yes","healthcare":"pharmacy","addr:street":"Avenue Napoléon","addr:postcode":"1420","contact:email":"pharmacie.genonceaux@gmail.com","opening_hours":"Mo-Fr 08:30-12:30, 13:30-18:45; Sa 08:30-12:30; Su off","addr:housenumber":"2"},"type":"way","user":{"id":9641966,"name":"Sun937"},"osm_id":477506519,"timestamp":"2020-04-26T14:51:18Z"},{"lat":50.685766,"lon":4.3786638,"tags":{"name":"Pharmacie Vallée Bailly","phone":"+32 2 384 20 62","amenity":"pharmacy","website":"https://www.pharmacie-vallee-bailly.be/","building":"yes","addr:city":"Braine-l'Alleud","dispensing":"yes","healthcare":"pharmacy","addr:street":"Chaussée Reine Astrid","addr:postcode":"1420","opening_hours":"Mo-Fr 08:30-12:30, 13:30-19:00; Sa 08:30-12:30; Su off","addr:housenumber":"37","contact:facebook":"https://www.facebook.com/pg/pharmacievalleebailly"},"type":"way","user":{"id":9641966,"name":"Sun937"},"osm_id":762370190,"timestamp":"2020-04-28T20:54:19Z"}],"history":[{"date":"2022-06-11T22:00:00.000Z","count":null},{"date":"2022-06-12T22:00:00.000Z","count":null},{"date":"2022-06-13T22:00:00.000Z","count":null},{"date":"2022-06-14T22:00:00.000Z","count":null},{"date":"2022-06-15T22:00:00.000Z","count":null},{"date":"2022-06-16T22:00:00.000Z","count":null},{"date":"2022-06-17T22:00:00.000Z","count":null},{"date":"2022-06-18T22:00:00.000Z","count":null},{"date":"2022-06-19T22:00:00.000Z","count":null},{"date":"2022-06-20T22:00:00.000Z","count":null},{"date":"2022-06-21T22:00:00.000Z","count":null},{"date":"2022-06-22T22:00:00.000Z","count":null},{"date":"2022-06-23T22:00:00.000Z","count":null},{"date":"2022-06-24T22:00:00.000Z","count":null},{"date":"2022-06-25T22:00:00.000Z","count":null},{"date":"2022-06-26T22:00:00.000Z","count":null},{"date":"2022-06-27T22:00:00.000Z","count":null},{"date":"2022-06-28T22:00:00.000Z","count":null},{"date":"2022-06-29T22:00:00.000Z","count":null},{"date":"2022-06-30T22:00:00.000Z","count":null},{"date":"2022-07-01T22:00:00.000Z","count":null},{"date":"2022-07-02T22:00:00.000Z","count":null},{"date":"2022-07-03T22:00:00.000Z","count":null},{"date":"2022-07-04T22:00:00.000Z","count":null},{"date":"2022-07-05T22:00:00.000Z","count":null},{"date":"2022-07-06T22:00:00.000Z","count":11},{"date":"2022-07-07T22:00:00.000Z","count":11},{"date":"2022-07-08T22:00:00.000Z","count":11},{"date":"2022-07-09T22:00:00.000Z","count":11},{"date":"2022-07-10T22:00:00.000Z","count":11},{"date":"2022-07-11T22:00:00.000Z","count":11}],"contributors":[{"count":"1","username":"wheelmap_visitor"},{"count":"1","username":"EIzquierdo"},{"count":"4","username":"Sun937"},{"count":"1","username":"joost schouppe import"},{"count":"3","username":"eMerzh"},{"count":"1","username":"leonlapin"}],"listDefinition":{"slug":"pharmacy","name":"Pharmacies","query":"nwr[\"amenity\"=\"pharmacy\"](area.b);","props":{"withOpening":true},"tags":"\"amenity\"=\"pharmacy\""}},"__N_SSG":true}