{"pageProps":{"city":{"slug":"braine-lalleud","name":"Braine-l'Alleud","center":{"lat":50.683627,"lon":4.3749516},"bbox":[4.25,50.6,4.5,50.78]},"items":[{"lat":50.6856732,"lon":4.3754323,"tags":{"name":"BENU Pharmacie","brand":"BENU","branch":"Braine-l'Alleud","amenity":"pharmacy","dispensing":"yes","healthcare":"pharmacy","addr:street":"Place de la Gare","brand:website":"https://benu.be","contact:phone":"+32 2 384 22 77","drive_through":"no","opening_hours":"Mo-Fr 08:30-13:00, 13:30-18:30; Sa-Su off","contact:website":"https://storelocator.benu.be/fr/pharmacie-benu-braine-lalleud","addr:housenumber":"13","wheelchair:description:fr":"Toute petite marche. La porte ne s'ouvre pas automatiquement."},"type":"node","user":{"id":20124809,"name":"bxl-forever_repair"},"osm_id":1774859786,"timestamp":"2025-12-10T16:19:28Z"},{"lat":50.6423888,"lon":4.3643918,"tags":{"name":"Pharmacie Jonkheere","phone":"+32 2 384 23 06","amenity":"pharmacy","dispensing":"yes","healthcare":"pharmacy","wheelchair":"yes","addr:street":"Grand'Route","addr:postcode":"1428","addr:housenumber":"199"},"type":"node","user":{"id":15399,"name":"eMerzh"},"osm_id":1913068900,"timestamp":"2023-12-25T22:05:13Z"},{"lat":50.6644234,"lon":4.3467357,"tags":{"name":"Williame","amenity":"pharmacy","healthcare":"pharmacy","contact:phone":"+32 2 384 29 57"},"type":"node","user":{"id":20124809,"name":"bxl-forever_repair"},"osm_id":2498823895,"timestamp":"2025-02-05T22:59:49Z"},{"lat":50.6888944,"lon":4.3685254,"tags":{"name":"Pharmacie de L'Estrée","amenity":"pharmacy","dispensing":"yes","healthcare":"pharmacy","addr:street":"Chaussée d'Alsemberg","opening_hours":"Mo-Fr 08:30-12:00,13:30-18:30; Sa 08:30-12:00","addr:housenumber":"150"},"type":"node","user":{"id":20124809,"name":"bxl-forever_repair"},"osm_id":10329272332,"timestamp":"2025-12-10T16:19:28Z"},{"lat":50.6783422,"lon":4.3795234,"tags":{"name":"Pharmacie de l'Alliance","amenity":"pharmacy","dispensing":"yes","healthcare":"pharmacy","wheelchair":"yes","addr:street":"Avenue Alphonse Allard","contact:phone":"+32 2 384 36 44","drive_through":"no","opening_hours":"Mo-Fr 08:30-19:00; Sa 08:30-17:00; Su off","website:orders":"https://pharmacie-de-lalliance.clicandcollect.santalis.be/","addr:housenumber":"134,136","contact:facebook":"https://www.facebook.com/pg/Pharmacie-de-lAlliance-498780557140064"},"type":"node","user":{"id":20124809,"name":"bxl-forever_repair"},"osm_id":11359868389,"timestamp":"2025-12-06T20:12:01Z"},{"lat":50.6841174,"lon":4.371347,"tags":{"name":"Pharmacie Centrale","brand":"Axesspharma","branch":"Braine-l'Alleud","amenity":"pharmacy","operator":"Pharmacie Centrale de Braine l'Alleud","dispensing":"yes","healthcare":"pharmacy","wheelchair":"no","contact:phone":"+32 2 384 20 44","drive_through":"no","opening_hours":"Mo-Fr 08:00-18:30; Sa 08:00-12:30; Su off; PH off","contact:website":"https://axesspharma.be/pharmacie/pharmacie-centrale-de-braine-lalleud/"},"type":"node","user":{"id":20124809,"name":"bxl-forever_repair"},"osm_id":13295397977,"timestamp":"2025-11-10T21:07:03Z"},{"lat":50.682986,"lon":4.3699193,"tags":{"name":"Pharmacie Familia","amenity":"pharmacy","dispensing":"yes","healthcare":"pharmacy","contact:email":"braine.lalleud@pharmacie-familia.be","contact:phone":"+32 2 384 25 20","opening_hours":"Mo-Fr 08:30-12:30,13:30-18:30; Sa 08:30-12:00"},"type":"node","user":{"id":20124809,"name":"bxl-forever_repair"},"osm_id":13295397988,"timestamp":"2025-11-10T21:07:03Z"},{"lat":50.6444127,"lon":4.3174081,"tags":{"name":"Pharmacie Derasse","amenity":"pharmacy","dispensing":"yes","healthcare":"pharmacy","contact:phone":"+32 6 745 85 22","drive_through":"no","official_name":"Pharma Derasse BSI","opening_hours":"Mo-Fr 08:30-12:30; 14-00-19:00; Sa 09:00-13:00; Su off","contact:website":"https://pharmacie-derasse-bsi.clicandcollect.santalis.be/"},"type":"node","user":{"id":22278927,"name":"tansu_bla"},"osm_id":13326438241,"timestamp":"2025-11-23T16:15:57Z"},{"lat":50.6999145,"lon":4.361488,"tags":{"name":"Pharmacie Servais","email":"braine@pharmacieservais.be","phone":"+32 2 386 45 00","amenity":"pharmacy","building":"yes","dispensing":"yes","wheelchair":"yes","addr:street":"Chaussée d'Alsemberg","opening_hours":"Mo-Fr 08:30-19:00; Sa 9:00-18:00","addr:housenumber":"577","source:geometry:ref":"Picc/963262","source:geometry:date":"2019-07-03"},"type":"way","user":{"id":15399,"name":"eMerzh"},"osm_id":98162017,"timestamp":"2023-11-29T20:11:00Z"},{"lat":50.6825159,"lon":4.3999946,"tags":{"name":"Pharmacie Servais","brand":"Pharmacie Servais","branch":"Braine Lion","amenity":"pharmacy","building":"yes","dispensing":"yes","healthcare":"pharmacy","addr:street":"Chaussée de Nivelles","contact:email":"braine2@pharmacieservais.be","contact:phone":"+32 2 384 24 57","drive_through":"no","opening_hours":"Mo-Fr 08:30-19:00; Sa 09:00-18:00; Su off","contact:website":"https://www.pharmacieservais.be/fr/pharmacies/adrien-machiels.aspx","addr:housenumber":"86","source:geometry:ref":"Picc/3154889","source:geometry:date":"2017-08-02"},"type":"way","user":{"id":20124809,"name":"bxl-forever_repair"},"osm_id":397960497,"timestamp":"2025-12-10T16:19:28Z"},{"lat":50.6790599,"lon":4.366268,"tags":{"name":"Pharmacie Parvais","email":"info@pharmacieparvais.be","amenity":"pharmacy","toilets":"no","website":"https://www.pharmacieparvais.com/","building":"house","addr:street":"Place du Quartier Saint-Jacques","payment:cash":"yes","contact:phone":"+32 2 384 46 00","opening_hours":"Mo-Fr 08:30-18:30; Sa 08:30-12:30","payment:cards":"yes","payment:qr_code":"no","addr:housenumber":"22","source:geometry:ref":"Picc/3532603","source:geometry:date":"2016-08-16"},"type":"way","user":{"id":15399,"name":"eMerzh"},"osm_id":413172224,"timestamp":"2025-08-11T13:56:08Z"},{"lat":50.6853228,"lon":4.377244,"tags":{"name":"Pharmacie Genonceaux","amenity":"pharmacy","building":"yes","dispensing":"yes","healthcare":"pharmacy","wheelchair":"no","addr:street":"Avenue Napoléon","contact:email":"pharmacie.genonceaux@gmail.com","contact:phone":"+32 2 384 32 80","drive_through":"no","opening_hours":"Mo-Fr 08:30-12:30, 13:30-18:45; Sa 08:30-12:30; Su off","contact:website":"https://genonceaux.pharmacie.be/","addr:housenumber":"2;4","contact:facebook":"https://www.facebook.com/Pharmacie-Genonceaux-345232049364220","source:geometry:ref":"Picc/2874691","source:geometry:date":"2016-08-16"},"type":"way","user":{"id":20124809,"name":"bxl-forever_repair"},"osm_id":477506519,"timestamp":"2025-12-10T16:19:28Z"},{"lat":50.6857665,"lon":4.3786635,"tags":{"name":"Pharmacie Vallée Bailly","amenity":"pharmacy","building":"yes","dispensing":"yes","healthcare":"pharmacy","wheelchair":"yes","addr:street":"Chaussée Reine Astrid","contact:phone":"+32 2 384 20 62","drive_through":"no","opening_hours":"Mo-Fr 08:30-12:30, 13:30-19:00; Sa 08:30-12:30; Su off","contact:website":"https://www.pharmacie-vallee-bailly.be/","addr:housenumber":"37","contact:facebook":"https://www.facebook.com/pg/pharmacievalleebailly","source:geometry:ref":"Picc/234360","source:geometry:date":"2016-08-16"},"type":"way","user":{"id":20124809,"name":"bxl-forever_repair"},"osm_id":762370190,"timestamp":"2025-12-10T16:19:28Z"}],"history":[{"date":"2025-11-19T23:00:00.000Z","count":12},{"date":"2025-11-20T23:00:00.000Z","count":12},{"date":"2025-11-21T23:00:00.000Z","count":12},{"date":"2025-11-22T23:00:00.000Z","count":12},{"date":"2025-11-23T23:00:00.000Z","count":13},{"date":"2025-11-24T23:00:00.000Z","count":13},{"date":"2025-11-25T23:00:00.000Z","count":13},{"date":"2025-11-26T23:00:00.000Z","count":13},{"date":"2025-11-27T23:00:00.000Z","count":13},{"date":"2025-11-28T23:00:00.000Z","count":13},{"date":"2025-11-29T23:00:00.000Z","count":13},{"date":"2025-11-30T23:00:00.000Z","count":13},{"date":"2025-12-01T23:00:00.000Z","count":13},{"date":"2025-12-02T23:00:00.000Z","count":13},{"date":"2025-12-03T23:00:00.000Z","count":13},{"date":"2025-12-04T23:00:00.000Z","count":13},{"date":"2025-12-05T23:00:00.000Z","count":13},{"date":"2025-12-06T23:00:00.000Z","count":13},{"date":"2025-12-07T23:00:00.000Z","count":13},{"date":"2025-12-08T23:00:00.000Z","count":13},{"date":"2025-12-09T23:00:00.000Z","count":13},{"date":"2025-12-10T23:00:00.000Z","count":13},{"date":"2025-12-11T23:00:00.000Z","count":13},{"date":"2025-12-12T23:00:00.000Z","count":13},{"date":"2025-12-13T23:00:00.000Z","count":13},{"date":"2025-12-14T23:00:00.000Z","count":13},{"date":"2025-12-15T23:00:00.000Z","count":13},{"date":"2025-12-16T23:00:00.000Z","count":13},{"date":"2025-12-17T23:00:00.000Z","count":13},{"date":"2025-12-18T23:00:00.000Z","count":13},{"date":"2025-12-19T23:00:00.000Z","count":13}],"contributors":[{"count":"1","username":"tansu_bla"},{"count":"9","username":"bxl-forever_repair"},{"count":"3","username":"eMerzh"}],"listDefinition":{"slug":"pharmacy","name":"Pharmacies","query":"nwr[\"amenity\"=\"pharmacy\"](area.b);","props":{"withOpening":true},"tags":"\"amenity\"=\"pharmacy\""}},"__N_SSG":true}