{"pageProps":{"city":{"slug":"braine-lalleud","name":"Braine-l'Alleud","center":{"lat":50.683627,"lon":4.3749516},"bbox":[4.3004211,50.6259387,4.4119959,50.7342836]},"items":[{"lat":50.698367,"lon":4.3626722,"tags":{"name":"Zen","phone":"+32 2 387 38 88","amenity":"restaurant","cuisine":"asian","addr:city":"Braine-l'Alleud","addr:street":"Chaussée d'Alsemberg","addr:country":"BE","addr:postcode":"1420","addr:housenumber":"499"},"type":"node","osm_id":346595729},{"lat":50.6646667,"lon":4.3146385,"tags":{"name":"Abbaye de Nizelles","amenity":"restaurant","website":"https://abbayedenizelles.be/"},"type":"node","osm_id":1029943071},{"lat":50.6869004,"lon":4.4049675,"tags":{"name":"Wood Wayne","phone":"+32 2 387 54 35","amenity":"restaurant","cuisine":"french","smoking":"no","website":"http://woodwayne.be","wheelchair":"no","internet_access":"no"},"type":"node","osm_id":1222412857},{"lat":50.6851516,"lon":4.3768722,"tags":{"name":"Le Dragon Royal","phone":"+32 2 385 12 88","amenity":"restaurant","cuisine":"chinese","smoking":"no","website":"http://www.dragonroyal-resto.be/","delivery":"no","takeaway":"yes","addr:city":"Braine-l'Alleud","wheelchair":"yes","addr:street":"Avenue Albert 1er","payment:cash":"yes","payment:visa":"yes","addr:postcode":"1420","contact:email":"dragon.king_resto@hotmail.be","opening_hours":"Mo-Fr 12:00-14:30, 18:00-23:00; Sa-Su 12:00-14:30, 18:00-24:00; Tu off; PH Tu 12:00-14:30, 18:00-24:00","outdoor_seating":"no","addr:housenumber":"5","air_conditioning":"yes","contact:facebook":"https://www.facebook.com/pg/DragonRoyalBla","payment:mastercard":"yes"},"type":"node","osm_id":1306996467},{"lat":50.6854622,"lon":4.3752298,"tags":{"name":"Poivre noir","phone":"+32 2 385 14 12","amenity":"restaurant","cuisine":"french","smoking":"no","website":"http://www.poivrenoir.be","addr:city":"Braine-l'Alleud","addr:street":"Place de la Gare","addr:postcode":"1420","contact:email":"info@poivrenoir.be","opening_hours":"We, Su, PH off; Mo 12:00-14:00; Tu,Th,Fr, Sa 12:00-14:00, 19:00-21:00","outdoor_seating":"patio","addr:housenumber":"9"},"type":"node","osm_id":1774857936},{"lat":50.6306264,"lon":4.3539209,"tags":{"name":"Tichoux, Georges et Louis","phone":"+32 67 21 65 33","amenity":"restaurant","cuisine":"french","addr:city":"Lillois-Witterzee","addr:street":"Grand'Route","addr:country":"BE","addr:postcode":"1428","addr:housenumber":"491"},"type":"node","osm_id":1904541688},{"lat":50.6968233,"lon":4.3650077,"tags":{"name":"Le 421","amenity":"restaurant","cuisine":"french","website":"https://www.le421.be/"},"type":"node","osm_id":2306365745},{"lat":50.6679478,"lon":4.3529219,"tags":{"fax":"+32 2 387 10 18","name":"La Ferme du Moulin à Eau","email":"info@lafermedumoulinaeau.be","phone":"+32 2 387 02 12","amenity":"restaurant","website":"http://www.lafermedumoulinaeau.be","addr:city":"Ophain-Bois-Seigneur-Isaac","addr:street":"Rue du Moulin à Eau","addr:country":"BE","addr:postcode":"1421","addr:housename":"La Ferme du Moulin à Eau","addr:housenumber":"3"},"type":"node","osm_id":2463811867},{"lat":50.644552,"lon":4.3663306,"tags":{"name":"Il Tempo Di","email":"iltempodi.lillois@gmail.com","phone":"+32 2 385 13 38","amenity":"restaurant","cuisine":"italian","smoking":"no","website":"http://www.iltempodi.be","addr:city":"Lillois","wheelchair":"yes","addr:street":"Grand'Route","addr:country":"BE","addr:postcode":"1428","internet_access":"no","addr:housenumber":"121","internet_access:fee":"no"},"type":"node","osm_id":2689880267},{"lat":50.6856291,"lon":4.3753991,"tags":{"name":"Saigon Bistro","phone":"+32 2 387 37 87","amenity":"restaurant","cuisine":"vietnamese","smoking":"no","website":"https://saigonbistro.be/","takeaway":"yes","addr:city":"Braine-l'Alleud","wheelchair":"no","addr:street":"Place de la Gare","addr:country":"BE","payment:visa":"yes","addr:postcode":"1420","opening_hours":"Su-Mo off; Tu-Fr 11:45-14:00, 17:30-22:00; Sa 17:30-22:00","internet_access":"yes","addr:housenumber":"12","air_conditioning":"yes","payment:bancontact":"yes","payment:mastercard":"yes"},"type":"node","osm_id":2689903471},{"lat":50.6839138,"lon":4.4020033,"tags":{"name":"La Chine Impériale","phone":"+32 2 384 05 20","amenity":"restaurant","cuisine":"chinese","addr:city":"Braine l'Alleud","addr:street":"Chaussée de Nivelles","addr:country":"BE","addr:postcode":"1420","addr:housenumber":"87"},"type":"node","osm_id":2727519029},{"lat":50.6979008,"lon":4.3588402,"tags":{"name":"Le monde est petit","phone":"+32 2 384 40 29","amenity":"restaurant","cuisine":"chinese","website":"https://lmep65.be/","addr:city":"Braine-l'Alleud","addr:street":"Chaussée de Tubize","addr:country":"BE","microbrewery":"yes","addr:postcode":"1420","opening_hours":"Mo-Fr 12:00-14:00, 18:00-22:00","addr:housename":"Le monde est petit","addr:housenumber":"65"},"type":"node","osm_id":3020376199},{"lat":50.6861692,"lon":4.380816,"tags":{"name":"Le Yakapasta","phone":"+32 2 385 13 90","amenity":"restaurant","cuisine":"brasserie_bar_lounge","smoking":"outside","website":"https://leyakapasta.be/","delivery":"no","takeaway":"yes","addr:city":"Braine-l'Alleud","addr:street":"Chaussée Reine Astrid","addr:postcode":"1420","opening_hours":"Mo,We,Th,Su 12:00-14:30,18:00-22:30; Fr 12:00-14:30,18:00-23:00; Sa 18:00-23:30","outdoor_seating":"yes","addr:housenumber":"77"},"type":"node","osm_id":3646271201},{"lat":50.6860671,"lon":4.3841151,"tags":{"name":"La Pause","phone":"+32 2 385 02 39","amenity":"restaurant","cuisine":"sandwich","smoking":"no","website":"https://www.lapause.be/","delivery":"yes","takeaway":"yes","addr:city":"Braine-l'Alleud","addr:street":"Chaussée de Mont-Saint-Jean","addr:postcode":"1420","opening_hours":"Mo-Fr 07:45-15:00","addr:housenumber":"11"},"type":"node","osm_id":3822452851},{"lat":50.6662718,"lon":4.3821286,"tags":{"name":"Les Terrasses de l'Alliance","access":"private","amenity":"restaurant"},"type":"node","osm_id":3967711792},{"lat":50.6856315,"lon":4.3793515,"tags":{"name":"Maïnoï","craft":"caterer","email":"info@mainoi.be","amenity":"restaurant","cuisine":"thai","website":"https://www.mainoi.be","delivery":"yes","takeaway":"yes","addr:city":"Braine-l'Alleud","addr:street":"Chaussée Reine Astrid","payment:cash":"yes","payment:visa":"yes","phone:mobile":"+32 484 39 80 01","addr:postcode":"1420","opening_hours":"Mo off; Tu-Th, Su 12:00-14:00, 18:00-21:00; Fr 12:00-14:00, 18:00-22:00; Sa 18:00-22:00","outdoor_seating":"terrace","addr:housenumber":"34","contact:facebook":"https://www.facebook.com/pg/Maïnoï-114071650138450","payment:mastercard":"yes","payment:debit_cards":"yes"},"type":"node","osm_id":4100852790},{"lat":50.6860493,"lon":4.3840488,"tags":{"name":"Le Méditerannéen","phone":"+32 2 385 12 64","amenity":"restaurant","cuisine":"mediterranean","website":"https://www.lemediterraneen.be/","addr:street":"Chaussée de Mont-Saint-Jean","opening_hours":"Mo-Th 18:00-22:00; Fr-Sa 18:00-22:30; Su 12:00-14:00, 18:00-22:00","addr:housenumber":"11"},"type":"node","osm_id":4100860092},{"lat":50.68514,"lon":4.3679209,"tags":{"name":"Tasty","amenity":"restaurant","website":"https://www.tasty.pro/","opening_hours":"Mo-Fr 07:00-19:00; Sa 08:00-18:00; Su,PH 09:30-18:00"},"type":"node","osm_id":4108448676},{"lat":50.6683433,"lon":4.378586,"tags":{"name":"Le Copyright","amenity":"restaurant","wheelchair":"yes","toilets:wheelchair":"yes"},"type":"node","osm_id":4494813649},{"lat":50.6445051,"lon":4.3658965,"tags":{"name":"Croc & Go","phone":"+32 2 384 31 41","amenity":"restaurant"},"type":"node","osm_id":5548148189},{"lat":50.6828424,"lon":4.3791866,"tags":{"name":"WAW MOMO","amenity":"restaurant","cuisine":"sandwich;indian;thai","takeaway":"yes","addr:city":"Braine-l'Alleud","addr:street":"Avenue Raymond Brassinne","description":"Sandwicherie - Petite restauration","addr:postcode":"1420","contact:phone":"+32 2 203 43 00","opening_hours":"Mo-Th 10:00-15:00, 17:00-20:00; Fr 10:00-15:00, 17:00-21:00; Sa 17:00-21:00; Su 17:00-20:00","addr:housenumber":"18","contact:facebook":"https://www.facebook.com/pg/WAW-MOMO-Braine-LAlleud-105182914650605/"},"type":"node","osm_id":6071739731},{"lat":50.6965107,"lon":4.3621973,"tags":{"name":"Le Super Grill","amenity":"restaurant","cuisine":"steak_house","website":"http://lesupergrill.be/"},"type":"node","osm_id":6102940369},{"lat":50.6961827,"lon":4.3650366,"tags":{"name":"Soho","amenity":"restaurant","cuisine":"chinese"},"type":"node","osm_id":6102947663},{"lat":50.6894131,"lon":4.3628543,"tags":{"name":"Wotaland","amenity":"restaurant","cuisine":"pizza"},"type":"node","osm_id":6376317001},{"lat":50.6878739,"lon":4.3687403,"tags":{"name":"Le Cèdre","phone":"+32 2 384 73 75","amenity":"restaurant","cuisine":"lebanese","takeaway":"yes","addr:city":"Braine-l'Alleud","addr:street":"Chaussée d'Alsemberg","addr:postcode":"1420","opening_hours":"Tu-Su 12:00-15:00, 18:00-22:00; Mo off","diet:vegetarian":"yes","addr:housenumber":"118","contact:facebook":"https://fr-fr.facebook.com/Le-Cèdre-1105669799470020"},"type":"node","osm_id":6683202617},{"lat":50.6842167,"lon":4.3707239,"tags":{"name":"Annyeong","amenity":"restaurant","cuisine":"korean","delivery":"yes","takeaway":"yes","addr:city":"Braine-l'Alleud","addr:street":"Place du Môle","phone:mobile":"+32 468 42 31 91","addr:postcode":"1420","opening_hours":"Mo off; Tu-Su 12:00-15:00, 18:00-22:00","addr:housenumber":"13","contact:facebook":"https://www.facebook.com/pg/annyeongbla"},"type":"node","osm_id":7485812980},{"lat":50.6840138,"lon":4.3711449,"tags":{"name":"Fromton","phone":"+32 2 387 52 00","amenity":"restaurant","cuisine":"regional","website":"https://www.fromton.be/","takeaway":"yes","addr:city":"Braine-l'Alleud","addr:street":"Place du Môle","description":"Restaurant, traiteur et tea-room.","addr:postcode":"1420","opening_hours":"Su-Mo off; Tu-We 10:00-18:30; Th-Sa 10:00-21:30","addr:housenumber":"12","contact:facebook":"https://www.facebook.com/pg/monsieurpatate.be"},"type":"node","osm_id":7486389891},{"lat":50.6846438,"lon":4.3709986,"tags":{"name":"Ouzerie - La Mezzerie","phone":"+32 2 384 99 90","amenity":"restaurant","cuisine":"greek;mediterranean","website":"http://www.lamezzerie.be","addr:city":"Braine-l'Alleud","addr:street":"Place Cardinal Mercier","addr:postcode":"1420","contact:email":"lamezzerie@gmail.be","opening_hours":"Fr-Sa 12:00-14:00, 19:00-21:30","addr:housenumber":"2","contact:facebook":"https://www.facebook.com/pg/Ouzerie-La-Mezzerie-164810773596987"},"type":"node","osm_id":7499181315},{"lat":50.6841442,"lon":4.3714256,"tags":{"name":"Thaï Select","craft":"caterer","phone":"+32 2 384 16 78","amenity":"restaurant","cuisine":"thai","website":"https://thai-select.business.site","takeaway":"yes","addr:city":"Braine-l'Alleud","addr:street":"Avenue Léon Jourez","addr:postcode":"1420","opening_hours":"Su-Mo PH off; Tu-Fr 11:30-15:00, 17:30-21:00; Sa 17:30-21:00","addr:housenumber":"4","contact:facebook":"https://www.facebook.com/pg/ThaiSelect4u"},"type":"node","osm_id":7501798454},{"lat":50.6836137,"lon":4.3707973,"tags":{"name":"Restaurant Sylvain","craft":"caterer","amenity":"restaurant","cuisine":"french;belgian","website":"https://restaurantsylvain.eatbu.com","delivery":"yes","takeaway":"yes","addr:city":"Braine-l'Alleud","addr:unit":"A","addr:street":"Rue des Fossés","payment:cash":"yes","payment:visa":"yes","phone:mobile":"+32 478 67 56 70","addr:postcode":"1420","contact:email":"traiteursylvain@gmail.com","opening_hours":"Su-Fr 11:30-14:00; Sa off","addr:housenumber":"11","payment:mastercard":"yes","payment:contactless":"yes","payment:debit_cards":"yes"},"type":"node","osm_id":7503738496},{"lat":50.6844073,"lon":4.3715884,"tags":{"name":"Le Pavot","phone":"+32 2 384 99 82","amenity":"restaurant","cuisine":"french;polish","website":"https://www.lepavot.be","addr:city":"Braine-l'Alleud","addr:street":"Avenue Léon Jourez","reservation":"required","phone:mobile":"+32 497 14 19 30","addr:postcode":"1420","contact:email":"restaurant.lepavot@hotmail.com","opening_hours":"Tu-We off; Th, Fr, Su, Mo 12:00-14:00, 19:00-21:00; Sa 19:00-21:00","addr:housenumber":"17","contact:facebook":"https://www.facebook.com/pg/www.lepavot.be"},"type":"node","osm_id":7503738497},{"lat":50.6856995,"lon":4.379754,"tags":{"name":"Taj Mahal","craft":"caterer","phone":"+32 2 852 10 47","amenity":"restaurant","cuisine":"indian","website":"http://www.restaurant-indien.be","delivery":"yes","takeaway":"yes","addr:city":"Braine-l'Alleud","diet:halal":"yes","addr:street":"Chaussée Reine Astrid","description":"Restaurant et traiteur indien. Salon de thé/café avec vente de thés bios et de cafés.","addr:postcode":"1420","contact:email":"info@restaurant-indien.be","opening_hours":"Mo off; Tu, Th 12:00-21:00; We 12:00-21:30; Fr 16:00-22:00; Sa 12:00-22:00; Su 13:00-21:00","addr:housenumber":"40","contact:facebook":"https://www.facebook.com/pg/tajmahalexpress1420"},"type":"node","osm_id":7519579626},{"lat":50.6920213,"lon":4.3406311,"tags":{"amenity":"restaurant"},"type":"node","osm_id":9087696001},{"lat":50.6981026,"lon":4.3599234,"tags":{"name":"L'Étoilé Sud","phone":"+3226739942","amenity":"restaurant","cuisine":"sandwich","website":"https://www.traiteur-etoile.be/","takeaway":"yes","outdoor_seating":"yes"},"type":"node","osm_id":9148459895},{"lat":50.6653896,"lon":4.3472147,"tags":{"name":"La Padella","phone":"+32477776728","amenity":"restaurant","cuisine":"italian","takeaway":"yes"},"type":"node","osm_id":9337761036},{"lat":50.6857336,"lon":4.3784275,"tags":{"name":"Tamishan sushi","phone":"+32 2 640 14 04","amenity":"restaurant","cuisine":"sushi;japanese","website":"https://tamishansushi.be","delivery":"yes","takeaway":"yes","addr:city":"Braine-l'Alleud","addr:street":"Chaussée Reine Astrid","addr:country":"BE","addr:postcode":"1420","contact:phone":"+32 2 640 14 04","opening_hours":"Mo 11:30-14:30,18:00-22:00, Tu off, We-Su 11:30-14:30,18:00-22:00","contact:website":"https://tamishansushi.be","addr:housenumber":"31","contact:facebook":"https://www.facebook.com/tamishansushi/"},"type":"node","osm_id":9573474220},{"lat":50.6955975,"lon":4.3412267,"tags":{"name":"Le Welly","phone":"+32 2 384 05 84","amenity":"restaurant","cuisine":"sandwich","website":"https://lewelly-express.be/","takeaway":"yes"},"type":"node","osm_id":9751510064},{"lat":50.6932521,"lon":4.3319785,"tags":{"name":"Toit","level":"2","phone":"+3228970123","amenity":"restaurant","cuisine":"french","website":"http://www.toit-restaurant.be/","addr:city":"Braine-l'Alleud","addr:street":"Chaussée de Tubize","addr:country":"BE","addr:postcode":"1420","addr:housenumber":"481"},"type":"node","osm_id":9751545152},{"lat":50.6687764,"lon":4.3875602,"tags":{"name":"Brasserie de l'Alliance","phone":"+32 2 387 17 20","amenity":"restaurant","cuisine":"french","smoking":"no","website":"http://sites.resto.com/lalliance/info.cfm","building":"yes","addr:city":"Braine l'Alleud","addr:street":"Avenue Alphonse Allard","addr:country":"BE","addr:postcode":"1420","addr:housenumber":"400"},"type":"way","osm_id":98017053},{"lat":50.6603025,"lon":4.3796725,"tags":{"fax":"+32 2 384 10 42","name":"Jacques Marit","email":"info@jacquesmarit.com","phone":"+32 2 384 15 01","amenity":"restaurant","cuisine":"french","smoking":"no","website":"http://www.jacquesmarit.be","building":"yes","addr:city":"Braine l'Alleud","addr:street":"Chaussée de Nivelles","addr:country":"BE","microbrewery":"no","addr:postcode":"1420","addr:housenumber":"336"},"type":"way","osm_id":101384678},{"lat":50.6410336,"lon":4.3627432,"tags":{"name":"La Vache sur le Toit","email":"info@la-vache-sur-le-toit.be","phone":"+32 2 385 36 50","amenity":"restaurant","cuisine":"french","smoking":"no","website":"https://lavachesurletoit.be/","building":"yes","addr:city":"Lillois-Witterzée","wheelchair":"no","addr:street":"Grand'Route","addr:country":"BE","addr:postcode":"1428","opening_hours":"Mo-Su 12:00-14:30,19:00-22:30","addr:housenumber":"262"},"type":"way","osm_id":105617805},{"lat":50.6821961,"lon":4.3695288,"tags":{"name":"Tra Di Noi","amenity":"restaurant","cuisine":"italian","building":"yes","heritage":"4","addr:city":"Braine-l'Alleud","addr:street":"Grand-Place Baudouin Ier","clt:criteria":"M","addr:postcode":"1420","clt:exception":"no","clt:restricted":"no","addr:housenumber":"13","heritage:operator":"clt","clt:inscription_date":"1983-08-29"},"type":"way","osm_id":257181479},{"lat":50.6813498,"lon":4.3990331,"tags":{"name":"Fuji","phone":"+32 2 387 43 67","amenity":"restaurant","cuisine":"japanese","smoking":"no","website":"https://www.restofuji.be/","building":"yes","addr:city":"Braine l'Alleud","addr:street":"Chaussée de Nivelles","addr:postcode":"1420","addr:housenumber":"100","source:geometry:ref":"Picc/1723563","source:geometry:date":"2016-08-16"},"type":"way","osm_id":397977658},{"lat":50.682322,"lon":4.370043,"tags":{"name":"Philippe Meyers","amenity":"restaurant","cuisine":"french","building":"yes","addr:city":"Braine-l'Alleud","addr:street":"Rue Doyen Van Belle","addr:postcode":"1420","building:levels":"3","addr:housenumber":"6"},"type":"way","osm_id":413115879},{"lat":50.6836802,"lon":4.3713169,"tags":{"name":"Jade Garden","phone":"+32 2 385 01 77","amenity":"restaurant","cuisine":"chinese","building":"yes","addr:city":"Braine-l'Alleud","addr:street":"Rue des Fossés","addr:postcode":"1420","opening_hours":"Th-Tu 12:00-14:00, 18:30-22:00","building:levels":"3","addr:housenumber":"23"},"type":"way","osm_id":413119677},{"lat":50.6824568,"lon":4.3700934,"tags":{"name":"La Bonne Assiette","amenity":"restaurant","building":"yes","addr:city":"Braine-l'Alleud","addr:street":"Rue Doyen Van Belle","addr:postcode":"1420","addr:housenumber":"7"},"type":"way","osm_id":437039856},{"lat":50.6831254,"lon":4.3703192,"tags":{"name":"Les trois Apôtres","amenity":"restaurant","cuisine":"italian","building":"yes","addr:city":"Braine-l'Alleud","addr:street":"Rue de l'Ancien Bourg","addr:postcode":"1420","addr:housenumber":"9"},"type":"way","osm_id":437039866},{"lat":50.6793147,"lon":4.3668934,"tags":{"name":"M&M Comme à la maison","phone":"+32 2 3850507","amenity":"restaurant","cuisine":"friture","website":"https://mm-snack.com/","building":"yes","addr:city":"Braine-l'Alleud","addr:street":"Chaussée d'Ophain","roof:levels":"1","addr:postcode":"1420","opening_hours":"Tu-Th 11:30-22:00; Fr 11:30-23:30; Sa-Su 11:30-22:00","payment:maestro":"yes","addr:housenumber":"59"},"type":"way","osm_id":439001039},{"lat":50.6832128,"lon":4.3741215,"tags":{"name":"Lou Soleou","phone":"+32 2 385 25 35","amenity":"restaurant","cuisine":"french;pizza","organic":"yes","terrace":"yes","website":"https://lousoleou.be/","building":"yes","takeaway":"yes","addr:city":"Braine-l'Alleud","fair_trade":"yes","roof:shape":"gabled","wheelchair":"no","addr:street":"Place Sainte-Anne","roof:levels":"1","addr:postcode":"1420","contact:email":"info@lousoleou.be","opening_hours":"Mo-Th 12:00-14:00, 18:30-21:30; Fr 12:00-14:00, 18:30-22:30; Sa 18:30-22:30, Su off","building:levels":"2","addr:housenumber":"17"},"type":"way","osm_id":729003818},{"lat":50.6845878,"lon":4.3751229,"tags":{"name":"Chez Rino","email":"info@chezrino.be","phone":"+32 2 384 05 26","amenity":"restaurant","cuisine":"italian","smoking":"no","website":"https://www.chezrino.be/","building":"yes","addr:city":"Braine-l'Alleud","wheelchair":"no","addr:street":"Rue des Croix du Feu","addr:country":"BE","addr:postcode":"1420","opening_hours":"Mo-Fr 08:30-20:00","outdoor_seating":"terrace","addr:housenumber":"2"},"type":"way","osm_id":733085189},{"lat":50.6849994,"lon":4.3751858,"tags":{"name":"Chen Xi","phone":"+32 2 384 36 88","amenity":"restaurant","cuisine":"chinese;cantonese;thai","website":"https://chenxi2012168.wixsite.com/chenxi","building":"yes","takeaway":"yes","addr:city":"Braine l'Alleud","addr:street":"Place de la Gare","addr:country":"BE","addr:postcode":"1420","opening_hours":"We-Mo 12:00 -14:30, 18:00 - 22:30; Tu 12:00 -14:30","building:levels":"2","outdoor_seating":"terrace","addr:housenumber":"4"},"type":"way","osm_id":738356724},{"lat":50.6849792,"lon":4.374519,"tags":{"name":"Hau Wang","craft":"caterer","phone":"+32 2 384 41 96","amenity":"restaurant","cuisine":"chinese","smoking":"no","website":"http://www.hauwang.be/en/contact","building":"yes","delivery":"yes","takeaway":"yes","addr:city":"Braine-l'Alleud","roof:shape":"gabled","wheelchair":"yes","addr:street":"Avenue Léon Jourez","roof:levels":"1","phone:mobile":"+32 488 98 51 38","addr:postcode":"1420","opening_hours":"Mo-Su 11:30-14:30, 17:30-23:00","building:levels":"3","internet_access":"yes","addr:housenumber":"72","roof:orientation":"across"},"type":"way","osm_id":738356733},{"lat":50.6852633,"lon":4.3769621,"tags":{"name":"Pizza Hut","brand":"Pizza Hut","phone":"+32 2 385 41 41","amenity":"restaurant","cuisine":"pizza","website":"https://www.pizzahut.be/fr","building":"yes","addr:city":"Braine-l'Alleud","addr:street":"Chaussée Reine Astrid","addr:postcode":"1420","opening_hours":"Mo-Su 11:30-22:00","brand:wikidata":"Q191615","brand:wikipedia":"en:Pizza Hut","outdoor_seating":"no","addr:housenumber":"2"},"type":"way","osm_id":762730380}],"history":[{"date":"2022-06-08T22:00:00.000Z","count":null},{"date":"2022-06-09T22:00:00.000Z","count":null},{"date":"2022-06-10T22:00:00.000Z","count":null},{"date":"2022-06-11T22:00:00.000Z","count":null},{"date":"2022-06-12T22:00:00.000Z","count":null},{"date":"2022-06-13T22:00:00.000Z","count":null},{"date":"2022-06-14T22:00:00.000Z","count":null},{"date":"2022-06-15T22:00:00.000Z","count":null},{"date":"2022-06-16T22:00:00.000Z","count":null},{"date":"2022-06-17T22:00:00.000Z","count":null},{"date":"2022-06-18T22:00:00.000Z","count":null},{"date":"2022-06-19T22:00:00.000Z","count":null},{"date":"2022-06-20T22:00:00.000Z","count":null},{"date":"2022-06-21T22:00:00.000Z","count":null},{"date":"2022-06-22T22:00:00.000Z","count":null},{"date":"2022-06-23T22:00:00.000Z","count":null},{"date":"2022-06-24T22:00:00.000Z","count":null},{"date":"2022-06-25T22:00:00.000Z","count":null},{"date":"2022-06-26T22:00:00.000Z","count":null},{"date":"2022-06-27T22:00:00.000Z","count":null},{"date":"2022-06-28T22:00:00.000Z","count":null},{"date":"2022-06-29T22:00:00.000Z","count":null},{"date":"2022-06-30T22:00:00.000Z","count":null},{"date":"2022-07-01T22:00:00.000Z","count":null},{"date":"2022-07-02T22:00:00.000Z","count":null},{"date":"2022-07-03T22:00:00.000Z","count":null},{"date":"2022-07-04T22:00:00.000Z","count":null},{"date":"2022-07-05T22:00:00.000Z","count":null},{"date":"2022-07-06T22:00:00.000Z","count":53},{"date":"2022-07-07T22:00:00.000Z","count":53},{"date":"2022-07-08T22:00:00.000Z","count":53}],"listDefinition":{"slug":"restaurant","name":"Restaurants","query":"nwr[\"amenity\"=\"restaurant\"](area.b);","props":{"withOpening":true},"tags":"\"amenity\"=\"restaurant\""}},"__N_SSG":true}