{"pageProps":{"city":{"slug":"braine-lalleud","name":"Braine-l'Alleud","center":{"lat":50.683627,"lon":4.3749516},"bbox":[4.3004211,50.6259387,4.4119959,50.7342836]},"items":[{"osm_id":34717469,"type":"way","lat":50.6880006,"lon":4.3900578,"tags":{"amenity":"school","name":"Collège Cardinal Mercier"}},{"osm_id":40130459,"type":"way","lat":50.6890516,"lon":4.3804688,"tags":{"addr:city":"Braine-l'Alleud","addr:country":"BE","addr:housenumber":"102","addr:postcode":"1420","addr:street":"Rue de la Vallée Bailly","amenity":"school","contact:phone":"+32 2 384 05 80","denomination":"roman_catholic","description":"Vallée Bailly comprend l’École fondamentale libre Vallée Bailly (maternel & primaire) et l’Institut Vallée Bailly (secondaire).","isced:level":"0;1;2;3","name":"Vallée Bailly","phone":"+32 2 389 49 50","religion":"christian","website":"https://www.valleebailly.be/"}},{"osm_id":104841671,"type":"way","lat":50.6439537,"lon":4.3630538,"tags":{"amenity":"school","name":"École communale de Lillois"}},{"osm_id":164109478,"type":"way","lat":50.6858063,"lon":4.3720275,"tags":{"amenity":"school","name":"Institut Saint Jacques"}},{"osm_id":164959055,"type":"way","lat":50.6657761,"lon":4.3413509,"tags":{"addr:housenumber":"51","addr:street":"Rue du Cimetière","amenity":"school","name":"École communale Le Grand Frêne","website":"https://ecole-grand-frene.braine-lalleud.be/fr/copy_accueil.html"}},{"osm_id":166278337,"type":"way","lat":50.6434005,"lon":4.3206074,"tags":{"addr:city":"Bois-Seigneur-Isaac","addr:housenumber":"19","addr:postcode":"1421","addr:street":"Rue Armand de Moor","amenity":"school","name":"École Saint Jean-Baptiste","phone":"+32 67 21 90 09"}},{"osm_id":450070766,"type":"way","lat":50.6838808,"lon":4.3834604,"tags":{"addr:city":"Braine-l'Alleud","addr:housenumber":"35","addr:postcode":"1420","addr:street":"Boulevard de l'Europe","amenity":"school","barrier":"fence","name":"Athénée royal Riva-Bella"}},{"osm_id":477477320,"type":"way","lat":50.7034661,"lon":4.3557864,"tags":{"amenity":"school","name":"École Saint-Joseph"}},{"osm_id":585055022,"type":"way","lat":50.6456797,"lon":4.3626512,"tags":{"addr:city":"Lillois-Witterzée","addr:housenumber":"21","addr:postcode":"1428","addr:street":"Rue René Francq","amenity":"school","denomination":"catholic","email":"info@st-leon.be","name":"École Saint-Léon","phone":"+32 2 387 08 07","religion":"christian","school":"elementary","school:FR":"maternelle","website":"http://www.st-leon.be/"}},{"osm_id":651039561,"type":"way","lat":50.6940787,"lon":4.3686914,"tags":{"addr:city":"Braine-l'Alleud","addr:housenumber":"292","addr:postcode":"1420","addr:street":"Chaussée d'Alsemberg","amenity":"school","denomination":"catholic","name":"La Petite Ecole dans la Prairie","phone":"+32 2 385 01 87","religion":"christian","website":"https://sainte-bernadette.be/"}},{"osm_id":725269062,"type":"way","lat":50.679185,"lon":4.3718372,"tags":{"addr:city":"Braine-l'Alleud","addr:housenumber":"2","addr:postcode":"1420","addr:street":"Rue Saint-Laurent","amenity":"school","name":"Athénée Royal de Braine-l'Alleud - Internat"}},{"osm_id":734248844,"type":"way","lat":50.6832232,"lon":4.3681344,"tags":{"addr:city":"Braine-l'Alleud","addr:housenumber":"24","addr:postcode":"1420","addr:street":"Rue des Jambes","amenity":"school","name":"École Sainte Famille","religion":"christian"}},{"osm_id":935683142,"type":"way","lat":50.6754702,"lon":4.3843945,"tags":{"addr:city":"Braine-l'Alleud","addr:housenumber":"203","addr:postcode":"1420","addr:street":"Avenue Alphonse Allard","amenity":"school","isced:level":"0;1","max_age":"12","min_age":"2,5","name":"École Sainte-Bernadette","religion":"christian","website":"http://sainte-bernadette.be"}},{"osm_id":1020400089,"type":"way","lat":50.6646604,"lon":4.3457054,"tags":{"addr:housenumber":"21","addr:street":"Rue du Cimetière","amenity":"school","name":"École Anne Marie","website":"https://www.ecole-anne-marie.be/"}}],"history":[{"date":"2022-06-08T22:00:00.000Z","count":null},{"date":"2022-06-09T22:00:00.000Z","count":null},{"date":"2022-06-10T22:00:00.000Z","count":null},{"date":"2022-06-11T22:00:00.000Z","count":null},{"date":"2022-06-12T22:00:00.000Z","count":null},{"date":"2022-06-13T22:00:00.000Z","count":null},{"date":"2022-06-14T22:00:00.000Z","count":null},{"date":"2022-06-15T22:00:00.000Z","count":null},{"date":"2022-06-16T22:00:00.000Z","count":null},{"date":"2022-06-17T22:00:00.000Z","count":null},{"date":"2022-06-18T22:00:00.000Z","count":null},{"date":"2022-06-19T22:00:00.000Z","count":null},{"date":"2022-06-20T22:00:00.000Z","count":null},{"date":"2022-06-21T22:00:00.000Z","count":null},{"date":"2022-06-22T22:00:00.000Z","count":null},{"date":"2022-06-23T22:00:00.000Z","count":null},{"date":"2022-06-24T22:00:00.000Z","count":null},{"date":"2022-06-25T22:00:00.000Z","count":null},{"date":"2022-06-26T22:00:00.000Z","count":null},{"date":"2022-06-27T22:00:00.000Z","count":null},{"date":"2022-06-28T22:00:00.000Z","count":null},{"date":"2022-06-29T22:00:00.000Z","count":null},{"date":"2022-06-30T22:00:00.000Z","count":null},{"date":"2022-07-01T22:00:00.000Z","count":null},{"date":"2022-07-02T22:00:00.000Z","count":null},{"date":"2022-07-03T22:00:00.000Z","count":null},{"date":"2022-07-04T22:00:00.000Z","count":null},{"date":"2022-07-05T22:00:00.000Z","count":null},{"date":"2022-07-06T22:00:00.000Z","count":14},{"date":"2022-07-07T22:00:00.000Z","count":14},{"date":"2022-07-08T22:00:00.000Z","count":14}],"listDefinition":{"slug":"school","name":"Écoles","query":"nwr[\"amenity\"=\"school\"](area.b);","component":"School","tags":"\"amenity\"=\"school\""}},"__N_SSG":true}